<?xml version="1.0" encoding="UTF-8"?>
<gpx creator="Alps 2026 Race Center" version="1.1" xmlns="http://www.topografix.com/GPX/1/1" xmlns:xsi="http://www.w3.org/2001/XMLSchema-instance" xsi:schemaLocation="http://www.topografix.com/GPX/1/1 http://www.topografix.com/GPX/1/1/gpx.xsd">
  <metadata><name>Dag 1 — Alpe d'Huez</name></metadata>
  <trk>
    <name>Dag 1 — Alpe d'Huez</name>
    <trkseg>
      <trkpt lat="45.054920" lon="6.028450"></trkpt>
      <trkpt lat="45.055210" lon="6.028100"></trkpt>
      <trkpt lat="45.055680" lon="6.028960"></trkpt>
      <trkpt lat="45.055950" lon="6.029630"></trkpt>
      <trkpt lat="45.055170" lon="6.029790"></trkpt>
      <trkpt lat="45.055000" lon="6.029890"></trkpt>
      <trkpt lat="45.054960" lon="6.029960"></trkpt>
      <trkpt lat="45.054940" lon="6.030070"></trkpt>
      <trkpt lat="45.054940" lon="6.030300"></trkpt>
      <trkpt lat="45.054870" lon="6.031050"></trkpt>
      <trkpt lat="45.054820" lon="6.031460"></trkpt>
      <trkpt lat="45.054740" lon="6.031910"></trkpt>
      <trkpt lat="45.054750" lon="6.031990"></trkpt>
      <trkpt lat="45.054890" lon="6.032400"></trkpt>
      <trkpt lat="45.055110" lon="6.032760"></trkpt>
      <trkpt lat="45.055900" lon="6.033680"></trkpt>
      <trkpt lat="45.056860" lon="6.034730"></trkpt>
      <trkpt lat="45.058020" lon="6.036070"></trkpt>
      <trkpt lat="45.058160" lon="6.036250"></trkpt>
      <trkpt lat="45.058890" lon="6.037380"></trkpt>
      <trkpt lat="45.059050" lon="6.037760"></trkpt>
      <trkpt lat="45.059060" lon="6.037880"></trkpt>
      <trkpt lat="45.059110" lon="6.037990"></trkpt>
      <trkpt lat="45.059180" lon="6.038050"></trkpt>
      <trkpt lat="45.059260" lon="6.038050"></trkpt>
      <trkpt lat="45.059330" lon="6.038010"></trkpt>
      <trkpt lat="45.059390" lon="6.037920"></trkpt>
      <trkpt lat="45.059520" lon="6.037830"></trkpt>
      <trkpt lat="45.060620" lon="6.037620"></trkpt>
      <trkpt lat="45.061560" lon="6.037370"></trkpt>
      <trkpt lat="45.061750" lon="6.037290"></trkpt>
      <trkpt lat="45.062300" lon="6.036990"></trkpt>
      <trkpt lat="45.062460" lon="6.036970"></trkpt>
      <trkpt lat="45.062640" lon="6.036990"></trkpt>
      <trkpt lat="45.062850" lon="6.037090"></trkpt>
      <trkpt lat="45.062990" lon="6.037230"></trkpt>
      <trkpt lat="45.064360" lon="6.039170"></trkpt>
      <trkpt lat="45.064990" lon="6.040010"></trkpt>
      <trkpt lat="45.065120" lon="6.040100"></trkpt>
      <trkpt lat="45.065250" lon="6.040100"></trkpt>
      <trkpt lat="45.065770" lon="6.039920"></trkpt>
      <trkpt lat="45.066490" lon="6.039620"></trkpt>
      <trkpt lat="45.066650" lon="6.039580"></trkpt>
      <trkpt lat="45.067810" lon="6.039410"></trkpt>
      <trkpt lat="45.068160" lon="6.039240"></trkpt>
      <trkpt lat="45.068310" lon="6.039230"></trkpt>
      <trkpt lat="45.068620" lon="6.039300"></trkpt>
      <trkpt lat="45.068720" lon="6.039290"></trkpt>
      <trkpt lat="45.069140" lon="6.039180"></trkpt>
      <trkpt lat="45.069360" lon="6.039090"></trkpt>
      <trkpt lat="45.069760" lon="6.038860"></trkpt>
      <trkpt lat="45.070120" lon="6.038720"></trkpt>
      <trkpt lat="45.070240" lon="6.038690"></trkpt>
      <trkpt lat="45.070520" lon="6.038700"></trkpt>
      <trkpt lat="45.070910" lon="6.038790"></trkpt>
      <trkpt lat="45.071420" lon="6.038950"></trkpt>
      <trkpt lat="45.071730" lon="6.038980"></trkpt>
      <trkpt lat="45.071810" lon="6.039010"></trkpt>
      <trkpt lat="45.071860" lon="6.039090"></trkpt>
      <trkpt lat="45.071860" lon="6.039190"></trkpt>
      <trkpt lat="45.071840" lon="6.039250"></trkpt>
      <trkpt lat="45.071780" lon="6.039290"></trkpt>
      <trkpt lat="45.071160" lon="6.039130"></trkpt>
      <trkpt lat="45.070990" lon="6.039120"></trkpt>
      <trkpt lat="45.070610" lon="6.039260"></trkpt>
      <trkpt lat="45.070360" lon="6.039410"></trkpt>
      <trkpt lat="45.070130" lon="6.039630"></trkpt>
      <trkpt lat="45.069860" lon="6.040000"></trkpt>
      <trkpt lat="45.069570" lon="6.040310"></trkpt>
      <trkpt lat="45.069280" lon="6.040770"></trkpt>
      <trkpt lat="45.069220" lon="6.040830"></trkpt>
      <trkpt lat="45.069130" lon="6.040870"></trkpt>
      <trkpt lat="45.068260" lon="6.041060"></trkpt>
      <trkpt lat="45.068070" lon="6.041130"></trkpt>
      <trkpt lat="45.067640" lon="6.041350"></trkpt>
      <trkpt lat="45.066840" lon="6.041840"></trkpt>
      <trkpt lat="45.066440" lon="6.042050"></trkpt>
      <trkpt lat="45.066400" lon="6.042100"></trkpt>
      <trkpt lat="45.066400" lon="6.042190"></trkpt>
      <trkpt lat="45.066440" lon="6.042250"></trkpt>
      <trkpt lat="45.066480" lon="6.042260"></trkpt>
      <trkpt lat="45.067400" lon="6.041790"></trkpt>
      <trkpt lat="45.067610" lon="6.041740"></trkpt>
      <trkpt lat="45.067980" lon="6.041870"></trkpt>
      <trkpt lat="45.068000" lon="6.041900"></trkpt>
      <trkpt lat="45.068010" lon="6.042010"></trkpt>
      <trkpt lat="45.067980" lon="6.042060"></trkpt>
      <trkpt lat="45.067910" lon="6.042080"></trkpt>
      <trkpt lat="45.067640" lon="6.041920"></trkpt>
      <trkpt lat="45.067570" lon="6.041910"></trkpt>
      <trkpt lat="45.067440" lon="6.041960"></trkpt>
      <trkpt lat="45.067300" lon="6.042060"></trkpt>
      <trkpt lat="45.066950" lon="6.042490"></trkpt>
      <trkpt lat="45.066790" lon="6.042640"></trkpt>
      <trkpt lat="45.065980" lon="6.043080"></trkpt>
      <trkpt lat="45.065940" lon="6.043150"></trkpt>
      <trkpt lat="45.065940" lon="6.043250"></trkpt>
      <trkpt lat="45.065990" lon="6.043320"></trkpt>
      <trkpt lat="45.066060" lon="6.043330"></trkpt>
      <trkpt lat="45.066290" lon="6.043210"></trkpt>
      <trkpt lat="45.066790" lon="6.043090"></trkpt>
      <trkpt lat="45.067070" lon="6.042870"></trkpt>
      <trkpt lat="45.067170" lon="6.042820"></trkpt>
      <trkpt lat="45.067240" lon="6.042810"></trkpt>
      <trkpt lat="45.067490" lon="6.042820"></trkpt>
      <trkpt lat="45.067640" lon="6.042800"></trkpt>
      <trkpt lat="45.068030" lon="6.042630"></trkpt>
      <trkpt lat="45.068320" lon="6.042610"></trkpt>
      <trkpt lat="45.068830" lon="6.042660"></trkpt>
      <trkpt lat="45.068880" lon="6.042690"></trkpt>
      <trkpt lat="45.068900" lon="6.042760"></trkpt>
      <trkpt lat="45.068870" lon="6.042860"></trkpt>
      <trkpt lat="45.068810" lon="6.042890"></trkpt>
      <trkpt lat="45.068730" lon="6.042880"></trkpt>
      <trkpt lat="45.068480" lon="6.042800"></trkpt>
      <trkpt lat="45.068320" lon="6.042800"></trkpt>
      <trkpt lat="45.068220" lon="6.042850"></trkpt>
      <trkpt lat="45.067260" lon="6.043640"></trkpt>
      <trkpt lat="45.067200" lon="6.043720"></trkpt>
      <trkpt lat="45.067170" lon="6.043810"></trkpt>
      <trkpt lat="45.067210" lon="6.043980"></trkpt>
      <trkpt lat="45.067670" lon="6.044460"></trkpt>
      <trkpt lat="45.067740" lon="6.044510"></trkpt>
      <trkpt lat="45.068070" lon="6.044680"></trkpt>
      <trkpt lat="45.068750" lon="6.044850"></trkpt>
      <trkpt lat="45.068890" lon="6.044960"></trkpt>
      <trkpt lat="45.069110" lon="6.045290"></trkpt>
      <trkpt lat="45.069190" lon="6.045380"></trkpt>
      <trkpt lat="45.069500" lon="6.045630"></trkpt>
      <trkpt lat="45.069890" lon="6.045800"></trkpt>
      <trkpt lat="45.070010" lon="6.045870"></trkpt>
      <trkpt lat="45.070110" lon="6.045980"></trkpt>
      <trkpt lat="45.070510" lon="6.046710"></trkpt>
      <trkpt lat="45.070670" lon="6.046940"></trkpt>
      <trkpt lat="45.071400" lon="6.047620"></trkpt>
      <trkpt lat="45.071620" lon="6.047860"></trkpt>
      <trkpt lat="45.071850" lon="6.048150"></trkpt>
      <trkpt lat="45.071920" lon="6.048150"></trkpt>
      <trkpt lat="45.071980" lon="6.048070"></trkpt>
      <trkpt lat="45.071980" lon="6.047990"></trkpt>
      <trkpt lat="45.071960" lon="6.047920"></trkpt>
      <trkpt lat="45.071730" lon="6.047740"></trkpt>
      <trkpt lat="45.071640" lon="6.047640"></trkpt>
      <trkpt lat="45.071330" lon="6.047220"></trkpt>
      <trkpt lat="45.071140" lon="6.046880"></trkpt>
      <trkpt lat="45.071050" lon="6.046580"></trkpt>
      <trkpt lat="45.071040" lon="6.046150"></trkpt>
      <trkpt lat="45.071090" lon="6.045050"></trkpt>
      <trkpt lat="45.071050" lon="6.044830"></trkpt>
      <trkpt lat="45.070880" lon="6.044400"></trkpt>
      <trkpt lat="45.070880" lon="6.044300"></trkpt>
      <trkpt lat="45.070930" lon="6.044240"></trkpt>
      <trkpt lat="45.071000" lon="6.044240"></trkpt>
      <trkpt lat="45.071050" lon="6.044300"></trkpt>
      <trkpt lat="45.071300" lon="6.044890"></trkpt>
      <trkpt lat="45.071510" lon="6.046080"></trkpt>
      <trkpt lat="45.071600" lon="6.046350"></trkpt>
      <trkpt lat="45.071700" lon="6.046530"></trkpt>
      <trkpt lat="45.071860" lon="6.046740"></trkpt>
      <trkpt lat="45.072050" lon="6.046950"></trkpt>
      <trkpt lat="45.072850" lon="6.047600"></trkpt>
      <trkpt lat="45.072970" lon="6.047670"></trkpt>
      <trkpt lat="45.073050" lon="6.047690"></trkpt>
      <trkpt lat="45.073350" lon="6.047710"></trkpt>
      <trkpt lat="45.073410" lon="6.047750"></trkpt>
      <trkpt lat="45.073540" lon="6.047930"></trkpt>
      <trkpt lat="45.073670" lon="6.048500"></trkpt>
      <trkpt lat="45.073680" lon="6.048610"></trkpt>
      <trkpt lat="45.073660" lon="6.048780"></trkpt>
      <trkpt lat="45.073570" lon="6.048940"></trkpt>
      <trkpt lat="45.073390" lon="6.049190"></trkpt>
      <trkpt lat="45.073320" lon="6.049390"></trkpt>
      <trkpt lat="45.073260" lon="6.049700"></trkpt>
      <trkpt lat="45.073150" lon="6.049920"></trkpt>
      <trkpt lat="45.072440" lon="6.051070"></trkpt>
      <trkpt lat="45.072430" lon="6.051180"></trkpt>
      <trkpt lat="45.072450" lon="6.051220"></trkpt>
      <trkpt lat="45.072500" lon="6.051260"></trkpt>
      <trkpt lat="45.072570" lon="6.051240"></trkpt>
      <trkpt lat="45.072720" lon="6.050940"></trkpt>
      <trkpt lat="45.072870" lon="6.050760"></trkpt>
      <trkpt lat="45.073590" lon="6.050180"></trkpt>
      <trkpt lat="45.073670" lon="6.050100"></trkpt>
      <trkpt lat="45.073960" lon="6.049680"></trkpt>
      <trkpt lat="45.074060" lon="6.049610"></trkpt>
      <trkpt lat="45.074190" lon="6.049580"></trkpt>
      <trkpt lat="45.074550" lon="6.049550"></trkpt>
      <trkpt lat="45.074630" lon="6.049500"></trkpt>
      <trkpt lat="45.074760" lon="6.049360"></trkpt>
      <trkpt lat="45.074870" lon="6.049110"></trkpt>
      <trkpt lat="45.075010" lon="6.048660"></trkpt>
      <trkpt lat="45.075010" lon="6.048500"></trkpt>
      <trkpt lat="45.074990" lon="6.048370"></trkpt>
      <trkpt lat="45.074810" lon="6.047900"></trkpt>
      <trkpt lat="45.074940" lon="6.047800"></trkpt>
      <trkpt lat="45.074980" lon="6.048020"></trkpt>
      <trkpt lat="45.075200" lon="6.048590"></trkpt>
      <trkpt lat="45.075250" lon="6.048890"></trkpt>
      <trkpt lat="45.075220" lon="6.049630"></trkpt>
      <trkpt lat="45.075200" lon="6.049730"></trkpt>
      <trkpt lat="45.075140" lon="6.049880"></trkpt>
      <trkpt lat="45.075040" lon="6.050000"></trkpt>
      <trkpt lat="45.074870" lon="6.050090"></trkpt>
      <trkpt lat="45.074590" lon="6.050190"></trkpt>
      <trkpt lat="45.074450" lon="6.050290"></trkpt>
      <trkpt lat="45.074360" lon="6.050450"></trkpt>
      <trkpt lat="45.074280" lon="6.050670"></trkpt>
      <trkpt lat="45.074170" lon="6.050840"></trkpt>
      <trkpt lat="45.073570" lon="6.051660"></trkpt>
      <trkpt lat="45.073390" lon="6.051840"></trkpt>
      <trkpt lat="45.073220" lon="6.051980"></trkpt>
      <trkpt lat="45.073200" lon="6.052040"></trkpt>
      <trkpt lat="45.073200" lon="6.052120"></trkpt>
      <trkpt lat="45.073250" lon="6.052170"></trkpt>
      <trkpt lat="45.073300" lon="6.052160"></trkpt>
      <trkpt lat="45.073820" lon="6.051580"></trkpt>
      <trkpt lat="45.074500" lon="6.050960"></trkpt>
      <trkpt lat="45.074810" lon="6.050800"></trkpt>
      <trkpt lat="45.075210" lon="6.050700"></trkpt>
      <trkpt lat="45.075380" lon="6.050630"></trkpt>
      <trkpt lat="45.075840" lon="6.050270"></trkpt>
      <trkpt lat="45.075920" lon="6.050110"></trkpt>
      <trkpt lat="45.076100" lon="6.049510"></trkpt>
      <trkpt lat="45.076370" lon="6.048880"></trkpt>
      <trkpt lat="45.076380" lon="6.048690"></trkpt>
      <trkpt lat="45.076280" lon="6.048070"></trkpt>
      <trkpt lat="45.076290" lon="6.047950"></trkpt>
      <trkpt lat="45.076490" lon="6.047350"></trkpt>
      <trkpt lat="45.076540" lon="6.047280"></trkpt>
      <trkpt lat="45.076600" lon="6.047270"></trkpt>
      <trkpt lat="45.076650" lon="6.047330"></trkpt>
      <trkpt lat="45.076660" lon="6.047430"></trkpt>
      <trkpt lat="45.076500" lon="6.047830"></trkpt>
      <trkpt lat="45.076480" lon="6.048030"></trkpt>
      <trkpt lat="45.076560" lon="6.048320"></trkpt>
      <trkpt lat="45.076700" lon="6.048650"></trkpt>
      <trkpt lat="45.076720" lon="6.048900"></trkpt>
      <trkpt lat="45.076710" lon="6.049350"></trkpt>
      <trkpt lat="45.076670" lon="6.049640"></trkpt>
      <trkpt lat="45.076540" lon="6.050020"></trkpt>
      <trkpt lat="45.076470" lon="6.050700"></trkpt>
      <trkpt lat="45.076320" lon="6.051040"></trkpt>
      <trkpt lat="45.076070" lon="6.051440"></trkpt>
      <trkpt lat="45.075980" lon="6.051550"></trkpt>
      <trkpt lat="45.075680" lon="6.051780"></trkpt>
      <trkpt lat="45.075190" lon="6.052100"></trkpt>
      <trkpt lat="45.075020" lon="6.052180"></trkpt>
      <trkpt lat="45.074810" lon="6.052230"></trkpt>
      <trkpt lat="45.074760" lon="6.052340"></trkpt>
      <trkpt lat="45.074770" lon="6.052440"></trkpt>
      <trkpt lat="45.074810" lon="6.052490"></trkpt>
      <trkpt lat="45.074850" lon="6.052510"></trkpt>
      <trkpt lat="45.074880" lon="6.052500"></trkpt>
      <trkpt lat="45.074990" lon="6.052420"></trkpt>
      <trkpt lat="45.075150" lon="6.052260"></trkpt>
      <trkpt lat="45.075540" lon="6.052090"></trkpt>
      <trkpt lat="45.075750" lon="6.051980"></trkpt>
      <trkpt lat="45.075850" lon="6.051950"></trkpt>
      <trkpt lat="45.076260" lon="6.051880"></trkpt>
      <trkpt lat="45.076620" lon="6.051750"></trkpt>
      <trkpt lat="45.076780" lon="6.051650"></trkpt>
      <trkpt lat="45.076960" lon="6.051420"></trkpt>
      <trkpt lat="45.077110" lon="6.051190"></trkpt>
      <trkpt lat="45.077250" lon="6.050860"></trkpt>
      <trkpt lat="45.077720" lon="6.050110"></trkpt>
      <trkpt lat="45.077980" lon="6.049620"></trkpt>
      <trkpt lat="45.078040" lon="6.049470"></trkpt>
      <trkpt lat="45.078060" lon="6.049300"></trkpt>
      <trkpt lat="45.077930" lon="6.048910"></trkpt>
      <trkpt lat="45.077940" lon="6.048530"></trkpt>
      <trkpt lat="45.077920" lon="6.048330"></trkpt>
      <trkpt lat="45.077810" lon="6.047960"></trkpt>
      <trkpt lat="45.077810" lon="6.047850"></trkpt>
      <trkpt lat="45.077840" lon="6.047800"></trkpt>
      <trkpt lat="45.077900" lon="6.047800"></trkpt>
      <trkpt lat="45.077970" lon="6.047860"></trkpt>
      <trkpt lat="45.078040" lon="6.048300"></trkpt>
      <trkpt lat="45.078160" lon="6.048670"></trkpt>
      <trkpt lat="45.078370" lon="6.049110"></trkpt>
      <trkpt lat="45.078420" lon="6.049250"></trkpt>
      <trkpt lat="45.078430" lon="6.049650"></trkpt>
      <trkpt lat="45.078400" lon="6.050040"></trkpt>
      <trkpt lat="45.078320" lon="6.050360"></trkpt>
      <trkpt lat="45.077830" lon="6.051700"></trkpt>
      <trkpt lat="45.077660" lon="6.052350"></trkpt>
      <trkpt lat="45.077460" lon="6.052730"></trkpt>
      <trkpt lat="45.077370" lon="6.052850"></trkpt>
      <trkpt lat="45.077080" lon="6.053170"></trkpt>
      <trkpt lat="45.077050" lon="6.053270"></trkpt>
      <trkpt lat="45.077070" lon="6.053380"></trkpt>
      <trkpt lat="45.077110" lon="6.053460"></trkpt>
      <trkpt lat="45.077160" lon="6.053510"></trkpt>
      <trkpt lat="45.077230" lon="6.053540"></trkpt>
      <trkpt lat="45.077600" lon="6.053620"></trkpt>
      <trkpt lat="45.077740" lon="6.053700"></trkpt>
      <trkpt lat="45.078170" lon="6.054080"></trkpt>
      <trkpt lat="45.079170" lon="6.054660"></trkpt>
      <trkpt lat="45.079360" lon="6.054690"></trkpt>
      <trkpt lat="45.079590" lon="6.054630"></trkpt>
      <trkpt lat="45.079740" lon="6.054620"></trkpt>
      <trkpt lat="45.080400" lon="6.054790"></trkpt>
      <trkpt lat="45.080610" lon="6.054870"></trkpt>
      <trkpt lat="45.080680" lon="6.054930"></trkpt>
      <trkpt lat="45.080770" lon="6.055090"></trkpt>
      <trkpt lat="45.080810" lon="6.055240"></trkpt>
      <trkpt lat="45.080810" lon="6.055370"></trkpt>
      <trkpt lat="45.080760" lon="6.055500"></trkpt>
      <trkpt lat="45.080720" lon="6.055540"></trkpt>
      <trkpt lat="45.080300" lon="6.055740"></trkpt>
      <trkpt lat="45.080190" lon="6.055870"></trkpt>
      <trkpt lat="45.080130" lon="6.056060"></trkpt>
      <trkpt lat="45.080050" lon="6.056600"></trkpt>
      <trkpt lat="45.080060" lon="6.056800"></trkpt>
      <trkpt lat="45.080120" lon="6.056990"></trkpt>
      <trkpt lat="45.080360" lon="6.057540"></trkpt>
      <trkpt lat="45.080740" lon="6.058560"></trkpt>
      <trkpt lat="45.081070" lon="6.059080"></trkpt>
      <trkpt lat="45.081290" lon="6.059740"></trkpt>
      <trkpt lat="45.081490" lon="6.060050"></trkpt>
      <trkpt lat="45.081790" lon="6.061050"></trkpt>
      <trkpt lat="45.081980" lon="6.061780"></trkpt>
      <trkpt lat="45.082160" lon="6.062260"></trkpt>
      <trkpt lat="45.082210" lon="6.062310"></trkpt>
      <trkpt lat="45.082260" lon="6.062320"></trkpt>
      <trkpt lat="45.082340" lon="6.062240"></trkpt>
      <trkpt lat="45.082330" lon="6.062120"></trkpt>
      <trkpt lat="45.082120" lon="6.061730"></trkpt>
      <trkpt lat="45.082090" lon="6.061620"></trkpt>
      <trkpt lat="45.082080" lon="6.061420"></trkpt>
      <trkpt lat="45.082190" lon="6.059710"></trkpt>
      <trkpt lat="45.082230" lon="6.058170"></trkpt>
      <trkpt lat="45.082300" lon="6.057910"></trkpt>
      <trkpt lat="45.082390" lon="6.057750"></trkpt>
      <trkpt lat="45.082510" lon="6.057650"></trkpt>
      <trkpt lat="45.082590" lon="6.057610"></trkpt>
      <trkpt lat="45.082730" lon="6.057590"></trkpt>
      <trkpt lat="45.083180" lon="6.057580"></trkpt>
      <trkpt lat="45.083580" lon="6.057470"></trkpt>
      <trkpt lat="45.083630" lon="6.057480"></trkpt>
      <trkpt lat="45.083680" lon="6.057560"></trkpt>
      <trkpt lat="45.083660" lon="6.057680"></trkpt>
      <trkpt lat="45.083640" lon="6.057710"></trkpt>
      <trkpt lat="45.083350" lon="6.057930"></trkpt>
      <trkpt lat="45.083150" lon="6.058290"></trkpt>
      <trkpt lat="45.083050" lon="6.058610"></trkpt>
      <trkpt lat="45.083000" lon="6.059000"></trkpt>
      <trkpt lat="45.083020" lon="6.059690"></trkpt>
      <trkpt lat="45.083060" lon="6.060060"></trkpt>
      <trkpt lat="45.083450" lon="6.061930"></trkpt>
      <trkpt lat="45.083480" lon="6.062150"></trkpt>
      <trkpt lat="45.083490" lon="6.062520"></trkpt>
      <trkpt lat="45.083520" lon="6.062600"></trkpt>
      <trkpt lat="45.083560" lon="6.062630"></trkpt>
      <trkpt lat="45.083620" lon="6.062620"></trkpt>
      <trkpt lat="45.083650" lon="6.062570"></trkpt>
      <trkpt lat="45.083660" lon="6.062500"></trkpt>
      <trkpt lat="45.083610" lon="6.062220"></trkpt>
      <trkpt lat="45.083580" lon="6.061650"></trkpt>
      <trkpt lat="45.083600" lon="6.061460"></trkpt>
      <trkpt lat="45.083900" lon="6.060690"></trkpt>
      <trkpt lat="45.084020" lon="6.060480"></trkpt>
      <trkpt lat="45.084140" lon="6.060360"></trkpt>
      <trkpt lat="45.084240" lon="6.060290"></trkpt>
      <trkpt lat="45.084350" lon="6.060240"></trkpt>
      <trkpt lat="45.085140" lon="6.060020"></trkpt>
      <trkpt lat="45.085350" lon="6.059930"></trkpt>
      <trkpt lat="45.085540" lon="6.059820"></trkpt>
      <trkpt lat="45.085770" lon="6.059620"></trkpt>
      <trkpt lat="45.086430" lon="6.058920"></trkpt>
      <trkpt lat="45.086620" lon="6.058740"></trkpt>
      <trkpt lat="45.086850" lon="6.058550"></trkpt>
      <trkpt lat="45.087500" lon="6.058080"></trkpt>
      <trkpt lat="45.087970" lon="6.057380"></trkpt>
      <trkpt lat="45.088260" lon="6.056860"></trkpt>
      <trkpt lat="45.088320" lon="6.056710"></trkpt>
      <trkpt lat="45.088350" lon="6.056490"></trkpt>
      <trkpt lat="45.088310" lon="6.056320"></trkpt>
      <trkpt lat="45.088220" lon="6.056120"></trkpt>
      <trkpt lat="45.088120" lon="6.055980"></trkpt>
      <trkpt lat="45.088100" lon="6.055920"></trkpt>
      <trkpt lat="45.088130" lon="6.055830"></trkpt>
      <trkpt lat="45.088180" lon="6.055820"></trkpt>
      <trkpt lat="45.088360" lon="6.055980"></trkpt>
      <trkpt lat="45.088890" lon="6.056340"></trkpt>
      <trkpt lat="45.088960" lon="6.056420"></trkpt>
      <trkpt lat="45.089040" lon="6.056650"></trkpt>
      <trkpt lat="45.089120" lon="6.057090"></trkpt>
      <trkpt lat="45.089160" lon="6.057910"></trkpt>
      <trkpt lat="45.089140" lon="6.058250"></trkpt>
      <trkpt lat="45.088850" lon="6.059870"></trkpt>
      <trkpt lat="45.088680" lon="6.060330"></trkpt>
      <trkpt lat="45.088670" lon="6.060420"></trkpt>
      <trkpt lat="45.088690" lon="6.060460"></trkpt>
      <trkpt lat="45.088750" lon="6.060470"></trkpt>
      <trkpt lat="45.088920" lon="6.060240"></trkpt>
      <trkpt lat="45.089660" lon="6.059540"></trkpt>
      <trkpt lat="45.090520" lon="6.058340"></trkpt>
      <trkpt lat="45.090770" lon="6.057940"></trkpt>
      <trkpt lat="45.091220" lon="6.057040"></trkpt>
      <trkpt lat="45.091380" lon="6.056480"></trkpt>
      <trkpt lat="45.091400" lon="6.056300"></trkpt>
      <trkpt lat="45.091390" lon="6.055760"></trkpt>
      <trkpt lat="45.091350" lon="6.055490"></trkpt>
      <trkpt lat="45.091370" lon="6.055380"></trkpt>
      <trkpt lat="45.091420" lon="6.055340"></trkpt>
      <trkpt lat="45.091470" lon="6.055350"></trkpt>
      <trkpt lat="45.091550" lon="6.055440"></trkpt>
      <trkpt lat="45.091570" lon="6.055530"></trkpt>
      <trkpt lat="45.091590" lon="6.055960"></trkpt>
      <trkpt lat="45.091800" lon="6.056850"></trkpt>
      <trkpt lat="45.091830" lon="6.057080"></trkpt>
      <trkpt lat="45.091830" lon="6.057380"></trkpt>
      <trkpt lat="45.091740" lon="6.058870"></trkpt>
      <trkpt lat="45.091280" lon="6.061100"></trkpt>
      <trkpt lat="45.091200" lon="6.061300"></trkpt>
      <trkpt lat="45.091220" lon="6.061370"></trkpt>
      <trkpt lat="45.091010" lon="6.061970"></trkpt>
      <trkpt lat="45.090750" lon="6.063120"></trkpt>
      <trkpt lat="45.090710" lon="6.063720"></trkpt>
      <trkpt lat="45.090510" lon="6.064330"></trkpt>
      <trkpt lat="45.090420" lon="6.065110"></trkpt>
      <trkpt lat="45.090450" lon="6.065300"></trkpt>
      <trkpt lat="45.090500" lon="6.065390"></trkpt>
      <trkpt lat="45.090620" lon="6.065460"></trkpt>
      <trkpt lat="45.090780" lon="6.065500"></trkpt>
      <trkpt lat="45.090920" lon="6.065440"></trkpt>
      <trkpt lat="45.090970" lon="6.065340"></trkpt>
      <trkpt lat="45.091010" lon="6.065070"></trkpt>
      <trkpt lat="45.091010" lon="6.064750"></trkpt>
      <trkpt lat="45.091090" lon="6.064340"></trkpt>
      <trkpt lat="45.091250" lon="6.063920"></trkpt>
      <trkpt lat="45.091570" lon="6.063490"></trkpt>
      <trkpt lat="45.092110" lon="6.062440"></trkpt>
      <trkpt lat="45.092480" lon="6.061950"></trkpt>
      <trkpt lat="45.092600" lon="6.061720"></trkpt>
      <trkpt lat="45.092690" lon="6.061310"></trkpt>
      <trkpt lat="45.092730" lon="6.061210"></trkpt>
      <trkpt lat="45.092780" lon="6.061200"></trkpt>
      <trkpt lat="45.092800" lon="6.061220"></trkpt>
      <trkpt lat="45.092830" lon="6.061330"></trkpt>
      <trkpt lat="45.092740" lon="6.061650"></trkpt>
      <trkpt lat="45.092610" lon="6.063000"></trkpt>
      <trkpt lat="45.092590" lon="6.063650"></trkpt>
      <trkpt lat="45.092720" lon="6.064940"></trkpt>
      <trkpt lat="45.092900" lon="6.065830"></trkpt>
      <trkpt lat="45.092980" lon="6.066760"></trkpt>
      <trkpt lat="45.093060" lon="6.067030"></trkpt>
      <trkpt lat="45.093320" lon="6.067500"></trkpt>
      <trkpt lat="45.093290" lon="6.067550"></trkpt>
      <trkpt lat="45.093240" lon="6.067800"></trkpt>
      <trkpt lat="45.093050" lon="6.068310"></trkpt>
      <trkpt lat="45.093020" lon="6.068300"></trkpt>
      <trkpt lat="45.092960" lon="6.068320"></trkpt>
      <trkpt lat="45.092900" lon="6.068420"></trkpt>
      <trkpt lat="45.092890" lon="6.068730"></trkpt>
      <trkpt lat="45.092570" lon="6.069430"></trkpt>
      <trkpt lat="45.092480" lon="6.069660"></trkpt>
      <trkpt lat="45.092430" lon="6.069870"></trkpt>
      <trkpt lat="45.092410" lon="6.070190"></trkpt>
      <trkpt lat="45.092510" lon="6.071920"></trkpt>
      <trkpt lat="45.092490" lon="6.071970"></trkpt>
      <trkpt lat="45.092300" lon="6.072280"></trkpt>
      <trkpt lat="45.091570" lon="6.072990"></trkpt>
      <trkpt lat="45.090840" lon="6.073730"></trkpt>
      <trkpt lat="45.090700" lon="6.073820"></trkpt>
      <trkpt lat="45.090510" lon="6.073840"></trkpt>
      <trkpt lat="45.090410" lon="6.073810"></trkpt>
      <trkpt lat="45.090320" lon="6.073710"></trkpt>
      <trkpt lat="45.090250" lon="6.073680"></trkpt>
      <trkpt lat="45.090130" lon="6.073710"></trkpt>
      <trkpt lat="45.090050" lon="6.073810"></trkpt>
      <trkpt lat="45.090010" lon="6.073940"></trkpt>
      <trkpt lat="45.090020" lon="6.074080"></trkpt>
      <trkpt lat="45.090080" lon="6.074220"></trkpt>
      <trkpt lat="45.090080" lon="6.074520"></trkpt>
      <trkpt lat="45.090040" lon="6.074700"></trkpt>
      <trkpt lat="45.089850" lon="6.075160"></trkpt>
      <trkpt lat="45.089650" lon="6.076000"></trkpt>
      <trkpt lat="45.089450" lon="6.076400"></trkpt>
      <trkpt lat="45.089350" lon="6.076550"></trkpt>
      <trkpt lat="45.089130" lon="6.076800"></trkpt>
      <trkpt lat="45.089020" lon="6.076860"></trkpt>
      <trkpt lat="45.088710" lon="6.076980"></trkpt>
      <trkpt lat="45.088590" lon="6.077100"></trkpt>
      <trkpt lat="45.088520" lon="6.077270"></trkpt>
      <trkpt lat="45.088490" lon="6.077460"></trkpt>
      <trkpt lat="45.088520" lon="6.077610"></trkpt>
      <trkpt lat="45.088640" lon="6.077820"></trkpt>
      <trkpt lat="45.088730" lon="6.077840"></trkpt>
      <trkpt lat="45.089080" lon="6.077670"></trkpt>
      <trkpt lat="45.089230" lon="6.077650"></trkpt>
      <trkpt lat="45.089290" lon="6.077690"></trkpt>
      <trkpt lat="45.089360" lon="6.077860"></trkpt>
      <trkpt lat="45.089370" lon="6.078010"></trkpt>
      <trkpt lat="45.089350" lon="6.078110"></trkpt>
      <trkpt lat="45.089270" lon="6.078280"></trkpt>
      <trkpt lat="45.089080" lon="6.078540"></trkpt>
      <trkpt lat="45.088940" lon="6.078780"></trkpt>
      <trkpt lat="45.088800" lon="6.079320"></trkpt>
      <trkpt lat="45.088780" lon="6.079700"></trkpt>
      <trkpt lat="45.088800" lon="6.079830"></trkpt>
      <trkpt lat="45.088870" lon="6.079960"></trkpt>
      <trkpt lat="45.088990" lon="6.080010"></trkpt>
      <trkpt lat="45.089070" lon="6.080000"></trkpt>
      <trkpt lat="45.089160" lon="6.079960"></trkpt>
      <trkpt lat="45.089430" lon="6.079770"></trkpt>
      <trkpt lat="45.089780" lon="6.079330"></trkpt>
      <trkpt lat="45.089890" lon="6.079220"></trkpt>
      <trkpt lat="45.090340" lon="6.078980"></trkpt>
      <trkpt lat="45.090430" lon="6.078990"></trkpt>
      <trkpt lat="45.090530" lon="6.079090"></trkpt>
      <trkpt lat="45.090610" lon="6.079290"></trkpt>
      <trkpt lat="45.090610" lon="6.079390"></trkpt>
      <trkpt lat="45.090550" lon="6.079510"></trkpt>
      <trkpt lat="45.090290" lon="6.079710"></trkpt>
      <trkpt lat="45.090190" lon="6.079870"></trkpt>
      <trkpt lat="45.090110" lon="6.080150"></trkpt>
      <trkpt lat="45.090100" lon="6.080250"></trkpt>
      <trkpt lat="45.090140" lon="6.080460"></trkpt>
      <trkpt lat="45.090110" lon="6.080650"></trkpt>
      <trkpt lat="45.089950" lon="6.081030"></trkpt>
      <trkpt lat="45.089830" lon="6.081180"></trkpt>
      <trkpt lat="45.089640" lon="6.081360"></trkpt>
      <trkpt lat="45.089510" lon="6.081530"></trkpt>
      <trkpt lat="45.089450" lon="6.081830"></trkpt>
      <trkpt lat="45.089450" lon="6.081990"></trkpt>
      <trkpt lat="45.089490" lon="6.082210"></trkpt>
      <trkpt lat="45.089790" lon="6.083420"></trkpt>
      <trkpt lat="45.089920" lon="6.084380"></trkpt>
      <trkpt lat="45.089900" lon="6.084680"></trkpt>
      <trkpt lat="45.089840" lon="6.084860"></trkpt>
      <trkpt lat="45.089410" lon="6.085620"></trkpt>
      <trkpt lat="45.089220" lon="6.086170"></trkpt>
      <trkpt lat="45.089120" lon="6.087270"></trkpt>
      <trkpt lat="45.089040" lon="6.087650"></trkpt>
      <trkpt lat="45.088930" lon="6.087930"></trkpt>
      <trkpt lat="45.088330" lon="6.089050"></trkpt>
      <trkpt lat="45.087830" lon="6.089940"></trkpt>
      <trkpt lat="45.087610" lon="6.090390"></trkpt>
      <trkpt lat="45.087420" lon="6.090970"></trkpt>
      <trkpt lat="45.087300" lon="6.091510"></trkpt>
      <trkpt lat="45.087280" lon="6.091870"></trkpt>
      <trkpt lat="45.087310" lon="6.092150"></trkpt>
      <trkpt lat="45.087270" lon="6.092290"></trkpt>
      <trkpt lat="45.087230" lon="6.092330"></trkpt>
      <trkpt lat="45.087180" lon="6.092350"></trkpt>
      <trkpt lat="45.087120" lon="6.092350"></trkpt>
      <trkpt lat="45.087070" lon="6.092330"></trkpt>
      <trkpt lat="45.087020" lon="6.092280"></trkpt>
      <trkpt lat="45.086970" lon="6.092190"></trkpt>
      <trkpt lat="45.086950" lon="6.091740"></trkpt>
      <trkpt lat="45.086930" lon="6.091620"></trkpt>
      <trkpt lat="45.086690" lon="6.090940"></trkpt>
      <trkpt lat="45.086410" lon="6.090470"></trkpt>
      <trkpt lat="45.086300" lon="6.089980"></trkpt>
      <trkpt lat="45.086260" lon="6.089860"></trkpt>
      <trkpt lat="45.086200" lon="6.089790"></trkpt>
      <trkpt lat="45.086150" lon="6.089770"></trkpt>
      <trkpt lat="45.086090" lon="6.089780"></trkpt>
      <trkpt lat="45.086020" lon="6.089840"></trkpt>
      <trkpt lat="45.085990" lon="6.089950"></trkpt>
      <trkpt lat="45.086090" lon="6.090560"></trkpt>
      <trkpt lat="45.086100" lon="6.090830"></trkpt>
      <trkpt lat="45.085920" lon="6.092100"></trkpt>
      <trkpt lat="45.085830" lon="6.092590"></trkpt>
      <trkpt lat="45.085570" lon="6.093550"></trkpt>
      <trkpt lat="45.085370" lon="6.094720"></trkpt>
      <trkpt lat="45.085320" lon="6.095550"></trkpt>
      <trkpt lat="45.085330" lon="6.095910"></trkpt>
      <trkpt lat="45.085300" lon="6.096120"></trkpt>
      <trkpt lat="45.085030" lon="6.096870"></trkpt>
      <trkpt lat="45.084720" lon="6.098090"></trkpt>
      <trkpt lat="45.084640" lon="6.099140"></trkpt>
      <trkpt lat="45.084750" lon="6.099800"></trkpt>
      <trkpt lat="45.084760" lon="6.100150"></trkpt>
      <trkpt lat="45.084730" lon="6.100750"></trkpt>
      <trkpt lat="45.084770" lon="6.102780"></trkpt>
      <trkpt lat="45.084810" lon="6.103450"></trkpt>
      <trkpt lat="45.084790" lon="6.104010"></trkpt>
      <trkpt lat="45.084740" lon="6.104460"></trkpt>
      <trkpt lat="45.084770" lon="6.104560"></trkpt>
      <trkpt lat="45.084900" lon="6.104840"></trkpt>
      <trkpt lat="45.085000" lon="6.105160"></trkpt>
      <trkpt lat="45.085170" lon="6.105500"></trkpt>
      <trkpt lat="45.085190" lon="6.105670"></trkpt>
      <trkpt lat="45.085150" lon="6.105820"></trkpt>
      <trkpt lat="45.085030" lon="6.105910"></trkpt>
      <trkpt lat="45.084500" lon="6.106060"></trkpt>
      <trkpt lat="45.084280" lon="6.106240"></trkpt>
      <trkpt lat="45.084150" lon="6.106430"></trkpt>
      <trkpt lat="45.084070" lon="6.106800"></trkpt>
      <trkpt lat="45.083840" lon="6.107180"></trkpt>
      <trkpt lat="45.083740" lon="6.107250"></trkpt>
      <trkpt lat="45.083390" lon="6.107410"></trkpt>
      <trkpt lat="45.082910" lon="6.107790"></trkpt>
      <trkpt lat="45.082580" lon="6.108170"></trkpt>
      <trkpt lat="45.082290" lon="6.108440"></trkpt>
      <trkpt lat="45.082090" lon="6.108710"></trkpt>
      <trkpt lat="45.081990" lon="6.108810"></trkpt>
      <trkpt lat="45.081780" lon="6.108960"></trkpt>
      <trkpt lat="45.081680" lon="6.109000"></trkpt>
      <trkpt lat="45.081500" lon="6.109030"></trkpt>
      <trkpt lat="45.081190" lon="6.109020"></trkpt>
      <trkpt lat="45.080980" lon="6.109090"></trkpt>
      <trkpt lat="45.080740" lon="6.109250"></trkpt>
      <trkpt lat="45.080580" lon="6.109380"></trkpt>
      <trkpt lat="45.080340" lon="6.109670"></trkpt>
      <trkpt lat="45.080210" lon="6.109780"></trkpt>
      <trkpt lat="45.080160" lon="6.110000"></trkpt>
      <trkpt lat="45.080200" lon="6.110540"></trkpt>
      <trkpt lat="45.080230" lon="6.110690"></trkpt>
      <trkpt lat="45.080290" lon="6.110870"></trkpt>
      <trkpt lat="45.080310" lon="6.111050"></trkpt>
      <trkpt lat="45.080300" lon="6.111340"></trkpt>
      <trkpt lat="45.080320" lon="6.111780"></trkpt>
      <trkpt lat="45.080300" lon="6.112240"></trkpt>
      <trkpt lat="45.080380" lon="6.112890"></trkpt>
      <trkpt lat="45.080370" lon="6.113020"></trkpt>
      <trkpt lat="45.080230" lon="6.113560"></trkpt>
      <trkpt lat="45.080140" lon="6.114070"></trkpt>
      <trkpt lat="45.079930" lon="6.114540"></trkpt>
      <trkpt lat="45.079660" lon="6.115410"></trkpt>
      <trkpt lat="45.079400" lon="6.116400"></trkpt>
      <trkpt lat="45.079040" lon="6.117370"></trkpt>
      <trkpt lat="45.078920" lon="6.118330"></trkpt>
      <trkpt lat="45.078780" lon="6.118930"></trkpt>
      <trkpt lat="45.078800" lon="6.119230"></trkpt>
      <trkpt lat="45.078910" lon="6.119840"></trkpt>
      <trkpt lat="45.079140" lon="6.120580"></trkpt>
      <trkpt lat="45.079230" lon="6.121020"></trkpt>
      <trkpt lat="45.079260" lon="6.121210"></trkpt>
      <trkpt lat="45.079280" lon="6.121660"></trkpt>
      <trkpt lat="45.079370" lon="6.122000"></trkpt>
      <trkpt lat="45.079420" lon="6.122430"></trkpt>
      <trkpt lat="45.079550" lon="6.123040"></trkpt>
      <trkpt lat="45.079650" lon="6.123670"></trkpt>
      <trkpt lat="45.079760" lon="6.123910"></trkpt>
      <trkpt lat="45.079940" lon="6.124230"></trkpt>
      <trkpt lat="45.080200" lon="6.124500"></trkpt>
      <trkpt lat="45.080380" lon="6.124840"></trkpt>
      <trkpt lat="45.080650" lon="6.125260"></trkpt>
      <trkpt lat="45.080850" lon="6.125650"></trkpt>
      <trkpt lat="45.080980" lon="6.125860"></trkpt>
      <trkpt lat="45.081170" lon="6.126270"></trkpt>
      <trkpt lat="45.081390" lon="6.126640"></trkpt>
      <trkpt lat="45.081410" lon="6.126980"></trkpt>
      <trkpt lat="45.081610" lon="6.127760"></trkpt>
      <trkpt lat="45.081750" lon="6.128160"></trkpt>
      <trkpt lat="45.081820" lon="6.128560"></trkpt>
      <trkpt lat="45.081810" lon="6.128940"></trkpt>
      <trkpt lat="45.081850" lon="6.129360"></trkpt>
      <trkpt lat="45.081800" lon="6.129680"></trkpt>
      <trkpt lat="45.081490" lon="6.130330"></trkpt>
      <trkpt lat="45.081400" lon="6.130650"></trkpt>
      <trkpt lat="45.081410" lon="6.130830"></trkpt>
      <trkpt lat="45.081600" lon="6.131490"></trkpt>
      <trkpt lat="45.081580" lon="6.131570"></trkpt>
      <trkpt lat="45.081530" lon="6.131660"></trkpt>
      <trkpt lat="45.081400" lon="6.131790"></trkpt>
      <trkpt lat="45.080980" lon="6.132130"></trkpt>
      <trkpt lat="45.080730" lon="6.132150"></trkpt>
      <trkpt lat="45.080640" lon="6.132130"></trkpt>
      <trkpt lat="45.080560" lon="6.132090"></trkpt>
      <trkpt lat="45.080450" lon="6.131970"></trkpt>
      <trkpt lat="45.080280" lon="6.131660"></trkpt>
      <trkpt lat="45.080130" lon="6.131340"></trkpt>
      <trkpt lat="45.080090" lon="6.130960"></trkpt>
      <trkpt lat="45.080050" lon="6.130880"></trkpt>
      <trkpt lat="45.080020" lon="6.130870"></trkpt>
      <trkpt lat="45.079970" lon="6.130890"></trkpt>
      <trkpt lat="45.079930" lon="6.130950"></trkpt>
      <trkpt lat="45.079700" lon="6.131790"></trkpt>
      <trkpt lat="45.079660" lon="6.132200"></trkpt>
      <trkpt lat="45.079680" lon="6.132450"></trkpt>
      <trkpt lat="45.079740" lon="6.132700"></trkpt>
      <trkpt lat="45.079930" lon="6.133110"></trkpt>
      <trkpt lat="45.080220" lon="6.134150"></trkpt>
      <trkpt lat="45.080450" lon="6.134880"></trkpt>
      <trkpt lat="45.080640" lon="6.135550"></trkpt>
      <trkpt lat="45.080690" lon="6.135870"></trkpt>
      <trkpt lat="45.080760" lon="6.137240"></trkpt>
      <trkpt lat="45.080850" lon="6.138080"></trkpt>
      <trkpt lat="45.080960" lon="6.138710"></trkpt>
      <trkpt lat="45.081070" lon="6.139160"></trkpt>
      <trkpt lat="45.081400" lon="6.140200"></trkpt>
      <trkpt lat="45.081650" lon="6.140860"></trkpt>
      <trkpt lat="45.081760" lon="6.141310"></trkpt>
      <trkpt lat="45.081860" lon="6.141830"></trkpt>
      <trkpt lat="45.081960" lon="6.142110"></trkpt>
      <trkpt lat="45.082130" lon="6.142430"></trkpt>
      <trkpt lat="45.082480" lon="6.142950"></trkpt>
      <trkpt lat="45.082760" lon="6.143470"></trkpt>
      <trkpt lat="45.083350" lon="6.144330"></trkpt>
      <trkpt lat="45.084160" lon="6.145740"></trkpt>
      <trkpt lat="45.084670" lon="6.146460"></trkpt>
      <trkpt lat="45.085030" lon="6.147000"></trkpt>
      <trkpt lat="45.085160" lon="6.147160"></trkpt>
      <trkpt lat="45.085310" lon="6.147310"></trkpt>
      <trkpt lat="45.085550" lon="6.147510"></trkpt>
      <trkpt lat="45.085710" lon="6.147680"></trkpt>
      <trkpt lat="45.086210" lon="6.148360"></trkpt>
      <trkpt lat="45.086490" lon="6.148630"></trkpt>
      <trkpt lat="45.086790" lon="6.148850"></trkpt>
      <trkpt lat="45.087020" lon="6.148960"></trkpt>
      <trkpt lat="45.087200" lon="6.149020"></trkpt>
      <trkpt lat="45.087830" lon="6.149090"></trkpt>
      <trkpt lat="45.088100" lon="6.149190"></trkpt>
      <trkpt lat="45.088360" lon="6.149320"></trkpt>
      <trkpt lat="45.088630" lon="6.149400"></trkpt>
      <trkpt lat="45.088750" lon="6.149400"></trkpt>
      <trkpt lat="45.088790" lon="6.149380"></trkpt>
      <trkpt lat="45.089010" lon="6.149180"></trkpt>
      <trkpt lat="45.089130" lon="6.149150"></trkpt>
      <trkpt lat="45.089250" lon="6.149170"></trkpt>
      <trkpt lat="45.089440" lon="6.149250"></trkpt>
      <trkpt lat="45.089550" lon="6.149230"></trkpt>
      <trkpt lat="45.089650" lon="6.149170"></trkpt>
      <trkpt lat="45.089850" lon="6.148970"></trkpt>
      <trkpt lat="45.090260" lon="6.148690"></trkpt>
      <trkpt lat="45.090340" lon="6.148650"></trkpt>
      <trkpt lat="45.090380" lon="6.148650"></trkpt>
      <trkpt lat="45.090410" lon="6.148690"></trkpt>
      <trkpt lat="45.090390" lon="6.148750"></trkpt>
      <trkpt lat="45.090130" lon="6.149010"></trkpt>
      <trkpt lat="45.090000" lon="6.149190"></trkpt>
      <trkpt lat="45.089940" lon="6.149360"></trkpt>
      <trkpt lat="45.089960" lon="6.149480"></trkpt>
      <trkpt lat="45.090020" lon="6.149500"></trkpt>
      <trkpt lat="45.090080" lon="6.149460"></trkpt>
      <trkpt lat="45.090210" lon="6.149220"></trkpt>
      <trkpt lat="45.090300" lon="6.149140"></trkpt>
      <trkpt lat="45.090620" lon="6.149070"></trkpt>
      <trkpt lat="45.090820" lon="6.148940"></trkpt>
      <trkpt lat="45.090930" lon="6.148930"></trkpt>
      <trkpt lat="45.091050" lon="6.148980"></trkpt>
      <trkpt lat="45.091270" lon="6.149160"></trkpt>
      <trkpt lat="45.091450" lon="6.149420"></trkpt>
      <trkpt lat="45.091620" lon="6.149560"></trkpt>
      <trkpt lat="45.091800" lon="6.149890"></trkpt>
      <trkpt lat="45.091930" lon="6.150310"></trkpt>
      <trkpt lat="45.091990" lon="6.150390"></trkpt>
      <trkpt lat="45.092210" lon="6.150460"></trkpt>
      <trkpt lat="45.092350" lon="6.150570"></trkpt>
      <trkpt lat="45.092420" lon="6.150600"></trkpt>
      <trkpt lat="45.092570" lon="6.150590"></trkpt>
      <trkpt lat="45.092710" lon="6.150550"></trkpt>
      <trkpt lat="45.092820" lon="6.150570"></trkpt>
      <trkpt lat="45.092930" lon="6.150640"></trkpt>
      <trkpt lat="45.093030" lon="6.150810"></trkpt>
      <trkpt lat="45.093070" lon="6.150850"></trkpt>
      <trkpt lat="45.093130" lon="6.150850"></trkpt>
      <trkpt lat="45.093270" lon="6.150810"></trkpt>
      <trkpt lat="45.093350" lon="6.150820"></trkpt>
      <trkpt lat="45.093400" lon="6.150860"></trkpt>
      <trkpt lat="45.093470" lon="6.151010"></trkpt>
      <trkpt lat="45.093580" lon="6.151140"></trkpt>
      <trkpt lat="45.093650" lon="6.151150"></trkpt>
      <trkpt lat="45.093770" lon="6.151060"></trkpt>
      <trkpt lat="45.093880" lon="6.151060"></trkpt>
      <trkpt lat="45.093960" lon="6.151120"></trkpt>
      <trkpt lat="45.094170" lon="6.151380"></trkpt>
      <trkpt lat="45.094290" lon="6.151450"></trkpt>
      <trkpt lat="45.094530" lon="6.151510"></trkpt>
      <trkpt lat="45.094590" lon="6.151540"></trkpt>
      <trkpt lat="45.094720" lon="6.151690"></trkpt>
      <trkpt lat="45.094810" lon="6.151760"></trkpt>
      <trkpt lat="45.095060" lon="6.151840"></trkpt>
      <trkpt lat="45.095160" lon="6.151910"></trkpt>
      <trkpt lat="45.095290" lon="6.152060"></trkpt>
      <trkpt lat="45.095570" lon="6.152470"></trkpt>
      <trkpt lat="45.095770" lon="6.152680"></trkpt>
      <trkpt lat="45.095980" lon="6.153060"></trkpt>
      <trkpt lat="45.096080" lon="6.153200"></trkpt>
      <trkpt lat="45.096420" lon="6.153550"></trkpt>
      <trkpt lat="45.096630" lon="6.153700"></trkpt>
      <trkpt lat="45.096830" lon="6.153980"></trkpt>
      <trkpt lat="45.097080" lon="6.154210"></trkpt>
      <trkpt lat="45.097300" lon="6.154380"></trkpt>
      <trkpt lat="45.097320" lon="6.154480"></trkpt>
      <trkpt lat="45.097280" lon="6.154520"></trkpt>
      <trkpt lat="45.097230" lon="6.154510"></trkpt>
      <trkpt lat="45.096990" lon="6.154330"></trkpt>
      <trkpt lat="45.096710" lon="6.154200"></trkpt>
      <trkpt lat="45.096380" lon="6.153930"></trkpt>
      <trkpt lat="45.096100" lon="6.153770"></trkpt>
      <trkpt lat="45.095370" lon="6.153470"></trkpt>
      <trkpt lat="45.094800" lon="6.153200"></trkpt>
      <trkpt lat="45.094490" lon="6.153020"></trkpt>
      <trkpt lat="45.093930" lon="6.152800"></trkpt>
      <trkpt lat="45.093600" lon="6.152740"></trkpt>
      <trkpt lat="45.093070" lon="6.152600"></trkpt>
      <trkpt lat="45.092980" lon="6.152630"></trkpt>
      <trkpt lat="45.092970" lon="6.152710"></trkpt>
      <trkpt lat="45.093000" lon="6.152740"></trkpt>
      <trkpt lat="45.093240" lon="6.152790"></trkpt>
      <trkpt lat="45.093430" lon="6.152890"></trkpt>
      <trkpt lat="45.093800" lon="6.153200"></trkpt>
      <trkpt lat="45.094170" lon="6.153690"></trkpt>
      <trkpt lat="45.094360" lon="6.154010"></trkpt>
      <trkpt lat="45.094960" lon="6.154670"></trkpt>
      <trkpt lat="45.095380" lon="6.155000"></trkpt>
      <trkpt lat="45.095470" lon="6.155090"></trkpt>
      <trkpt lat="45.095690" lon="6.155390"></trkpt>
      <trkpt lat="45.095950" lon="6.155920"></trkpt>
      <trkpt lat="45.096090" lon="6.156090"></trkpt>
      <trkpt lat="45.096310" lon="6.156250"></trkpt>
      <trkpt lat="45.096500" lon="6.156350"></trkpt>
      <trkpt lat="45.096850" lon="6.156430"></trkpt>
      <trkpt lat="45.096930" lon="6.156470"></trkpt>
      <trkpt lat="45.097440" lon="6.156820"></trkpt>
      <trkpt lat="45.097570" lon="6.156940"></trkpt>
      <trkpt lat="45.097700" lon="6.157090"></trkpt>
      <trkpt lat="45.097990" lon="6.157500"></trkpt>
      <trkpt lat="45.098340" lon="6.157820"></trkpt>
      <trkpt lat="45.098470" lon="6.158010"></trkpt>
      <trkpt lat="45.098590" lon="6.158210"></trkpt>
      <trkpt lat="45.098710" lon="6.158670"></trkpt>
      <trkpt lat="45.098770" lon="6.158790"></trkpt>
      <trkpt lat="45.098840" lon="6.158850"></trkpt>
      <trkpt lat="45.099010" lon="6.158910"></trkpt>
      <trkpt lat="45.099110" lon="6.158970"></trkpt>
      <trkpt lat="45.099740" lon="6.159710"></trkpt>
      <trkpt lat="45.099840" lon="6.159800"></trkpt>
      <trkpt lat="45.100040" lon="6.159920"></trkpt>
      <trkpt lat="45.100100" lon="6.160040"></trkpt>
      <trkpt lat="45.100090" lon="6.160140"></trkpt>
      <trkpt lat="45.100050" lon="6.160190"></trkpt>
      <trkpt lat="45.100000" lon="6.160180"></trkpt>
      <trkpt lat="45.099810" lon="6.160040"></trkpt>
      <trkpt lat="45.099500" lon="6.159930"></trkpt>
      <trkpt lat="45.099330" lon="6.159820"></trkpt>
      <trkpt lat="45.099260" lon="6.159820"></trkpt>
      <trkpt lat="45.099200" lon="6.159890"></trkpt>
      <trkpt lat="45.099200" lon="6.159960"></trkpt>
      <trkpt lat="45.099220" lon="6.160010"></trkpt>
      <trkpt lat="45.099280" lon="6.160050"></trkpt>
      <trkpt lat="45.099440" lon="6.160100"></trkpt>
      <trkpt lat="45.099640" lon="6.160330"></trkpt>
      <trkpt lat="45.099920" lon="6.160520"></trkpt>
      <trkpt lat="45.099950" lon="6.160600"></trkpt>
      <trkpt lat="45.099930" lon="6.160660"></trkpt>
      <trkpt lat="45.099870" lon="6.160660"></trkpt>
      <trkpt lat="45.099660" lon="6.160540"></trkpt>
      <trkpt lat="45.099400" lon="6.160430"></trkpt>
      <trkpt lat="45.099180" lon="6.160460"></trkpt>
      <trkpt lat="45.098820" lon="6.160620"></trkpt>
      <trkpt lat="45.098720" lon="6.160600"></trkpt>
      <trkpt lat="45.098600" lon="6.160490"></trkpt>
      <trkpt lat="45.098550" lon="6.160500"></trkpt>
      <trkpt lat="45.098530" lon="6.160550"></trkpt>
      <trkpt lat="45.098540" lon="6.160620"></trkpt>
      <trkpt lat="45.098580" lon="6.160670"></trkpt>
      <trkpt lat="45.098700" lon="6.160750"></trkpt>
      <trkpt lat="45.098880" lon="6.160820"></trkpt>
      <trkpt lat="45.098960" lon="6.160890"></trkpt>
      <trkpt lat="45.099200" lon="6.161280"></trkpt>
      <trkpt lat="45.099420" lon="6.161530"></trkpt>
      <trkpt lat="45.099550" lon="6.161630"></trkpt>
      <trkpt lat="45.099770" lon="6.161710"></trkpt>
      <trkpt lat="45.099800" lon="6.161820"></trkpt>
      <trkpt lat="45.099790" lon="6.161860"></trkpt>
      <trkpt lat="45.099750" lon="6.161890"></trkpt>
      <trkpt lat="45.099470" lon="6.161890"></trkpt>
      <trkpt lat="45.099000" lon="6.162180"></trkpt>
      <trkpt lat="45.098860" lon="6.162200"></trkpt>
      <trkpt lat="45.098670" lon="6.162150"></trkpt>
      <trkpt lat="45.098530" lon="6.162040"></trkpt>
      <trkpt lat="45.098330" lon="6.161810"></trkpt>
      <trkpt lat="45.098280" lon="6.161660"></trkpt>
      <trkpt lat="45.098220" lon="6.161270"></trkpt>
      <trkpt lat="45.098180" lon="6.161180"></trkpt>
      <trkpt lat="45.098100" lon="6.161140"></trkpt>
      <trkpt lat="45.098050" lon="6.161160"></trkpt>
      <trkpt lat="45.098020" lon="6.161270"></trkpt>
      <trkpt lat="45.098110" lon="6.161580"></trkpt>
      <trkpt lat="45.098180" lon="6.162000"></trkpt>
      <trkpt lat="45.098270" lon="6.162340"></trkpt>
      <trkpt lat="45.098650" lon="6.163080"></trkpt>
      <trkpt lat="45.098920" lon="6.163450"></trkpt>
      <trkpt lat="45.098990" lon="6.163710"></trkpt>
      <trkpt lat="45.098990" lon="6.163950"></trkpt>
      <trkpt lat="45.099020" lon="6.164080"></trkpt>
      <trkpt lat="45.099080" lon="6.164200"></trkpt>
      <trkpt lat="45.099150" lon="6.164280"></trkpt>
      <trkpt lat="45.099420" lon="6.164460"></trkpt>
      <trkpt lat="45.099950" lon="6.164500"></trkpt>
      <trkpt lat="45.100080" lon="6.164570"></trkpt>
      <trkpt lat="45.100090" lon="6.164630"></trkpt>
      <trkpt lat="45.100060" lon="6.164680"></trkpt>
      <trkpt lat="45.099990" lon="6.164710"></trkpt>
      <trkpt lat="45.099780" lon="6.164710"></trkpt>
      <trkpt lat="45.099480" lon="6.164760"></trkpt>
      <trkpt lat="45.099300" lon="6.164750"></trkpt>
      <trkpt lat="45.099170" lon="6.164680"></trkpt>
      <trkpt lat="45.098830" lon="6.164450"></trkpt>
      <trkpt lat="45.098420" lon="6.164120"></trkpt>
      <trkpt lat="45.098160" lon="6.163850"></trkpt>
      <trkpt lat="45.097930" lon="6.163570"></trkpt>
      <trkpt lat="45.097590" lon="6.163230"></trkpt>
      <trkpt lat="45.097040" lon="6.162460"></trkpt>
      <trkpt lat="45.096970" lon="6.162430"></trkpt>
      <trkpt lat="45.096930" lon="6.162460"></trkpt>
      <trkpt lat="45.096930" lon="6.162520"></trkpt>
      <trkpt lat="45.097170" lon="6.162880"></trkpt>
      <trkpt lat="45.097330" lon="6.163240"></trkpt>
      <trkpt lat="45.097430" lon="6.163520"></trkpt>
      <trkpt lat="45.097560" lon="6.164030"></trkpt>
      <trkpt lat="45.097650" lon="6.164210"></trkpt>
      <trkpt lat="45.097640" lon="6.164290"></trkpt>
      <trkpt lat="45.097590" lon="6.164300"></trkpt>
      <trkpt lat="45.097540" lon="6.164250"></trkpt>
      <trkpt lat="45.097380" lon="6.163930"></trkpt>
      <trkpt lat="45.097320" lon="6.163840"></trkpt>
      <trkpt lat="45.097220" lon="6.163760"></trkpt>
      <trkpt lat="45.097140" lon="6.163760"></trkpt>
      <trkpt lat="45.096720" lon="6.164030"></trkpt>
      <trkpt lat="45.096620" lon="6.164050"></trkpt>
      <trkpt lat="45.096560" lon="6.164020"></trkpt>
      <trkpt lat="45.096380" lon="6.163710"></trkpt>
      <trkpt lat="45.095760" lon="6.163270"></trkpt>
      <trkpt lat="45.095590" lon="6.163240"></trkpt>
      <trkpt lat="45.095140" lon="6.163200"></trkpt>
      <trkpt lat="45.094610" lon="6.163090"></trkpt>
      <trkpt lat="45.094530" lon="6.163090"></trkpt>
      <trkpt lat="45.094420" lon="6.163120"></trkpt>
      <trkpt lat="45.094300" lon="6.163180"></trkpt>
      <trkpt lat="45.094200" lon="6.163260"></trkpt>
      <trkpt lat="45.093980" lon="6.163510"></trkpt>
      <trkpt lat="45.093920" lon="6.163530"></trkpt>
      <trkpt lat="45.093840" lon="6.163530"></trkpt>
      <trkpt lat="45.093460" lon="6.163400"></trkpt>
      <trkpt lat="45.092870" lon="6.163300"></trkpt>
      <trkpt lat="45.092640" lon="6.163120"></trkpt>
      <trkpt lat="45.092440" lon="6.162920"></trkpt>
      <trkpt lat="45.092390" lon="6.162910"></trkpt>
      <trkpt lat="45.092340" lon="6.162940"></trkpt>
      <trkpt lat="45.092320" lon="6.163000"></trkpt>
      <trkpt lat="45.092330" lon="6.163420"></trkpt>
      <trkpt lat="45.092280" lon="6.163880"></trkpt>
      <trkpt lat="45.092220" lon="6.164130"></trkpt>
      <trkpt lat="45.092150" lon="6.164180"></trkpt>
      <trkpt lat="45.091930" lon="6.164140"></trkpt>
      <trkpt lat="45.091720" lon="6.163920"></trkpt>
      <trkpt lat="45.091440" lon="6.163690"></trkpt>
      <trkpt lat="45.091070" lon="6.163490"></trkpt>
      <trkpt lat="45.090860" lon="6.163330"></trkpt>
      <trkpt lat="45.090710" lon="6.163250"></trkpt>
      <trkpt lat="45.090630" lon="6.163250"></trkpt>
      <trkpt lat="45.090560" lon="6.163290"></trkpt>
      <trkpt lat="45.090290" lon="6.163650"></trkpt>
      <trkpt lat="45.090200" lon="6.163690"></trkpt>
      <trkpt lat="45.090090" lon="6.163640"></trkpt>
      <trkpt lat="45.089950" lon="6.163440"></trkpt>
      <trkpt lat="45.089840" lon="6.163350"></trkpt>
      <trkpt lat="45.089660" lon="6.163310"></trkpt>
      <trkpt lat="45.089520" lon="6.163240"></trkpt>
      <trkpt lat="45.089250" lon="6.162940"></trkpt>
      <trkpt lat="45.088870" lon="6.162640"></trkpt>
      <trkpt lat="45.088520" lon="6.162160"></trkpt>
      <trkpt lat="45.088030" lon="6.161670"></trkpt>
      <trkpt lat="45.087830" lon="6.161520"></trkpt>
      <trkpt lat="45.087640" lon="6.161450"></trkpt>
      <trkpt lat="45.087450" lon="6.161350"></trkpt>
      <trkpt lat="45.087250" lon="6.161330"></trkpt>
      <trkpt lat="45.086970" lon="6.161230"></trkpt>
      <trkpt lat="45.086680" lon="6.161210"></trkpt>
      <trkpt lat="45.086600" lon="6.161240"></trkpt>
      <trkpt lat="45.086390" lon="6.161400"></trkpt>
      <trkpt lat="45.086270" lon="6.161430"></trkpt>
      <trkpt lat="45.086200" lon="6.161400"></trkpt>
      <trkpt lat="45.085960" lon="6.161220"></trkpt>
      <trkpt lat="45.085720" lon="6.161140"></trkpt>
      <trkpt lat="45.085530" lon="6.161110"></trkpt>
      <trkpt lat="45.085390" lon="6.161110"></trkpt>
      <trkpt lat="45.084360" lon="6.161310"></trkpt>
      <trkpt lat="45.084120" lon="6.161290"></trkpt>
      <trkpt lat="45.083870" lon="6.161230"></trkpt>
      <trkpt lat="45.083740" lon="6.161150"></trkpt>
      <trkpt lat="45.083500" lon="6.160950"></trkpt>
      <trkpt lat="45.083210" lon="6.160640"></trkpt>
      <trkpt lat="45.083040" lon="6.160490"></trkpt>
      <trkpt lat="45.082880" lon="6.160380"></trkpt>
      <trkpt lat="45.082700" lon="6.160330"></trkpt>
      <trkpt lat="45.082170" lon="6.160300"></trkpt>
      <trkpt lat="45.082040" lon="6.160270"></trkpt>
      <trkpt lat="45.081930" lon="6.160210"></trkpt>
      <trkpt lat="45.081760" lon="6.160090"></trkpt>
      <trkpt lat="45.081680" lon="6.159990"></trkpt>
      <trkpt lat="45.081420" lon="6.159540"></trkpt>
      <trkpt lat="45.081370" lon="6.159480"></trkpt>
      <trkpt lat="45.081290" lon="6.159450"></trkpt>
      <trkpt lat="45.081250" lon="6.159480"></trkpt>
      <trkpt lat="45.081260" lon="6.159580"></trkpt>
      <trkpt lat="45.081420" lon="6.159800"></trkpt>
      <trkpt lat="45.081650" lon="6.160460"></trkpt>
      <trkpt lat="45.081760" lon="6.160670"></trkpt>
      <trkpt lat="45.081900" lon="6.160860"></trkpt>
      <trkpt lat="45.082340" lon="6.161270"></trkpt>
      <trkpt lat="45.082410" lon="6.161370"></trkpt>
      <trkpt lat="45.082400" lon="6.161470"></trkpt>
      <trkpt lat="45.082220" lon="6.161350"></trkpt>
      <trkpt lat="45.081540" lon="6.160830"></trkpt>
      <trkpt lat="45.081420" lon="6.160720"></trkpt>
      <trkpt lat="45.080570" lon="6.159780"></trkpt>
      <trkpt lat="45.080120" lon="6.159380"></trkpt>
      <trkpt lat="45.079770" lon="6.159020"></trkpt>
      <trkpt lat="45.079520" lon="6.158870"></trkpt>
      <trkpt lat="45.079100" lon="6.158720"></trkpt>
      <trkpt lat="45.078860" lon="6.158510"></trkpt>
      <trkpt lat="45.078330" lon="6.158120"></trkpt>
      <trkpt lat="45.078170" lon="6.158030"></trkpt>
      <trkpt lat="45.078040" lon="6.157990"></trkpt>
      <trkpt lat="45.077810" lon="6.158000"></trkpt>
      <trkpt lat="45.077060" lon="6.157920"></trkpt>
      <trkpt lat="45.076950" lon="6.157920"></trkpt>
      <trkpt lat="45.076790" lon="6.158000"></trkpt>
      <trkpt lat="45.076510" lon="6.158250"></trkpt>
      <trkpt lat="45.076260" lon="6.158330"></trkpt>
      <trkpt lat="45.076020" lon="6.158340"></trkpt>
      <trkpt lat="45.075870" lon="6.158300"></trkpt>
      <trkpt lat="45.075400" lon="6.158090"></trkpt>
      <trkpt lat="45.075280" lon="6.158060"></trkpt>
      <trkpt lat="45.075070" lon="6.158070"></trkpt>
      <trkpt lat="45.074800" lon="6.158120"></trkpt>
      <trkpt lat="45.074630" lon="6.158090"></trkpt>
      <trkpt lat="45.074520" lon="6.157990"></trkpt>
      <trkpt lat="45.074250" lon="6.157670"></trkpt>
      <trkpt lat="45.073880" lon="6.157440"></trkpt>
      <trkpt lat="45.073570" lon="6.157110"></trkpt>
      <trkpt lat="45.073330" lon="6.156910"></trkpt>
      <trkpt lat="45.072940" lon="6.156700"></trkpt>
      <trkpt lat="45.072700" lon="6.156520"></trkpt>
      <trkpt lat="45.072080" lon="6.155960"></trkpt>
      <trkpt lat="45.071600" lon="6.155480"></trkpt>
      <trkpt lat="45.071490" lon="6.155260"></trkpt>
      <trkpt lat="45.071430" lon="6.154960"></trkpt>
      <trkpt lat="45.071340" lon="6.154800"></trkpt>
      <trkpt lat="45.071260" lon="6.154360"></trkpt>
      <trkpt lat="45.071210" lon="6.154240"></trkpt>
      <trkpt lat="45.071060" lon="6.154070"></trkpt>
      <trkpt lat="45.070590" lon="6.153690"></trkpt>
      <trkpt lat="45.070270" lon="6.153600"></trkpt>
      <trkpt lat="45.069720" lon="6.153640"></trkpt>
      <trkpt lat="45.069450" lon="6.153760"></trkpt>
      <trkpt lat="45.069290" lon="6.153810"></trkpt>
      <trkpt lat="45.069150" lon="6.153820"></trkpt>
      <trkpt lat="45.068990" lon="6.153790"></trkpt>
      <trkpt lat="45.068790" lon="6.153700"></trkpt>
      <trkpt lat="45.068580" lon="6.153560"></trkpt>
      <trkpt lat="45.068380" lon="6.153470"></trkpt>
      <trkpt lat="45.068230" lon="6.153430"></trkpt>
      <trkpt lat="45.067700" lon="6.153420"></trkpt>
      <trkpt lat="45.067520" lon="6.153400"></trkpt>
      <trkpt lat="45.067380" lon="6.153340"></trkpt>
      <trkpt lat="45.066560" lon="6.152620"></trkpt>
      <trkpt lat="45.066400" lon="6.152550"></trkpt>
      <trkpt lat="45.066220" lon="6.152440"></trkpt>
      <trkpt lat="45.065100" lon="6.151380"></trkpt>
      <trkpt lat="45.064870" lon="6.151120"></trkpt>
      <trkpt lat="45.064810" lon="6.151080"></trkpt>
      <trkpt lat="45.064750" lon="6.151120"></trkpt>
      <trkpt lat="45.064650" lon="6.150990"></trkpt>
      <trkpt lat="45.064320" lon="6.150700"></trkpt>
      <trkpt lat="45.063920" lon="6.150260"></trkpt>
      <trkpt lat="45.063500" lon="6.149840"></trkpt>
      <trkpt lat="45.062990" lon="6.149390"></trkpt>
      <trkpt lat="45.062590" lon="6.149240"></trkpt>
      <trkpt lat="45.062410" lon="6.149090"></trkpt>
      <trkpt lat="45.062240" lon="6.148890"></trkpt>
      <trkpt lat="45.062140" lon="6.148820"></trkpt>
      <trkpt lat="45.061530" lon="6.148550"></trkpt>
      <trkpt lat="45.060950" lon="6.148200"></trkpt>
      <trkpt lat="45.060730" lon="6.148050"></trkpt>
      <trkpt lat="45.060080" lon="6.147450"></trkpt>
      <trkpt lat="45.059310" lon="6.146850"></trkpt>
      <trkpt lat="45.059070" lon="6.146450"></trkpt>
      <trkpt lat="45.059010" lon="6.146480"></trkpt>
      <trkpt lat="45.059050" lon="6.146710"></trkpt>
      <trkpt lat="45.059420" lon="6.147660"></trkpt>
      <trkpt lat="45.059590" lon="6.148400"></trkpt>
      <trkpt lat="45.059990" lon="6.149420"></trkpt>
      <trkpt lat="45.059980" lon="6.149510"></trkpt>
      <trkpt lat="45.059940" lon="6.149570"></trkpt>
      <trkpt lat="45.059880" lon="6.149540"></trkpt>
      <trkpt lat="45.059830" lon="6.149460"></trkpt>
      <trkpt lat="45.059760" lon="6.149270"></trkpt>
      <trkpt lat="45.059570" lon="6.148870"></trkpt>
      <trkpt lat="45.059410" lon="6.148630"></trkpt>
      <trkpt lat="45.059140" lon="6.148320"></trkpt>
      <trkpt lat="45.058720" lon="6.147990"></trkpt>
      <trkpt lat="45.058500" lon="6.147860"></trkpt>
      <trkpt lat="45.058220" lon="6.147590"></trkpt>
      <trkpt lat="45.057940" lon="6.147270"></trkpt>
      <trkpt lat="45.057820" lon="6.147210"></trkpt>
      <trkpt lat="45.057640" lon="6.147190"></trkpt>
      <trkpt lat="45.057520" lon="6.147140"></trkpt>
      <trkpt lat="45.057410" lon="6.147040"></trkpt>
      <trkpt lat="45.057260" lon="6.146740"></trkpt>
      <trkpt lat="45.057050" lon="6.146560"></trkpt>
      <trkpt lat="45.056960" lon="6.146460"></trkpt>
      <trkpt lat="45.056600" lon="6.145770"></trkpt>
      <trkpt lat="45.056460" lon="6.145670"></trkpt>
      <trkpt lat="45.056180" lon="6.145610"></trkpt>
      <trkpt lat="45.055910" lon="6.145630"></trkpt>
      <trkpt lat="45.055790" lon="6.145610"></trkpt>
      <trkpt lat="45.055660" lon="6.145540"></trkpt>
      <trkpt lat="45.055200" lon="6.145380"></trkpt>
      <trkpt lat="45.055070" lon="6.145270"></trkpt>
      <trkpt lat="45.054600" lon="6.144990"></trkpt>
      <trkpt lat="45.054320" lon="6.144640"></trkpt>
      <trkpt lat="45.054260" lon="6.144590"></trkpt>
      <trkpt lat="45.054170" lon="6.144550"></trkpt>
      <trkpt lat="45.053840" lon="6.144510"></trkpt>
      <trkpt lat="45.053400" lon="6.144170"></trkpt>
      <trkpt lat="45.053240" lon="6.143980"></trkpt>
      <trkpt lat="45.053060" lon="6.143690"></trkpt>
      <trkpt lat="45.052800" lon="6.143320"></trkpt>
      <trkpt lat="45.052360" lon="6.142850"></trkpt>
      <trkpt lat="45.052160" lon="6.142730"></trkpt>
      <trkpt lat="45.052040" lon="6.142700"></trkpt>
      <trkpt lat="45.051930" lon="6.142710"></trkpt>
      <trkpt lat="45.051220" lon="6.143000"></trkpt>
      <trkpt lat="45.050970" lon="6.143060"></trkpt>
      <trkpt lat="45.050750" lon="6.143090"></trkpt>
      <trkpt lat="45.050630" lon="6.143050"></trkpt>
      <trkpt lat="45.050420" lon="6.142900"></trkpt>
      <trkpt lat="45.050200" lon="6.142780"></trkpt>
      <trkpt lat="45.049980" lon="6.142700"></trkpt>
      <trkpt lat="45.049810" lon="6.142350"></trkpt>
      <trkpt lat="45.049570" lon="6.141970"></trkpt>
      <trkpt lat="45.049340" lon="6.141380"></trkpt>
      <trkpt lat="45.049260" lon="6.141070"></trkpt>
      <trkpt lat="45.049260" lon="6.140930"></trkpt>
      <trkpt lat="45.049290" lon="6.140700"></trkpt>
      <trkpt lat="45.049390" lon="6.140450"></trkpt>
      <trkpt lat="45.049580" lon="6.140120"></trkpt>
      <trkpt lat="45.049570" lon="6.140030"></trkpt>
      <trkpt lat="45.049550" lon="6.140000"></trkpt>
      <trkpt lat="45.049510" lon="6.139990"></trkpt>
      <trkpt lat="45.049450" lon="6.140020"></trkpt>
      <trkpt lat="45.049210" lon="6.140310"></trkpt>
      <trkpt lat="45.049130" lon="6.140430"></trkpt>
      <trkpt lat="45.049030" lon="6.140680"></trkpt>
      <trkpt lat="45.048900" lon="6.141090"></trkpt>
      <trkpt lat="45.048850" lon="6.141350"></trkpt>
      <trkpt lat="45.048840" lon="6.141940"></trkpt>
      <trkpt lat="45.048890" lon="6.143270"></trkpt>
      <trkpt lat="45.048870" lon="6.143390"></trkpt>
      <trkpt lat="45.048850" lon="6.143400"></trkpt>
      <trkpt lat="45.048800" lon="6.143390"></trkpt>
      <trkpt lat="45.048750" lon="6.143330"></trkpt>
      <trkpt lat="45.048750" lon="6.143020"></trkpt>
      <trkpt lat="45.048730" lon="6.142890"></trkpt>
      <trkpt lat="45.048420" lon="6.141800"></trkpt>
      <trkpt lat="45.048370" lon="6.141660"></trkpt>
      <trkpt lat="45.048190" lon="6.141310"></trkpt>
      <trkpt lat="45.048120" lon="6.141070"></trkpt>
      <trkpt lat="45.048100" lon="6.140920"></trkpt>
      <trkpt lat="45.048080" lon="6.140460"></trkpt>
      <trkpt lat="45.047940" lon="6.139860"></trkpt>
      <trkpt lat="45.047870" lon="6.139420"></trkpt>
      <trkpt lat="45.047820" lon="6.139290"></trkpt>
      <trkpt lat="45.047660" lon="6.138990"></trkpt>
      <trkpt lat="45.047630" lon="6.138830"></trkpt>
      <trkpt lat="45.047620" lon="6.138580"></trkpt>
      <trkpt lat="45.047580" lon="6.138520"></trkpt>
      <trkpt lat="45.047510" lon="6.138520"></trkpt>
      <trkpt lat="45.047470" lon="6.138630"></trkpt>
      <trkpt lat="45.047480" lon="6.138820"></trkpt>
      <trkpt lat="45.047610" lon="6.139370"></trkpt>
      <trkpt lat="45.047630" lon="6.139700"></trkpt>
      <trkpt lat="45.047600" lon="6.140130"></trkpt>
      <trkpt lat="45.047630" lon="6.141050"></trkpt>
      <trkpt lat="45.047590" lon="6.141100"></trkpt>
      <trkpt lat="45.047530" lon="6.141120"></trkpt>
      <trkpt lat="45.047430" lon="6.139770"></trkpt>
      <trkpt lat="45.047370" lon="6.139520"></trkpt>
      <trkpt lat="45.047090" lon="6.138880"></trkpt>
      <trkpt lat="45.047050" lon="6.138640"></trkpt>
      <trkpt lat="45.047040" lon="6.138280"></trkpt>
      <trkpt lat="45.047000" lon="6.138170"></trkpt>
      <trkpt lat="45.046950" lon="6.138090"></trkpt>
      <trkpt lat="45.046850" lon="6.138020"></trkpt>
      <trkpt lat="45.045790" lon="6.137820"></trkpt>
      <trkpt lat="45.045630" lon="6.137750"></trkpt>
      <trkpt lat="45.045470" lon="6.137640"></trkpt>
      <trkpt lat="45.045290" lon="6.137440"></trkpt>
      <trkpt lat="45.045150" lon="6.137170"></trkpt>
      <trkpt lat="45.045080" lon="6.136930"></trkpt>
      <trkpt lat="45.045060" lon="6.136610"></trkpt>
      <trkpt lat="45.045080" lon="6.136260"></trkpt>
      <trkpt lat="45.045190" lon="6.135680"></trkpt>
      <trkpt lat="45.045250" lon="6.135530"></trkpt>
      <trkpt lat="45.045310" lon="6.135440"></trkpt>
      <trkpt lat="45.045470" lon="6.135340"></trkpt>
      <trkpt lat="45.045610" lon="6.135200"></trkpt>
      <trkpt lat="45.045870" lon="6.134810"></trkpt>
      <trkpt lat="45.045960" lon="6.134730"></trkpt>
      <trkpt lat="45.046240" lon="6.134590"></trkpt>
      <trkpt lat="45.046340" lon="6.134470"></trkpt>
      <trkpt lat="45.046620" lon="6.133870"></trkpt>
      <trkpt lat="45.046780" lon="6.133350"></trkpt>
      <trkpt lat="45.046960" lon="6.132690"></trkpt>
      <trkpt lat="45.046940" lon="6.132470"></trkpt>
      <trkpt lat="45.046880" lon="6.132350"></trkpt>
      <trkpt lat="45.046800" lon="6.132270"></trkpt>
      <trkpt lat="45.046510" lon="6.132200"></trkpt>
      <trkpt lat="45.046390" lon="6.132150"></trkpt>
      <trkpt lat="45.046190" lon="6.132020"></trkpt>
      <trkpt lat="45.046070" lon="6.131910"></trkpt>
      <trkpt lat="45.045900" lon="6.131690"></trkpt>
      <trkpt lat="45.045700" lon="6.131120"></trkpt>
      <trkpt lat="45.045540" lon="6.130840"></trkpt>
      <trkpt lat="45.045410" lon="6.130660"></trkpt>
      <trkpt lat="45.043470" lon="6.128940"></trkpt>
      <trkpt lat="45.043040" lon="6.128510"></trkpt>
      <trkpt lat="45.042520" lon="6.128150"></trkpt>
      <trkpt lat="45.042320" lon="6.127980"></trkpt>
      <trkpt lat="45.041930" lon="6.127570"></trkpt>
      <trkpt lat="45.041090" lon="6.126600"></trkpt>
      <trkpt lat="45.040930" lon="6.126370"></trkpt>
      <trkpt lat="45.040710" lon="6.125970"></trkpt>
      <trkpt lat="45.040610" lon="6.125690"></trkpt>
      <trkpt lat="45.040490" lon="6.125070"></trkpt>
      <trkpt lat="45.040460" lon="6.124810"></trkpt>
      <trkpt lat="45.040520" lon="6.124600"></trkpt>
      <trkpt lat="45.040620" lon="6.124500"></trkpt>
      <trkpt lat="45.040730" lon="6.124480"></trkpt>
      <trkpt lat="45.040800" lon="6.124500"></trkpt>
      <trkpt lat="45.040890" lon="6.124570"></trkpt>
      <trkpt lat="45.040960" lon="6.124700"></trkpt>
      <trkpt lat="45.040990" lon="6.124880"></trkpt>
      <trkpt lat="45.041020" lon="6.125510"></trkpt>
      <trkpt lat="45.041110" lon="6.125890"></trkpt>
      <trkpt lat="45.041220" lon="6.126160"></trkpt>
      <trkpt lat="45.041310" lon="6.126280"></trkpt>
      <trkpt lat="45.041410" lon="6.126380"></trkpt>
      <trkpt lat="45.041520" lon="6.126460"></trkpt>
      <trkpt lat="45.042100" lon="6.126740"></trkpt>
      <trkpt lat="45.042650" lon="6.127130"></trkpt>
      <trkpt lat="45.042960" lon="6.127250"></trkpt>
      <trkpt lat="45.043950" lon="6.127450"></trkpt>
      <trkpt lat="45.044530" lon="6.127430"></trkpt>
      <trkpt lat="45.045290" lon="6.127370"></trkpt>
      <trkpt lat="45.045510" lon="6.127290"></trkpt>
      <trkpt lat="45.045590" lon="6.127220"></trkpt>
      <trkpt lat="45.045650" lon="6.127140"></trkpt>
      <trkpt lat="45.045670" lon="6.127040"></trkpt>
      <trkpt lat="45.045850" lon="6.127120"></trkpt>
      <trkpt lat="45.046000" lon="6.127160"></trkpt>
      <trkpt lat="45.046290" lon="6.127390"></trkpt>
      <trkpt lat="45.046650" lon="6.127460"></trkpt>
      <trkpt lat="45.046780" lon="6.127590"></trkpt>
      <trkpt lat="45.047210" lon="6.127840"></trkpt>
      <trkpt lat="45.047260" lon="6.127800"></trkpt>
      <trkpt lat="45.047350" lon="6.127520"></trkpt>
      <trkpt lat="45.047350" lon="6.127420"></trkpt>
      <trkpt lat="45.047180" lon="6.127150"></trkpt>
      <trkpt lat="45.047130" lon="6.126990"></trkpt>
      <trkpt lat="45.047120" lon="6.126850"></trkpt>
      <trkpt lat="45.047140" lon="6.126690"></trkpt>
      <trkpt lat="45.047290" lon="6.126320"></trkpt>
      <trkpt lat="45.047300" lon="6.126170"></trkpt>
      <trkpt lat="45.047270" lon="6.125850"></trkpt>
      <trkpt lat="45.047280" lon="6.125760"></trkpt>
      <trkpt lat="45.047330" lon="6.125710"></trkpt>
      <trkpt lat="45.047420" lon="6.125740"></trkpt>
      <trkpt lat="45.047560" lon="6.126000"></trkpt>
      <trkpt lat="45.047630" lon="6.126060"></trkpt>
      <trkpt lat="45.047890" lon="6.126110"></trkpt>
      <trkpt lat="45.048510" lon="6.125980"></trkpt>
      <trkpt lat="45.048590" lon="6.125880"></trkpt>
      <trkpt lat="45.048580" lon="6.125810"></trkpt>
      <trkpt lat="45.048550" lon="6.125770"></trkpt>
      <trkpt lat="45.048400" lon="6.125790"></trkpt>
      <trkpt lat="45.048280" lon="6.125780"></trkpt>
      <trkpt lat="45.047970" lon="6.125710"></trkpt>
      <trkpt lat="45.047940" lon="6.125700"></trkpt>
      <trkpt lat="45.047810" lon="6.125570"></trkpt>
      <trkpt lat="45.047730" lon="6.125310"></trkpt>
      <trkpt lat="45.047680" lon="6.124810"></trkpt>
      <trkpt lat="45.047660" lon="6.123820"></trkpt>
      <trkpt lat="45.047630" lon="6.123590"></trkpt>
      <trkpt lat="45.047220" lon="6.122440"></trkpt>
      <trkpt lat="45.047000" lon="6.122050"></trkpt>
      <trkpt lat="45.046930" lon="6.121990"></trkpt>
      <trkpt lat="45.046370" lon="6.121650"></trkpt>
      <trkpt lat="45.046170" lon="6.121400"></trkpt>
      <trkpt lat="45.046090" lon="6.121350"></trkpt>
      <trkpt lat="45.045990" lon="6.121340"></trkpt>
      <trkpt lat="45.045710" lon="6.121370"></trkpt>
      <trkpt lat="45.045620" lon="6.121340"></trkpt>
      <trkpt lat="45.045580" lon="6.121280"></trkpt>
      <trkpt lat="45.045600" lon="6.121200"></trkpt>
      <trkpt lat="45.045710" lon="6.121120"></trkpt>
      <trkpt lat="45.045940" lon="6.120850"></trkpt>
      <trkpt lat="45.046040" lon="6.120760"></trkpt>
      <trkpt lat="45.046150" lon="6.120730"></trkpt>
      <trkpt lat="45.046410" lon="6.120770"></trkpt>
      <trkpt lat="45.047020" lon="6.120630"></trkpt>
      <trkpt lat="45.047430" lon="6.120650"></trkpt>
      <trkpt lat="45.047730" lon="6.120740"></trkpt>
      <trkpt lat="45.047950" lon="6.120890"></trkpt>
      <trkpt lat="45.048010" lon="6.120900"></trkpt>
      <trkpt lat="45.048090" lon="6.120860"></trkpt>
      <trkpt lat="45.048110" lon="6.120830"></trkpt>
      <trkpt lat="45.048050" lon="6.120700"></trkpt>
      <trkpt lat="45.047560" lon="6.120320"></trkpt>
      <trkpt lat="45.047380" lon="6.120130"></trkpt>
      <trkpt lat="45.047280" lon="6.119950"></trkpt>
      <trkpt lat="45.047200" lon="6.119740"></trkpt>
      <trkpt lat="45.047040" lon="6.119060"></trkpt>
      <trkpt lat="45.046910" lon="6.118900"></trkpt>
      <trkpt lat="45.046440" lon="6.118540"></trkpt>
      <trkpt lat="45.046270" lon="6.118310"></trkpt>
      <trkpt lat="45.046070" lon="6.118120"></trkpt>
      <trkpt lat="45.045370" lon="6.117630"></trkpt>
      <trkpt lat="45.045160" lon="6.117450"></trkpt>
      <trkpt lat="45.045070" lon="6.117320"></trkpt>
      <trkpt lat="45.044810" lon="6.116540"></trkpt>
      <trkpt lat="45.044700" lon="6.116380"></trkpt>
      <trkpt lat="45.044510" lon="6.116260"></trkpt>
      <trkpt lat="45.044340" lon="6.116210"></trkpt>
      <trkpt lat="45.044190" lon="6.116180"></trkpt>
      <trkpt lat="45.043790" lon="6.116160"></trkpt>
      <trkpt lat="45.043730" lon="6.116120"></trkpt>
      <trkpt lat="45.043690" lon="6.116040"></trkpt>
      <trkpt lat="45.043710" lon="6.115960"></trkpt>
      <trkpt lat="45.043770" lon="6.115910"></trkpt>
      <trkpt lat="45.043830" lon="6.115900"></trkpt>
      <trkpt lat="45.044120" lon="6.115950"></trkpt>
      <trkpt lat="45.044780" lon="6.115880"></trkpt>
      <trkpt lat="45.045870" lon="6.116220"></trkpt>
      <trkpt lat="45.046240" lon="6.116400"></trkpt>
      <trkpt lat="45.046380" lon="6.116440"></trkpt>
      <trkpt lat="45.046470" lon="6.116450"></trkpt>
      <trkpt lat="45.046660" lon="6.116390"></trkpt>
      <trkpt lat="45.047180" lon="6.116480"></trkpt>
      <trkpt lat="45.047740" lon="6.116520"></trkpt>
      <trkpt lat="45.048060" lon="6.116610"></trkpt>
      <trkpt lat="45.048300" lon="6.116720"></trkpt>
      <trkpt lat="45.048470" lon="6.116830"></trkpt>
      <trkpt lat="45.048690" lon="6.117090"></trkpt>
      <trkpt lat="45.048750" lon="6.117140"></trkpt>
      <trkpt lat="45.048800" lon="6.117140"></trkpt>
      <trkpt lat="45.048860" lon="6.117100"></trkpt>
      <trkpt lat="45.048880" lon="6.117010"></trkpt>
      <trkpt lat="45.048860" lon="6.116910"></trkpt>
      <trkpt lat="45.048780" lon="6.116800"></trkpt>
      <trkpt lat="45.048660" lon="6.116690"></trkpt>
      <trkpt lat="45.048510" lon="6.116510"></trkpt>
      <trkpt lat="45.048240" lon="6.116130"></trkpt>
      <trkpt lat="45.048030" lon="6.115920"></trkpt>
      <trkpt lat="45.047620" lon="6.115690"></trkpt>
      <trkpt lat="45.047030" lon="6.115460"></trkpt>
      <trkpt lat="45.046060" lon="6.115030"></trkpt>
      <trkpt lat="45.045430" lon="6.114590"></trkpt>
      <trkpt lat="45.045250" lon="6.114430"></trkpt>
      <trkpt lat="45.045060" lon="6.114210"></trkpt>
      <trkpt lat="45.044960" lon="6.114120"></trkpt>
      <trkpt lat="45.044670" lon="6.114020"></trkpt>
      <trkpt lat="45.044520" lon="6.113900"></trkpt>
      <trkpt lat="45.044360" lon="6.113620"></trkpt>
      <trkpt lat="45.044310" lon="6.113470"></trkpt>
      <trkpt lat="45.044280" lon="6.112920"></trkpt>
      <trkpt lat="45.044330" lon="6.112570"></trkpt>
      <trkpt lat="45.044390" lon="6.112420"></trkpt>
      <trkpt lat="45.044470" lon="6.112350"></trkpt>
      <trkpt lat="45.044560" lon="6.112320"></trkpt>
      <trkpt lat="45.044680" lon="6.112310"></trkpt>
      <trkpt lat="45.044790" lon="6.112280"></trkpt>
      <trkpt lat="45.044890" lon="6.112190"></trkpt>
      <trkpt lat="45.044980" lon="6.112060"></trkpt>
      <trkpt lat="45.045020" lon="6.111840"></trkpt>
      <trkpt lat="45.045030" lon="6.111670"></trkpt>
      <trkpt lat="45.044990" lon="6.111520"></trkpt>
      <trkpt lat="45.044420" lon="6.110700"></trkpt>
      <trkpt lat="45.044280" lon="6.110410"></trkpt>
      <trkpt lat="45.044170" lon="6.110240"></trkpt>
      <trkpt lat="45.044060" lon="6.110130"></trkpt>
      <trkpt lat="45.043900" lon="6.110020"></trkpt>
      <trkpt lat="45.043810" lon="6.109920"></trkpt>
      <trkpt lat="45.043790" lon="6.109790"></trkpt>
      <trkpt lat="45.043930" lon="6.109260"></trkpt>
      <trkpt lat="45.043910" lon="6.108640"></trkpt>
      <trkpt lat="45.043950" lon="6.108490"></trkpt>
      <trkpt lat="45.044010" lon="6.108410"></trkpt>
      <trkpt lat="45.044310" lon="6.108120"></trkpt>
      <trkpt lat="45.044470" lon="6.108020"></trkpt>
      <trkpt lat="45.044710" lon="6.107830"></trkpt>
      <trkpt lat="45.044800" lon="6.107830"></trkpt>
      <trkpt lat="45.045070" lon="6.107990"></trkpt>
      <trkpt lat="45.045220" lon="6.108030"></trkpt>
      <trkpt lat="45.045390" lon="6.108020"></trkpt>
      <trkpt lat="45.045750" lon="6.107930"></trkpt>
      <trkpt lat="45.046090" lon="6.107700"></trkpt>
      <trkpt lat="45.046450" lon="6.107240"></trkpt>
      <trkpt lat="45.046570" lon="6.107030"></trkpt>
      <trkpt lat="45.046690" lon="6.106760"></trkpt>
      <trkpt lat="45.047150" lon="6.105290"></trkpt>
      <trkpt lat="45.047440" lon="6.104660"></trkpt>
      <trkpt lat="45.047780" lon="6.104010"></trkpt>
      <trkpt lat="45.047880" lon="6.103870"></trkpt>
      <trkpt lat="45.048040" lon="6.103740"></trkpt>
      <trkpt lat="45.048320" lon="6.103600"></trkpt>
      <trkpt lat="45.048630" lon="6.103340"></trkpt>
      <trkpt lat="45.049020" lon="6.102980"></trkpt>
      <trkpt lat="45.049340" lon="6.102760"></trkpt>
      <trkpt lat="45.049570" lon="6.102650"></trkpt>
      <trkpt lat="45.049620" lon="6.102600"></trkpt>
      <trkpt lat="45.049660" lon="6.102520"></trkpt>
      <trkpt lat="45.049630" lon="6.102360"></trkpt>
      <trkpt lat="45.049550" lon="6.102270"></trkpt>
      <trkpt lat="45.049370" lon="6.102180"></trkpt>
      <trkpt lat="45.049050" lon="6.102080"></trkpt>
      <trkpt lat="45.048910" lon="6.101990"></trkpt>
      <trkpt lat="45.048570" lon="6.101590"></trkpt>
      <trkpt lat="45.048310" lon="6.101200"></trkpt>
      <trkpt lat="45.048200" lon="6.100990"></trkpt>
      <trkpt lat="45.048180" lon="6.100860"></trkpt>
      <trkpt lat="45.048200" lon="6.100740"></trkpt>
      <trkpt lat="45.048260" lon="6.100590"></trkpt>
      <trkpt lat="45.048680" lon="6.100070"></trkpt>
      <trkpt lat="45.048740" lon="6.099730"></trkpt>
      <trkpt lat="45.048760" lon="6.099320"></trkpt>
      <trkpt lat="45.048710" lon="6.099110"></trkpt>
      <trkpt lat="45.048650" lon="6.098960"></trkpt>
      <trkpt lat="45.048430" lon="6.098860"></trkpt>
      <trkpt lat="45.048300" lon="6.098750"></trkpt>
      <trkpt lat="45.048190" lon="6.098560"></trkpt>
      <trkpt lat="45.048010" lon="6.097980"></trkpt>
      <trkpt lat="45.047960" lon="6.097730"></trkpt>
      <trkpt lat="45.047930" lon="6.097450"></trkpt>
      <trkpt lat="45.047980" lon="6.096870"></trkpt>
      <trkpt lat="45.048000" lon="6.096430"></trkpt>
      <trkpt lat="45.047960" lon="6.096030"></trkpt>
      <trkpt lat="45.047640" lon="6.094190"></trkpt>
      <trkpt lat="45.047510" lon="6.093750"></trkpt>
      <trkpt lat="45.047410" lon="6.093540"></trkpt>
      <trkpt lat="45.047280" lon="6.093350"></trkpt>
      <trkpt lat="45.046910" lon="6.092910"></trkpt>
      <trkpt lat="45.046660" lon="6.092500"></trkpt>
      <trkpt lat="45.046350" lon="6.091750"></trkpt>
      <trkpt lat="45.046340" lon="6.091670"></trkpt>
      <trkpt lat="45.046380" lon="6.091310"></trkpt>
      <trkpt lat="45.046370" lon="6.091230"></trkpt>
      <trkpt lat="45.046300" lon="6.091120"></trkpt>
      <trkpt lat="45.046250" lon="6.091100"></trkpt>
      <trkpt lat="45.045840" lon="6.091110"></trkpt>
      <trkpt lat="45.045740" lon="6.091090"></trkpt>
      <trkpt lat="45.045550" lon="6.091000"></trkpt>
      <trkpt lat="45.044970" lon="6.090660"></trkpt>
      <trkpt lat="45.044160" lon="6.090390"></trkpt>
      <trkpt lat="45.043890" lon="6.090260"></trkpt>
      <trkpt lat="45.043750" lon="6.090080"></trkpt>
      <trkpt lat="45.043530" lon="6.089650"></trkpt>
      <trkpt lat="45.043410" lon="6.089380"></trkpt>
      <trkpt lat="45.043270" lon="6.089000"></trkpt>
      <trkpt lat="45.043140" lon="6.088500"></trkpt>
      <trkpt lat="45.043010" lon="6.088160"></trkpt>
      <trkpt lat="45.042820" lon="6.087840"></trkpt>
      <trkpt lat="45.042640" lon="6.087600"></trkpt>
      <trkpt lat="45.042530" lon="6.087490"></trkpt>
      <trkpt lat="45.042440" lon="6.087350"></trkpt>
      <trkpt lat="45.042280" lon="6.086950"></trkpt>
      <trkpt lat="45.042210" lon="6.086860"></trkpt>
      <trkpt lat="45.042100" lon="6.086780"></trkpt>
      <trkpt lat="45.041920" lon="6.086560"></trkpt>
      <trkpt lat="45.041670" lon="6.086090"></trkpt>
      <trkpt lat="45.041560" lon="6.085830"></trkpt>
      <trkpt lat="45.041520" lon="6.085500"></trkpt>
      <trkpt lat="45.041470" lon="6.085370"></trkpt>
      <trkpt lat="45.040770" lon="6.084880"></trkpt>
      <trkpt lat="45.040350" lon="6.084380"></trkpt>
      <trkpt lat="45.040330" lon="6.084260"></trkpt>
      <trkpt lat="45.040260" lon="6.084240"></trkpt>
      <trkpt lat="45.040040" lon="6.083950"></trkpt>
      <trkpt lat="45.039690" lon="6.083610"></trkpt>
      <trkpt lat="45.039240" lon="6.083310"></trkpt>
      <trkpt lat="45.039090" lon="6.083160"></trkpt>
      <trkpt lat="45.038860" lon="6.083060"></trkpt>
      <trkpt lat="45.038480" lon="6.082730"></trkpt>
      <trkpt lat="45.038100" lon="6.082280"></trkpt>
      <trkpt lat="45.037710" lon="6.081950"></trkpt>
      <trkpt lat="45.037610" lon="6.081750"></trkpt>
      <trkpt lat="45.037550" lon="6.081540"></trkpt>
      <trkpt lat="45.037530" lon="6.081300"></trkpt>
      <trkpt lat="45.037550" lon="6.081080"></trkpt>
      <trkpt lat="45.037720" lon="6.080370"></trkpt>
      <trkpt lat="45.038090" lon="6.079440"></trkpt>
      <trkpt lat="45.038230" lon="6.078710"></trkpt>
      <trkpt lat="45.038310" lon="6.078620"></trkpt>
      <trkpt lat="45.038540" lon="6.078440"></trkpt>
      <trkpt lat="45.038640" lon="6.078300"></trkpt>
      <trkpt lat="45.038730" lon="6.078100"></trkpt>
      <trkpt lat="45.038810" lon="6.077740"></trkpt>
      <trkpt lat="45.038870" lon="6.077600"></trkpt>
      <trkpt lat="45.039480" lon="6.077050"></trkpt>
      <trkpt lat="45.039520" lon="6.076960"></trkpt>
      <trkpt lat="45.039530" lon="6.076870"></trkpt>
      <trkpt lat="45.039510" lon="6.076750"></trkpt>
      <trkpt lat="45.039440" lon="6.076630"></trkpt>
      <trkpt lat="45.039110" lon="6.076490"></trkpt>
      <trkpt lat="45.039020" lon="6.076430"></trkpt>
      <trkpt lat="45.038970" lon="6.076350"></trkpt>
      <trkpt lat="45.038760" lon="6.075750"></trkpt>
      <trkpt lat="45.038310" lon="6.074620"></trkpt>
      <trkpt lat="45.038220" lon="6.074490"></trkpt>
      <trkpt lat="45.037950" lon="6.074230"></trkpt>
      <trkpt lat="45.037870" lon="6.074100"></trkpt>
      <trkpt lat="45.037820" lon="6.073910"></trkpt>
      <trkpt lat="45.037780" lon="6.073470"></trkpt>
      <trkpt lat="45.037720" lon="6.073330"></trkpt>
      <trkpt lat="45.037520" lon="6.073090"></trkpt>
      <trkpt lat="45.037510" lon="6.073010"></trkpt>
      <trkpt lat="45.037440" lon="6.072930"></trkpt>
      <trkpt lat="45.037420" lon="6.072790"></trkpt>
      <trkpt lat="45.037450" lon="6.072720"></trkpt>
      <trkpt lat="45.037730" lon="6.072440"></trkpt>
      <trkpt lat="45.037870" lon="6.072080"></trkpt>
      <trkpt lat="45.038080" lon="6.071760"></trkpt>
      <trkpt lat="45.038290" lon="6.071280"></trkpt>
      <trkpt lat="45.038390" lon="6.070860"></trkpt>
      <trkpt lat="45.038480" lon="6.070680"></trkpt>
      <trkpt lat="45.038570" lon="6.070640"></trkpt>
      <trkpt lat="45.038820" lon="6.070640"></trkpt>
      <trkpt lat="45.038890" lon="6.070620"></trkpt>
      <trkpt lat="45.039030" lon="6.070470"></trkpt>
      <trkpt lat="45.039220" lon="6.070390"></trkpt>
      <trkpt lat="45.039360" lon="6.070220"></trkpt>
      <trkpt lat="45.039440" lon="6.070180"></trkpt>
      <trkpt lat="45.039600" lon="6.070140"></trkpt>
      <trkpt lat="45.039880" lon="6.070020"></trkpt>
      <trkpt lat="45.040020" lon="6.070010"></trkpt>
      <trkpt lat="45.040230" lon="6.070030"></trkpt>
      <trkpt lat="45.040300" lon="6.070010"></trkpt>
      <trkpt lat="45.040450" lon="6.069820"></trkpt>
      <trkpt lat="45.040580" lon="6.069740"></trkpt>
      <trkpt lat="45.040710" lon="6.069720"></trkpt>
      <trkpt lat="45.041110" lon="6.069840"></trkpt>
      <trkpt lat="45.041200" lon="6.069830"></trkpt>
      <trkpt lat="45.041300" lon="6.069730"></trkpt>
      <trkpt lat="45.041440" lon="6.069230"></trkpt>
      <trkpt lat="45.041500" lon="6.069140"></trkpt>
      <trkpt lat="45.041670" lon="6.069000"></trkpt>
      <trkpt lat="45.041920" lon="6.068710"></trkpt>
      <trkpt lat="45.041990" lon="6.068690"></trkpt>
      <trkpt lat="45.042240" lon="6.068560"></trkpt>
      <trkpt lat="45.042530" lon="6.068520"></trkpt>
      <trkpt lat="45.042610" lon="6.068200"></trkpt>
      <trkpt lat="45.042800" lon="6.068040"></trkpt>
      <trkpt lat="45.042900" lon="6.067910"></trkpt>
      <trkpt lat="45.042990" lon="6.067720"></trkpt>
      <trkpt lat="45.043240" lon="6.067390"></trkpt>
      <trkpt lat="45.043610" lon="6.066800"></trkpt>
      <trkpt lat="45.043890" lon="6.066550"></trkpt>
      <trkpt lat="45.044090" lon="6.066340"></trkpt>
      <trkpt lat="45.044220" lon="6.066150"></trkpt>
      <trkpt lat="45.044350" lon="6.065710"></trkpt>
      <trkpt lat="45.044560" lon="6.065410"></trkpt>
      <trkpt lat="45.044970" lon="6.065070"></trkpt>
      <trkpt lat="45.045560" lon="6.064790"></trkpt>
      <trkpt lat="45.046070" lon="6.064740"></trkpt>
      <trkpt lat="45.046190" lon="6.064650"></trkpt>
      <trkpt lat="45.046290" lon="6.064480"></trkpt>
      <trkpt lat="45.046370" lon="6.064300"></trkpt>
      <trkpt lat="45.046610" lon="6.064030"></trkpt>
      <trkpt lat="45.046740" lon="6.063830"></trkpt>
      <trkpt lat="45.046900" lon="6.063740"></trkpt>
      <trkpt lat="45.046960" lon="6.063680"></trkpt>
      <trkpt lat="45.047110" lon="6.063410"></trkpt>
      <trkpt lat="45.047160" lon="6.063380"></trkpt>
      <trkpt lat="45.047300" lon="6.063350"></trkpt>
      <trkpt lat="45.047370" lon="6.063390"></trkpt>
      <trkpt lat="45.047560" lon="6.063620"></trkpt>
      <trkpt lat="45.047640" lon="6.063670"></trkpt>
      <trkpt lat="45.047710" lon="6.063650"></trkpt>
      <trkpt lat="45.047770" lon="6.063570"></trkpt>
      <trkpt lat="45.047890" lon="6.063190"></trkpt>
      <trkpt lat="45.048030" lon="6.063070"></trkpt>
      <trkpt lat="45.048150" lon="6.062850"></trkpt>
      <trkpt lat="45.048300" lon="6.062680"></trkpt>
      <trkpt lat="45.048470" lon="6.062410"></trkpt>
      <trkpt lat="45.048540" lon="6.062340"></trkpt>
      <trkpt lat="45.048610" lon="6.062320"></trkpt>
      <trkpt lat="45.048740" lon="6.062320"></trkpt>
      <trkpt lat="45.048850" lon="6.062260"></trkpt>
      <trkpt lat="45.049000" lon="6.062020"></trkpt>
      <trkpt lat="45.049410" lon="6.061510"></trkpt>
      <trkpt lat="45.049460" lon="6.061430"></trkpt>
      <trkpt lat="45.049530" lon="6.061240"></trkpt>
      <trkpt lat="45.049600" lon="6.061160"></trkpt>
      <trkpt lat="45.049730" lon="6.061060"></trkpt>
      <trkpt lat="45.049960" lon="6.060940"></trkpt>
      <trkpt lat="45.050110" lon="6.060830"></trkpt>
      <trkpt lat="45.050380" lon="6.060580"></trkpt>
      <trkpt lat="45.050850" lon="6.060030"></trkpt>
      <trkpt lat="45.051040" lon="6.059980"></trkpt>
      <trkpt lat="45.051150" lon="6.059840"></trkpt>
      <trkpt lat="45.051280" lon="6.059730"></trkpt>
      <trkpt lat="45.051410" lon="6.059500"></trkpt>
      <trkpt lat="45.051520" lon="6.059380"></trkpt>
      <trkpt lat="45.051640" lon="6.059180"></trkpt>
      <trkpt lat="45.051870" lon="6.058960"></trkpt>
      <trkpt lat="45.052250" lon="6.057980"></trkpt>
      <trkpt lat="45.052300" lon="6.057920"></trkpt>
      <trkpt lat="45.052510" lon="6.057770"></trkpt>
      <trkpt lat="45.052550" lon="6.057720"></trkpt>
      <trkpt lat="45.052610" lon="6.057340"></trkpt>
      <trkpt lat="45.052650" lon="6.057220"></trkpt>
      <trkpt lat="45.053040" lon="6.056650"></trkpt>
      <trkpt lat="45.053340" lon="6.056360"></trkpt>
      <trkpt lat="45.053820" lon="6.055790"></trkpt>
      <trkpt lat="45.054210" lon="6.055050"></trkpt>
      <trkpt lat="45.054330" lon="6.054880"></trkpt>
      <trkpt lat="45.054410" lon="6.054810"></trkpt>
      <trkpt lat="45.054460" lon="6.054790"></trkpt>
      <trkpt lat="45.054510" lon="6.054800"></trkpt>
      <trkpt lat="45.054650" lon="6.054890"></trkpt>
      <trkpt lat="45.054710" lon="6.054850"></trkpt>
      <trkpt lat="45.054820" lon="6.054700"></trkpt>
      <trkpt lat="45.054830" lon="6.054610"></trkpt>
      <trkpt lat="45.054760" lon="6.054360"></trkpt>
      <trkpt lat="45.054730" lon="6.054140"></trkpt>
      <trkpt lat="45.054790" lon="6.053920"></trkpt>
      <trkpt lat="45.055460" lon="6.052190"></trkpt>
      <trkpt lat="45.055610" lon="6.051880"></trkpt>
      <trkpt lat="45.055720" lon="6.051760"></trkpt>
      <trkpt lat="45.055810" lon="6.051720"></trkpt>
      <trkpt lat="45.055950" lon="6.051730"></trkpt>
      <trkpt lat="45.056480" lon="6.051850"></trkpt>
      <trkpt lat="45.057300" lon="6.052330"></trkpt>
      <trkpt lat="45.057500" lon="6.052480"></trkpt>
      <trkpt lat="45.057680" lon="6.052700"></trkpt>
      <trkpt lat="45.057770" lon="6.052730"></trkpt>
      <trkpt lat="45.057810" lon="6.052720"></trkpt>
      <trkpt lat="45.057840" lon="6.052680"></trkpt>
      <trkpt lat="45.057920" lon="6.052460"></trkpt>
      <trkpt lat="45.058080" lon="6.052130"></trkpt>
      <trkpt lat="45.058180" lon="6.051810"></trkpt>
      <trkpt lat="45.058270" lon="6.051680"></trkpt>
      <trkpt lat="45.058350" lon="6.051640"></trkpt>
      <trkpt lat="45.058790" lon="6.051610"></trkpt>
      <trkpt lat="45.059040" lon="6.051560"></trkpt>
      <trkpt lat="45.059290" lon="6.051580"></trkpt>
      <trkpt lat="45.059330" lon="6.051530"></trkpt>
      <trkpt lat="45.059330" lon="6.051290"></trkpt>
      <trkpt lat="45.059260" lon="6.050910"></trkpt>
      <trkpt lat="45.059230" lon="6.050580"></trkpt>
      <trkpt lat="45.059240" lon="6.050210"></trkpt>
      <trkpt lat="45.059270" lon="6.050000"></trkpt>
      <trkpt lat="45.059320" lon="6.049850"></trkpt>
      <trkpt lat="45.059410" lon="6.049740"></trkpt>
      <trkpt lat="45.059510" lon="6.049690"></trkpt>
      <trkpt lat="45.059870" lon="6.049640"></trkpt>
      <trkpt lat="45.060580" lon="6.049630"></trkpt>
      <trkpt lat="45.060690" lon="6.049540"></trkpt>
      <trkpt lat="45.060930" lon="6.049090"></trkpt>
      <trkpt lat="45.061110" lon="6.048440"></trkpt>
      <trkpt lat="45.061190" lon="6.048330"></trkpt>
      <trkpt lat="45.061460" lon="6.048050"></trkpt>
      <trkpt lat="45.061740" lon="6.047410"></trkpt>
      <trkpt lat="45.061840" lon="6.047290"></trkpt>
      <trkpt lat="45.061960" lon="6.047250"></trkpt>
      <trkpt lat="45.062520" lon="6.047360"></trkpt>
      <trkpt lat="45.062880" lon="6.047550"></trkpt>
      <trkpt lat="45.064110" lon="6.048100"></trkpt>
      <trkpt lat="45.064320" lon="6.048190"></trkpt>
      <trkpt lat="45.064460" lon="6.048230"></trkpt>
      <trkpt lat="45.064670" lon="6.048240"></trkpt>
      <trkpt lat="45.064890" lon="6.048190"></trkpt>
      <trkpt lat="45.065220" lon="6.047970"></trkpt>
      <trkpt lat="45.065320" lon="6.047920"></trkpt>
      <trkpt lat="45.065430" lon="6.047940"></trkpt>
      <trkpt lat="45.065530" lon="6.047990"></trkpt>
      <trkpt lat="45.066120" lon="6.048430"></trkpt>
      <trkpt lat="45.066240" lon="6.048710"></trkpt>
      <trkpt lat="45.066410" lon="6.048880"></trkpt>
      <trkpt lat="45.066600" lon="6.048970"></trkpt>
      <trkpt lat="45.066800" lon="6.049130"></trkpt>
      <trkpt lat="45.067270" lon="6.049450"></trkpt>
      <trkpt lat="45.067320" lon="6.049510"></trkpt>
      <trkpt lat="45.067850" lon="6.050460"></trkpt>
      <trkpt lat="45.067920" lon="6.050530"></trkpt>
      <trkpt lat="45.068210" lon="6.050610"></trkpt>
      <trkpt lat="45.068340" lon="6.050820"></trkpt>
      <trkpt lat="45.068520" lon="6.051160"></trkpt>
      <trkpt lat="45.068610" lon="6.051250"></trkpt>
      <trkpt lat="45.069070" lon="6.051600"></trkpt>
      <trkpt lat="45.069150" lon="6.051690"></trkpt>
      <trkpt lat="45.069730" lon="6.052580"></trkpt>
      <trkpt lat="45.069780" lon="6.052700"></trkpt>
      <trkpt lat="45.069830" lon="6.052860"></trkpt>
      <trkpt lat="45.069840" lon="6.052960"></trkpt>
      <trkpt lat="45.069810" lon="6.053300"></trkpt>
      <trkpt lat="45.069820" lon="6.053350"></trkpt>
      <trkpt lat="45.070020" lon="6.053510"></trkpt>
      <trkpt lat="45.070090" lon="6.053530"></trkpt>
      <trkpt lat="45.070140" lon="6.053490"></trkpt>
      <trkpt lat="45.070320" lon="6.053050"></trkpt>
      <trkpt lat="45.070340" lon="6.052940"></trkpt>
      <trkpt lat="45.070360" lon="6.052450"></trkpt>
      <trkpt lat="45.070480" lon="6.052090"></trkpt>
      <trkpt lat="45.070520" lon="6.051820"></trkpt>
      <trkpt lat="45.070530" lon="6.051310"></trkpt>
      <trkpt lat="45.070620" lon="6.050790"></trkpt>
      <trkpt lat="45.070630" lon="6.050510"></trkpt>
      <trkpt lat="45.070600" lon="6.050200"></trkpt>
      <trkpt lat="45.070420" lon="6.049600"></trkpt>
      <trkpt lat="45.070390" lon="6.049450"></trkpt>
      <trkpt lat="45.070400" lon="6.049090"></trkpt>
      <trkpt lat="45.070480" lon="6.048950"></trkpt>
      <trkpt lat="45.070650" lon="6.048790"></trkpt>
      <trkpt lat="45.070700" lon="6.048680"></trkpt>
      <trkpt lat="45.070710" lon="6.048580"></trkpt>
      <trkpt lat="45.070690" lon="6.048500"></trkpt>
      <trkpt lat="45.070650" lon="6.048450"></trkpt>
      <trkpt lat="45.070540" lon="6.048410"></trkpt>
      <trkpt lat="45.070470" lon="6.048410"></trkpt>
      <trkpt lat="45.070340" lon="6.048440"></trkpt>
      <trkpt lat="45.070260" lon="6.048400"></trkpt>
      <trkpt lat="45.070230" lon="6.048350"></trkpt>
      <trkpt lat="45.070100" lon="6.047700"></trkpt>
      <trkpt lat="45.069680" lon="6.046640"></trkpt>
      <trkpt lat="45.069530" lon="6.046470"></trkpt>
      <trkpt lat="45.069280" lon="6.046260"></trkpt>
      <trkpt lat="45.068660" lon="6.045850"></trkpt>
      <trkpt lat="45.068550" lon="6.045720"></trkpt>
      <trkpt lat="45.068210" lon="6.045120"></trkpt>
      <trkpt lat="45.068120" lon="6.045010"></trkpt>
      <trkpt lat="45.068000" lon="6.044930"></trkpt>
      <trkpt lat="45.067620" lon="6.044790"></trkpt>
      <trkpt lat="45.067500" lon="6.044660"></trkpt>
      <trkpt lat="45.067330" lon="6.044330"></trkpt>
      <trkpt lat="45.067320" lon="6.044260"></trkpt>
      <trkpt lat="45.067340" lon="6.044120"></trkpt>
      <trkpt lat="45.067210" lon="6.043980"></trkpt>
      <trkpt lat="45.067170" lon="6.043810"></trkpt>
      <trkpt lat="45.067200" lon="6.043720"></trkpt>
      <trkpt lat="45.067260" lon="6.043640"></trkpt>
      <trkpt lat="45.068220" lon="6.042850"></trkpt>
      <trkpt lat="45.068320" lon="6.042800"></trkpt>
      <trkpt lat="45.068480" lon="6.042800"></trkpt>
      <trkpt lat="45.068730" lon="6.042880"></trkpt>
      <trkpt lat="45.068810" lon="6.042890"></trkpt>
      <trkpt lat="45.068870" lon="6.042860"></trkpt>
      <trkpt lat="45.068900" lon="6.042760"></trkpt>
      <trkpt lat="45.068880" lon="6.042690"></trkpt>
      <trkpt lat="45.068830" lon="6.042660"></trkpt>
      <trkpt lat="45.068320" lon="6.042610"></trkpt>
      <trkpt lat="45.068180" lon="6.042610"></trkpt>
      <trkpt lat="45.068030" lon="6.042630"></trkpt>
      <trkpt lat="45.067940" lon="6.042660"></trkpt>
      <trkpt lat="45.067640" lon="6.042800"></trkpt>
      <trkpt lat="45.067490" lon="6.042820"></trkpt>
      <trkpt lat="45.067240" lon="6.042810"></trkpt>
      <trkpt lat="45.067170" lon="6.042820"></trkpt>
      <trkpt lat="45.067070" lon="6.042870"></trkpt>
      <trkpt lat="45.066790" lon="6.043090"></trkpt>
      <trkpt lat="45.066290" lon="6.043210"></trkpt>
      <trkpt lat="45.066060" lon="6.043330"></trkpt>
      <trkpt lat="45.065990" lon="6.043320"></trkpt>
      <trkpt lat="45.065940" lon="6.043250"></trkpt>
      <trkpt lat="45.065940" lon="6.043150"></trkpt>
      <trkpt lat="45.065980" lon="6.043080"></trkpt>
      <trkpt lat="45.066790" lon="6.042640"></trkpt>
      <trkpt lat="45.066950" lon="6.042490"></trkpt>
      <trkpt lat="45.067300" lon="6.042060"></trkpt>
      <trkpt lat="45.067440" lon="6.041960"></trkpt>
      <trkpt lat="45.067570" lon="6.041910"></trkpt>
      <trkpt lat="45.067640" lon="6.041920"></trkpt>
      <trkpt lat="45.067910" lon="6.042080"></trkpt>
      <trkpt lat="45.067980" lon="6.042060"></trkpt>
      <trkpt lat="45.068010" lon="6.042010"></trkpt>
      <trkpt lat="45.068000" lon="6.041900"></trkpt>
      <trkpt lat="45.067980" lon="6.041870"></trkpt>
      <trkpt lat="45.067610" lon="6.041740"></trkpt>
      <trkpt lat="45.067400" lon="6.041790"></trkpt>
      <trkpt lat="45.066480" lon="6.042260"></trkpt>
      <trkpt lat="45.066440" lon="6.042250"></trkpt>
      <trkpt lat="45.066400" lon="6.042190"></trkpt>
      <trkpt lat="45.066400" lon="6.042100"></trkpt>
      <trkpt lat="45.066440" lon="6.042050"></trkpt>
      <trkpt lat="45.066840" lon="6.041840"></trkpt>
      <trkpt lat="45.067640" lon="6.041350"></trkpt>
      <trkpt lat="45.068070" lon="6.041130"></trkpt>
      <trkpt lat="45.068260" lon="6.041060"></trkpt>
      <trkpt lat="45.069130" lon="6.040870"></trkpt>
      <trkpt lat="45.069220" lon="6.040830"></trkpt>
      <trkpt lat="45.069280" lon="6.040770"></trkpt>
      <trkpt lat="45.069570" lon="6.040310"></trkpt>
      <trkpt lat="45.069860" lon="6.040000"></trkpt>
      <trkpt lat="45.070130" lon="6.039630"></trkpt>
      <trkpt lat="45.070360" lon="6.039410"></trkpt>
      <trkpt lat="45.070610" lon="6.039260"></trkpt>
      <trkpt lat="45.070990" lon="6.039120"></trkpt>
      <trkpt lat="45.071160" lon="6.039130"></trkpt>
      <trkpt lat="45.071780" lon="6.039290"></trkpt>
      <trkpt lat="45.071840" lon="6.039250"></trkpt>
      <trkpt lat="45.071860" lon="6.039190"></trkpt>
      <trkpt lat="45.071860" lon="6.039090"></trkpt>
      <trkpt lat="45.071840" lon="6.039050"></trkpt>
      <trkpt lat="45.071810" lon="6.039010"></trkpt>
      <trkpt lat="45.071730" lon="6.038980"></trkpt>
      <trkpt lat="45.071420" lon="6.038950"></trkpt>
      <trkpt lat="45.070910" lon="6.038790"></trkpt>
      <trkpt lat="45.070520" lon="6.038700"></trkpt>
      <trkpt lat="45.070240" lon="6.038690"></trkpt>
      <trkpt lat="45.070120" lon="6.038720"></trkpt>
      <trkpt lat="45.069760" lon="6.038860"></trkpt>
      <trkpt lat="45.069360" lon="6.039090"></trkpt>
      <trkpt lat="45.069140" lon="6.039180"></trkpt>
      <trkpt lat="45.068720" lon="6.039290"></trkpt>
      <trkpt lat="45.068620" lon="6.039300"></trkpt>
      <trkpt lat="45.068310" lon="6.039230"></trkpt>
      <trkpt lat="45.068160" lon="6.039240"></trkpt>
      <trkpt lat="45.067810" lon="6.039410"></trkpt>
      <trkpt lat="45.066650" lon="6.039580"></trkpt>
      <trkpt lat="45.066490" lon="6.039620"></trkpt>
      <trkpt lat="45.065770" lon="6.039920"></trkpt>
      <trkpt lat="45.065250" lon="6.040100"></trkpt>
      <trkpt lat="45.065120" lon="6.040100"></trkpt>
      <trkpt lat="45.064990" lon="6.040010"></trkpt>
      <trkpt lat="45.064360" lon="6.039170"></trkpt>
      <trkpt lat="45.062990" lon="6.037230"></trkpt>
      <trkpt lat="45.062850" lon="6.037090"></trkpt>
      <trkpt lat="45.062640" lon="6.036990"></trkpt>
      <trkpt lat="45.062460" lon="6.036970"></trkpt>
      <trkpt lat="45.062300" lon="6.036990"></trkpt>
      <trkpt lat="45.061750" lon="6.037290"></trkpt>
      <trkpt lat="45.061560" lon="6.037370"></trkpt>
      <trkpt lat="45.060620" lon="6.037620"></trkpt>
      <trkpt lat="45.059720" lon="6.037780"></trkpt>
      <trkpt lat="45.059450" lon="6.037710"></trkpt>
      <trkpt lat="45.059390" lon="6.037680"></trkpt>
      <trkpt lat="45.059300" lon="6.037570"></trkpt>
      <trkpt lat="45.059230" lon="6.037540"></trkpt>
      <trkpt lat="45.059150" lon="6.037570"></trkpt>
      <trkpt lat="45.059030" lon="6.037500"></trkpt>
      <trkpt lat="45.058890" lon="6.037380"></trkpt>
      <trkpt lat="45.058160" lon="6.036250"></trkpt>
      <trkpt lat="45.058020" lon="6.036070"></trkpt>
      <trkpt lat="45.056860" lon="6.034730"></trkpt>
      <trkpt lat="45.055900" lon="6.033680"></trkpt>
      <trkpt lat="45.055110" lon="6.032760"></trkpt>
      <trkpt lat="45.054890" lon="6.032400"></trkpt>
      <trkpt lat="45.054750" lon="6.031990"></trkpt>
      <trkpt lat="45.054740" lon="6.031910"></trkpt>
      <trkpt lat="45.054820" lon="6.031460"></trkpt>
      <trkpt lat="45.054870" lon="6.031050"></trkpt>
      <trkpt lat="45.054940" lon="6.030300"></trkpt>
      <trkpt lat="45.054940" lon="6.030070"></trkpt>
      <trkpt lat="45.054960" lon="6.029960"></trkpt>
      <trkpt lat="45.055000" lon="6.029890"></trkpt>
      <trkpt lat="45.054970" lon="6.029850"></trkpt>
      <trkpt lat="45.054680" lon="6.029880"></trkpt>
      <trkpt lat="45.054210" lon="6.030040"></trkpt>
      <trkpt lat="45.054090" lon="6.029480"></trkpt>
      <trkpt lat="45.054010" lon="6.029020"></trkpt>
      <trkpt lat="45.054530" lon="6.028790"></trkpt>
      <trkpt lat="45.054700" lon="6.028680"></trkpt>
      <trkpt lat="45.054920" lon="6.028450"></trkpt>
    </trkseg>
  </trk>
</gpx>
