<?xml version="1.0" encoding="UTF-8"?>
<gpx creator="Alps 2026 Race Center" version="1.1" xmlns="http://www.topografix.com/GPX/1/1" xmlns:xsi="http://www.w3.org/2001/XMLSchema-instance" xsi:schemaLocation="http://www.topografix.com/GPX/1/1 http://www.topografix.com/GPX/1/1/gpx.xsd">
  <metadata><name>Dag 1 — Bourgogne / Voie Verte</name></metadata>
  <trk>
    <name>Dag 1 — Bourgogne / Voie Verte</name>
    <trkseg>
      <trkpt lat="47.307620" lon="4.947610"></trkpt>
      <trkpt lat="47.307500" lon="4.947620"></trkpt>
      <trkpt lat="47.307400" lon="4.947600"></trkpt>
      <trkpt lat="47.307310" lon="4.947650"></trkpt>
      <trkpt lat="47.307260" lon="4.947420"></trkpt>
      <trkpt lat="47.307210" lon="4.946800"></trkpt>
      <trkpt lat="47.307160" lon="4.946580"></trkpt>
      <trkpt lat="47.307090" lon="4.946450"></trkpt>
      <trkpt lat="47.306870" lon="4.946330"></trkpt>
      <trkpt lat="47.306830" lon="4.946180"></trkpt>
      <trkpt lat="47.306850" lon="4.945990"></trkpt>
      <trkpt lat="47.306960" lon="4.945700"></trkpt>
      <trkpt lat="47.307140" lon="4.945030"></trkpt>
      <trkpt lat="47.307240" lon="4.944490"></trkpt>
      <trkpt lat="47.307290" lon="4.944310"></trkpt>
      <trkpt lat="47.307520" lon="4.943990"></trkpt>
      <trkpt lat="47.307230" lon="4.943890"></trkpt>
      <trkpt lat="47.307020" lon="4.944380"></trkpt>
      <trkpt lat="47.307180" lon="4.943790"></trkpt>
      <trkpt lat="47.307560" lon="4.942920"></trkpt>
      <trkpt lat="47.307970" lon="4.942120"></trkpt>
      <trkpt lat="47.308110" lon="4.941750"></trkpt>
      <trkpt lat="47.308200" lon="4.941440"></trkpt>
      <trkpt lat="47.308360" lon="4.940190"></trkpt>
      <trkpt lat="47.307500" lon="4.940410"></trkpt>
      <trkpt lat="47.306580" lon="4.940580"></trkpt>
      <trkpt lat="47.306070" lon="4.940640"></trkpt>
      <trkpt lat="47.305760" lon="4.940660"></trkpt>
      <trkpt lat="47.304760" lon="4.940600"></trkpt>
      <trkpt lat="47.304530" lon="4.940550"></trkpt>
      <trkpt lat="47.303580" lon="4.940280"></trkpt>
      <trkpt lat="47.303050" lon="4.940090"></trkpt>
      <trkpt lat="47.302850" lon="4.939990"></trkpt>
      <trkpt lat="47.302630" lon="4.939850"></trkpt>
      <trkpt lat="47.302120" lon="4.939420"></trkpt>
      <trkpt lat="47.301550" lon="4.939000"></trkpt>
      <trkpt lat="47.301160" lon="4.938780"></trkpt>
      <trkpt lat="47.300840" lon="4.939070"></trkpt>
      <trkpt lat="47.300240" lon="4.939660"></trkpt>
      <trkpt lat="47.300060" lon="4.939800"></trkpt>
      <trkpt lat="47.299800" lon="4.939960"></trkpt>
      <trkpt lat="47.299560" lon="4.940050"></trkpt>
      <trkpt lat="47.299230" lon="4.940120"></trkpt>
      <trkpt lat="47.298870" lon="4.940150"></trkpt>
      <trkpt lat="47.298190" lon="4.940160"></trkpt>
      <trkpt lat="47.298010" lon="4.940190"></trkpt>
      <trkpt lat="47.297800" lon="4.940280"></trkpt>
      <trkpt lat="47.297460" lon="4.940540"></trkpt>
      <trkpt lat="47.297470" lon="4.940530"></trkpt>
      <trkpt lat="47.297260" lon="4.940850"></trkpt>
      <trkpt lat="47.297120" lon="4.941130"></trkpt>
      <trkpt lat="47.297010" lon="4.941480"></trkpt>
      <trkpt lat="47.296180" lon="4.945060"></trkpt>
      <trkpt lat="47.296050" lon="4.945340"></trkpt>
      <trkpt lat="47.295920" lon="4.945540"></trkpt>
      <trkpt lat="47.295830" lon="4.945620"></trkpt>
      <trkpt lat="47.295700" lon="4.945620"></trkpt>
      <trkpt lat="47.295630" lon="4.945560"></trkpt>
      <trkpt lat="47.295540" lon="4.945540"></trkpt>
      <trkpt lat="47.295450" lon="4.945560"></trkpt>
      <trkpt lat="47.295390" lon="4.945610"></trkpt>
      <trkpt lat="47.295300" lon="4.945770"></trkpt>
      <trkpt lat="47.295280" lon="4.945970"></trkpt>
      <trkpt lat="47.295290" lon="4.946050"></trkpt>
      <trkpt lat="47.295250" lon="4.946240"></trkpt>
      <trkpt lat="47.295210" lon="4.946310"></trkpt>
      <trkpt lat="47.295100" lon="4.946430"></trkpt>
      <trkpt lat="47.294960" lon="4.946530"></trkpt>
      <trkpt lat="47.294120" lon="4.946750"></trkpt>
      <trkpt lat="47.293820" lon="4.946890"></trkpt>
      <trkpt lat="47.293530" lon="4.947100"></trkpt>
      <trkpt lat="47.293240" lon="4.947400"></trkpt>
      <trkpt lat="47.293070" lon="4.947610"></trkpt>
      <trkpt lat="47.292470" lon="4.948470"></trkpt>
      <trkpt lat="47.291750" lon="4.949280"></trkpt>
      <trkpt lat="47.291570" lon="4.949610"></trkpt>
      <trkpt lat="47.290910" lon="4.951480"></trkpt>
      <trkpt lat="47.290680" lon="4.952020"></trkpt>
      <trkpt lat="47.290150" lon="4.953110"></trkpt>
      <trkpt lat="47.290000" lon="4.953520"></trkpt>
      <trkpt lat="47.289190" lon="4.957970"></trkpt>
      <trkpt lat="47.289130" lon="4.958380"></trkpt>
      <trkpt lat="47.289080" lon="4.959340"></trkpt>
      <trkpt lat="47.289030" lon="4.959650"></trkpt>
      <trkpt lat="47.288690" lon="4.961040"></trkpt>
      <trkpt lat="47.288290" lon="4.962160"></trkpt>
      <trkpt lat="47.287210" lon="4.965040"></trkpt>
      <trkpt lat="47.287000" lon="4.965390"></trkpt>
      <trkpt lat="47.286760" lon="4.965630"></trkpt>
      <trkpt lat="47.285750" lon="4.966400"></trkpt>
      <trkpt lat="47.285560" lon="4.966590"></trkpt>
      <trkpt lat="47.285410" lon="4.966760"></trkpt>
      <trkpt lat="47.285180" lon="4.967100"></trkpt>
      <trkpt lat="47.285060" lon="4.967330"></trkpt>
      <trkpt lat="47.284960" lon="4.967580"></trkpt>
      <trkpt lat="47.284840" lon="4.967980"></trkpt>
      <trkpt lat="47.284750" lon="4.968420"></trkpt>
      <trkpt lat="47.284590" lon="4.970110"></trkpt>
      <trkpt lat="47.284440" lon="4.971040"></trkpt>
      <trkpt lat="47.284350" lon="4.971440"></trkpt>
      <trkpt lat="47.284180" lon="4.972000"></trkpt>
      <trkpt lat="47.283710" lon="4.973310"></trkpt>
      <trkpt lat="47.283590" lon="4.973840"></trkpt>
      <trkpt lat="47.283510" lon="4.974530"></trkpt>
      <trkpt lat="47.283460" lon="4.976440"></trkpt>
      <trkpt lat="47.283470" lon="4.977500"></trkpt>
      <trkpt lat="47.283500" lon="4.977780"></trkpt>
      <trkpt lat="47.283560" lon="4.978000"></trkpt>
      <trkpt lat="47.283760" lon="4.978470"></trkpt>
      <trkpt lat="47.284120" lon="4.979170"></trkpt>
      <trkpt lat="47.284140" lon="4.979300"></trkpt>
      <trkpt lat="47.284100" lon="4.979410"></trkpt>
      <trkpt lat="47.284010" lon="4.979480"></trkpt>
      <trkpt lat="47.283930" lon="4.979450"></trkpt>
      <trkpt lat="47.283890" lon="4.979410"></trkpt>
      <trkpt lat="47.283410" lon="4.978630"></trkpt>
      <trkpt lat="47.283370" lon="4.978600"></trkpt>
      <trkpt lat="47.283330" lon="4.978600"></trkpt>
      <trkpt lat="47.283240" lon="4.978660"></trkpt>
      <trkpt lat="47.283220" lon="4.978770"></trkpt>
      <trkpt lat="47.283270" lon="4.978920"></trkpt>
      <trkpt lat="47.283790" lon="4.979880"></trkpt>
      <trkpt lat="47.283810" lon="4.979960"></trkpt>
      <trkpt lat="47.283790" lon="4.980080"></trkpt>
      <trkpt lat="47.283750" lon="4.980140"></trkpt>
      <trkpt lat="47.283670" lon="4.980150"></trkpt>
      <trkpt lat="47.283530" lon="4.980040"></trkpt>
      <trkpt lat="47.282540" lon="4.979060"></trkpt>
      <trkpt lat="47.282370" lon="4.978910"></trkpt>
      <trkpt lat="47.282230" lon="4.978820"></trkpt>
      <trkpt lat="47.282100" lon="4.978760"></trkpt>
      <trkpt lat="47.281960" lon="4.978720"></trkpt>
      <trkpt lat="47.281840" lon="4.978710"></trkpt>
      <trkpt lat="47.281640" lon="4.978740"></trkpt>
      <trkpt lat="47.281370" lon="4.978880"></trkpt>
      <trkpt lat="47.281150" lon="4.979070"></trkpt>
      <trkpt lat="47.280950" lon="4.979390"></trkpt>
      <trkpt lat="47.279610" lon="4.982260"></trkpt>
      <trkpt lat="47.278690" lon="4.983920"></trkpt>
      <trkpt lat="47.277730" lon="4.985120"></trkpt>
      <trkpt lat="47.277500" lon="4.985370"></trkpt>
      <trkpt lat="47.277020" lon="4.985770"></trkpt>
      <trkpt lat="47.276350" lon="4.986230"></trkpt>
      <trkpt lat="47.276140" lon="4.986450"></trkpt>
      <trkpt lat="47.275310" lon="4.986960"></trkpt>
      <trkpt lat="47.275210" lon="4.986940"></trkpt>
      <trkpt lat="47.275220" lon="4.986950"></trkpt>
      <trkpt lat="47.275030" lon="4.986700"></trkpt>
      <trkpt lat="47.274940" lon="4.986540"></trkpt>
      <trkpt lat="47.274810" lon="4.986210"></trkpt>
      <trkpt lat="47.274740" lon="4.986090"></trkpt>
      <trkpt lat="47.274530" lon="4.985960"></trkpt>
      <trkpt lat="47.274220" lon="4.985890"></trkpt>
      <trkpt lat="47.273940" lon="4.985850"></trkpt>
      <trkpt lat="47.273740" lon="4.985790"></trkpt>
      <trkpt lat="47.273550" lon="4.985690"></trkpt>
      <trkpt lat="47.273240" lon="4.985580"></trkpt>
      <trkpt lat="47.272830" lon="4.985510"></trkpt>
      <trkpt lat="47.272600" lon="4.985500"></trkpt>
      <trkpt lat="47.272420" lon="4.985530"></trkpt>
      <trkpt lat="47.272080" lon="4.985710"></trkpt>
      <trkpt lat="47.271890" lon="4.985840"></trkpt>
      <trkpt lat="47.271770" lon="4.985880"></trkpt>
      <trkpt lat="47.271080" lon="4.985750"></trkpt>
      <trkpt lat="47.270350" lon="4.985380"></trkpt>
      <trkpt lat="47.269590" lon="4.984830"></trkpt>
      <trkpt lat="47.269170" lon="4.984640"></trkpt>
      <trkpt lat="47.268940" lon="4.984600"></trkpt>
      <trkpt lat="47.268790" lon="4.984610"></trkpt>
      <trkpt lat="47.268660" lon="4.984700"></trkpt>
      <trkpt lat="47.268500" lon="4.984710"></trkpt>
      <trkpt lat="47.268150" lon="4.984630"></trkpt>
      <trkpt lat="47.268070" lon="4.984640"></trkpt>
      <trkpt lat="47.267660" lon="4.984460"></trkpt>
      <trkpt lat="47.266760" lon="4.983840"></trkpt>
      <trkpt lat="47.266330" lon="4.983640"></trkpt>
      <trkpt lat="47.266060" lon="4.983480"></trkpt>
      <trkpt lat="47.265840" lon="4.983270"></trkpt>
      <trkpt lat="47.265740" lon="4.983130"></trkpt>
      <trkpt lat="47.265240" lon="4.982850"></trkpt>
      <trkpt lat="47.264910" lon="4.982720"></trkpt>
      <trkpt lat="47.264370" lon="4.982440"></trkpt>
      <trkpt lat="47.263980" lon="4.982430"></trkpt>
      <trkpt lat="47.263650" lon="4.982370"></trkpt>
      <trkpt lat="47.262830" lon="4.981970"></trkpt>
      <trkpt lat="47.262370" lon="4.981590"></trkpt>
      <trkpt lat="47.261860" lon="4.981120"></trkpt>
      <trkpt lat="47.261710" lon="4.981010"></trkpt>
      <trkpt lat="47.261660" lon="4.981010"></trkpt>
      <trkpt lat="47.261420" lon="4.981300"></trkpt>
      <trkpt lat="47.261360" lon="4.981160"></trkpt>
      <trkpt lat="47.260790" lon="4.980640"></trkpt>
      <trkpt lat="47.260570" lon="4.980340"></trkpt>
      <trkpt lat="47.260550" lon="4.980280"></trkpt>
      <trkpt lat="47.260550" lon="4.980100"></trkpt>
      <trkpt lat="47.260580" lon="4.979830"></trkpt>
      <trkpt lat="47.260540" lon="4.979730"></trkpt>
      <trkpt lat="47.260350" lon="4.979460"></trkpt>
      <trkpt lat="47.260280" lon="4.979400"></trkpt>
      <trkpt lat="47.260180" lon="4.979350"></trkpt>
      <trkpt lat="47.259590" lon="4.979170"></trkpt>
      <trkpt lat="47.258990" lon="4.979170"></trkpt>
      <trkpt lat="47.258810" lon="4.979110"></trkpt>
      <trkpt lat="47.258680" lon="4.979030"></trkpt>
      <trkpt lat="47.258550" lon="4.978880"></trkpt>
      <trkpt lat="47.258150" lon="4.978290"></trkpt>
      <trkpt lat="47.257910" lon="4.978090"></trkpt>
      <trkpt lat="47.257670" lon="4.977950"></trkpt>
      <trkpt lat="47.257230" lon="4.977740"></trkpt>
      <trkpt lat="47.255890" lon="4.977170"></trkpt>
      <trkpt lat="47.253860" lon="4.976980"></trkpt>
      <trkpt lat="47.253510" lon="4.976890"></trkpt>
      <trkpt lat="47.249990" lon="4.975420"></trkpt>
      <trkpt lat="47.249440" lon="4.975140"></trkpt>
      <trkpt lat="47.248690" lon="4.974830"></trkpt>
      <trkpt lat="47.247260" lon="4.974130"></trkpt>
      <trkpt lat="47.247020" lon="4.974030"></trkpt>
      <trkpt lat="47.246760" lon="4.974000"></trkpt>
      <trkpt lat="47.246580" lon="4.973960"></trkpt>
      <trkpt lat="47.246300" lon="4.973860"></trkpt>
      <trkpt lat="47.246150" lon="4.973780"></trkpt>
      <trkpt lat="47.245660" lon="4.973390"></trkpt>
      <trkpt lat="47.245370" lon="4.973220"></trkpt>
      <trkpt lat="47.244900" lon="4.973070"></trkpt>
      <trkpt lat="47.244480" lon="4.972880"></trkpt>
      <trkpt lat="47.244310" lon="4.972870"></trkpt>
      <trkpt lat="47.244150" lon="4.972830"></trkpt>
      <trkpt lat="47.243940" lon="4.972730"></trkpt>
      <trkpt lat="47.243520" lon="4.972380"></trkpt>
      <trkpt lat="47.243390" lon="4.972310"></trkpt>
      <trkpt lat="47.243160" lon="4.972280"></trkpt>
      <trkpt lat="47.243000" lon="4.972240"></trkpt>
      <trkpt lat="47.242470" lon="4.971990"></trkpt>
      <trkpt lat="47.242280" lon="4.971960"></trkpt>
      <trkpt lat="47.242020" lon="4.971970"></trkpt>
      <trkpt lat="47.241720" lon="4.971960"></trkpt>
      <trkpt lat="47.241400" lon="4.971980"></trkpt>
      <trkpt lat="47.241060" lon="4.971860"></trkpt>
      <trkpt lat="47.240910" lon="4.971800"></trkpt>
      <trkpt lat="47.240610" lon="4.971640"></trkpt>
      <trkpt lat="47.239470" lon="4.970980"></trkpt>
      <trkpt lat="47.238810" lon="4.970480"></trkpt>
      <trkpt lat="47.238360" lon="4.970210"></trkpt>
      <trkpt lat="47.238160" lon="4.970150"></trkpt>
      <trkpt lat="47.237770" lon="4.970160"></trkpt>
      <trkpt lat="47.237590" lon="4.970150"></trkpt>
      <trkpt lat="47.237340" lon="4.970100"></trkpt>
      <trkpt lat="47.236160" lon="4.969700"></trkpt>
      <trkpt lat="47.233950" lon="4.968900"></trkpt>
      <trkpt lat="47.233610" lon="4.968740"></trkpt>
      <trkpt lat="47.232750" lon="4.968220"></trkpt>
      <trkpt lat="47.232410" lon="4.968050"></trkpt>
      <trkpt lat="47.230510" lon="4.967520"></trkpt>
      <trkpt lat="47.228790" lon="4.967140"></trkpt>
      <trkpt lat="47.228180" lon="4.966850"></trkpt>
      <trkpt lat="47.228100" lon="4.966830"></trkpt>
      <trkpt lat="47.228020" lon="4.966860"></trkpt>
      <trkpt lat="47.227950" lon="4.966930"></trkpt>
      <trkpt lat="47.227750" lon="4.967470"></trkpt>
      <trkpt lat="47.227420" lon="4.966430"></trkpt>
      <trkpt lat="47.227210" lon="4.965950"></trkpt>
      <trkpt lat="47.226730" lon="4.965170"></trkpt>
      <trkpt lat="47.226370" lon="4.964740"></trkpt>
      <trkpt lat="47.226300" lon="4.964620"></trkpt>
      <trkpt lat="47.226210" lon="4.964320"></trkpt>
      <trkpt lat="47.226200" lon="4.964090"></trkpt>
      <trkpt lat="47.226300" lon="4.962970"></trkpt>
      <trkpt lat="47.226270" lon="4.962530"></trkpt>
      <trkpt lat="47.226210" lon="4.962210"></trkpt>
      <trkpt lat="47.226080" lon="4.961900"></trkpt>
      <trkpt lat="47.225780" lon="4.961420"></trkpt>
      <trkpt lat="47.225700" lon="4.961240"></trkpt>
      <trkpt lat="47.225490" lon="4.960590"></trkpt>
      <trkpt lat="47.225240" lon="4.959680"></trkpt>
      <trkpt lat="47.225090" lon="4.959300"></trkpt>
      <trkpt lat="47.224590" lon="4.958250"></trkpt>
      <trkpt lat="47.224060" lon="4.956560"></trkpt>
      <trkpt lat="47.223790" lon="4.955320"></trkpt>
      <trkpt lat="47.223510" lon="4.953580"></trkpt>
      <trkpt lat="47.222560" lon="4.949110"></trkpt>
      <trkpt lat="47.222420" lon="4.948670"></trkpt>
      <trkpt lat="47.221960" lon="4.947640"></trkpt>
      <trkpt lat="47.221710" lon="4.946970"></trkpt>
      <trkpt lat="47.221500" lon="4.946210"></trkpt>
      <trkpt lat="47.221420" lon="4.945740"></trkpt>
      <trkpt lat="47.221350" lon="4.944900"></trkpt>
      <trkpt lat="47.221340" lon="4.943300"></trkpt>
      <trkpt lat="47.221260" lon="4.942860"></trkpt>
      <trkpt lat="47.221100" lon="4.942550"></trkpt>
      <trkpt lat="47.220520" lon="4.941890"></trkpt>
      <trkpt lat="47.220190" lon="4.941000"></trkpt>
      <trkpt lat="47.220060" lon="4.940430"></trkpt>
      <trkpt lat="47.220040" lon="4.939970"></trkpt>
      <trkpt lat="47.220070" lon="4.939420"></trkpt>
      <trkpt lat="47.220220" lon="4.938910"></trkpt>
      <trkpt lat="47.220550" lon="4.938200"></trkpt>
      <trkpt lat="47.220710" lon="4.938000"></trkpt>
      <trkpt lat="47.221300" lon="4.937360"></trkpt>
      <trkpt lat="47.221510" lon="4.937090"></trkpt>
      <trkpt lat="47.222210" lon="4.935900"></trkpt>
      <trkpt lat="47.222630" lon="4.935250"></trkpt>
      <trkpt lat="47.223470" lon="4.933840"></trkpt>
      <trkpt lat="47.223580" lon="4.933530"></trkpt>
      <trkpt lat="47.223690" lon="4.933000"></trkpt>
      <trkpt lat="47.223740" lon="4.932570"></trkpt>
      <trkpt lat="47.223790" lon="4.932400"></trkpt>
      <trkpt lat="47.223870" lon="4.932210"></trkpt>
      <trkpt lat="47.224110" lon="4.931770"></trkpt>
      <trkpt lat="47.224290" lon="4.931390"></trkpt>
      <trkpt lat="47.224370" lon="4.931110"></trkpt>
      <trkpt lat="47.224350" lon="4.930970"></trkpt>
      <trkpt lat="47.224300" lon="4.930870"></trkpt>
      <trkpt lat="47.224200" lon="4.930820"></trkpt>
      <trkpt lat="47.224100" lon="4.930830"></trkpt>
      <trkpt lat="47.223840" lon="4.930980"></trkpt>
      <trkpt lat="47.223740" lon="4.930980"></trkpt>
      <trkpt lat="47.223690" lon="4.930940"></trkpt>
      <trkpt lat="47.223620" lon="4.930500"></trkpt>
      <trkpt lat="47.223500" lon="4.929420"></trkpt>
      <trkpt lat="47.223520" lon="4.929200"></trkpt>
      <trkpt lat="47.223650" lon="4.928380"></trkpt>
      <trkpt lat="47.223700" lon="4.927180"></trkpt>
      <trkpt lat="47.223760" lon="4.926810"></trkpt>
      <trkpt lat="47.223870" lon="4.926370"></trkpt>
      <trkpt lat="47.223870" lon="4.926180"></trkpt>
      <trkpt lat="47.223840" lon="4.925990"></trkpt>
      <trkpt lat="47.223700" lon="4.925490"></trkpt>
      <trkpt lat="47.223400" lon="4.924560"></trkpt>
      <trkpt lat="47.223330" lon="4.924270"></trkpt>
      <trkpt lat="47.223320" lon="4.924160"></trkpt>
      <trkpt lat="47.223330" lon="4.923930"></trkpt>
      <trkpt lat="47.223410" lon="4.923530"></trkpt>
      <trkpt lat="47.223720" lon="4.922600"></trkpt>
      <trkpt lat="47.224300" lon="4.921080"></trkpt>
      <trkpt lat="47.224430" lon="4.920490"></trkpt>
      <trkpt lat="47.224720" lon="4.918670"></trkpt>
      <trkpt lat="47.224790" lon="4.918420"></trkpt>
      <trkpt lat="47.225020" lon="4.917780"></trkpt>
      <trkpt lat="47.225400" lon="4.916960"></trkpt>
      <trkpt lat="47.225570" lon="4.916660"></trkpt>
      <trkpt lat="47.226110" lon="4.915810"></trkpt>
      <trkpt lat="47.226240" lon="4.915550"></trkpt>
      <trkpt lat="47.226440" lon="4.914970"></trkpt>
      <trkpt lat="47.227780" lon="4.909950"></trkpt>
      <trkpt lat="47.227820" lon="4.909680"></trkpt>
      <trkpt lat="47.227580" lon="4.909570"></trkpt>
      <trkpt lat="47.225990" lon="4.908470"></trkpt>
      <trkpt lat="47.225830" lon="4.908380"></trkpt>
      <trkpt lat="47.225660" lon="4.908340"></trkpt>
      <trkpt lat="47.225580" lon="4.908360"></trkpt>
      <trkpt lat="47.225450" lon="4.908430"></trkpt>
      <trkpt lat="47.224900" lon="4.908910"></trkpt>
      <trkpt lat="47.224260" lon="4.909500"></trkpt>
      <trkpt lat="47.224110" lon="4.909670"></trkpt>
      <trkpt lat="47.223980" lon="4.909870"></trkpt>
      <trkpt lat="47.223670" lon="4.910420"></trkpt>
      <trkpt lat="47.223510" lon="4.910730"></trkpt>
      <trkpt lat="47.223460" lon="4.910860"></trkpt>
      <trkpt lat="47.223340" lon="4.911300"></trkpt>
      <trkpt lat="47.222700" lon="4.913930"></trkpt>
      <trkpt lat="47.222610" lon="4.914110"></trkpt>
      <trkpt lat="47.222460" lon="4.914330"></trkpt>
      <trkpt lat="47.221700" lon="4.915330"></trkpt>
      <trkpt lat="47.221610" lon="4.915530"></trkpt>
      <trkpt lat="47.220790" lon="4.917760"></trkpt>
      <trkpt lat="47.220550" lon="4.918260"></trkpt>
      <trkpt lat="47.220420" lon="4.918440"></trkpt>
      <trkpt lat="47.219570" lon="4.919320"></trkpt>
      <trkpt lat="47.219160" lon="4.919680"></trkpt>
      <trkpt lat="47.218920" lon="4.919840"></trkpt>
      <trkpt lat="47.218440" lon="4.920030"></trkpt>
      <trkpt lat="47.217960" lon="4.920100"></trkpt>
      <trkpt lat="47.217470" lon="4.920100"></trkpt>
      <trkpt lat="47.217200" lon="4.920060"></trkpt>
      <trkpt lat="47.216990" lon="4.919980"></trkpt>
      <trkpt lat="47.216650" lon="4.919800"></trkpt>
      <trkpt lat="47.216350" lon="4.919580"></trkpt>
      <trkpt lat="47.214410" lon="4.918000"></trkpt>
      <trkpt lat="47.213680" lon="4.917360"></trkpt>
      <trkpt lat="47.213120" lon="4.916910"></trkpt>
      <trkpt lat="47.213000" lon="4.916840"></trkpt>
      <trkpt lat="47.212890" lon="4.916800"></trkpt>
      <trkpt lat="47.211740" lon="4.916850"></trkpt>
      <trkpt lat="47.209920" lon="4.916970"></trkpt>
      <trkpt lat="47.209780" lon="4.916960"></trkpt>
      <trkpt lat="47.209620" lon="4.916920"></trkpt>
      <trkpt lat="47.209480" lon="4.916840"></trkpt>
      <trkpt lat="47.209090" lon="4.916530"></trkpt>
      <trkpt lat="47.208890" lon="4.916430"></trkpt>
      <trkpt lat="47.208740" lon="4.916390"></trkpt>
      <trkpt lat="47.207830" lon="4.916270"></trkpt>
      <trkpt lat="47.207610" lon="4.916210"></trkpt>
      <trkpt lat="47.207530" lon="4.916170"></trkpt>
      <trkpt lat="47.207360" lon="4.916060"></trkpt>
      <trkpt lat="47.207130" lon="4.915830"></trkpt>
      <trkpt lat="47.207020" lon="4.915690"></trkpt>
      <trkpt lat="47.206850" lon="4.915370"></trkpt>
      <trkpt lat="47.206370" lon="4.914320"></trkpt>
      <trkpt lat="47.206150" lon="4.913750"></trkpt>
      <trkpt lat="47.205950" lon="4.913330"></trkpt>
      <trkpt lat="47.205290" lon="4.912290"></trkpt>
      <trkpt lat="47.205060" lon="4.911830"></trkpt>
      <trkpt lat="47.204840" lon="4.911230"></trkpt>
      <trkpt lat="47.204410" lon="4.909650"></trkpt>
      <trkpt lat="47.204200" lon="4.909110"></trkpt>
      <trkpt lat="47.204010" lon="4.908810"></trkpt>
      <trkpt lat="47.203780" lon="4.908530"></trkpt>
      <trkpt lat="47.203660" lon="4.908410"></trkpt>
      <trkpt lat="47.202910" lon="4.907810"></trkpt>
      <trkpt lat="47.202660" lon="4.907560"></trkpt>
      <trkpt lat="47.202150" lon="4.906990"></trkpt>
      <trkpt lat="47.201870" lon="4.906570"></trkpt>
      <trkpt lat="47.201740" lon="4.906490"></trkpt>
      <trkpt lat="47.201440" lon="4.906450"></trkpt>
      <trkpt lat="47.200770" lon="4.906160"></trkpt>
      <trkpt lat="47.200400" lon="4.905910"></trkpt>
      <trkpt lat="47.200030" lon="4.905630"></trkpt>
      <trkpt lat="47.199540" lon="4.905330"></trkpt>
      <trkpt lat="47.199350" lon="4.905270"></trkpt>
      <trkpt lat="47.198860" lon="4.905170"></trkpt>
      <trkpt lat="47.198770" lon="4.905130"></trkpt>
      <trkpt lat="47.198570" lon="4.904980"></trkpt>
      <trkpt lat="47.198500" lon="4.904900"></trkpt>
      <trkpt lat="47.198000" lon="4.904320"></trkpt>
      <trkpt lat="47.197090" lon="4.903040"></trkpt>
      <trkpt lat="47.197000" lon="4.902860"></trkpt>
      <trkpt lat="47.196920" lon="4.902650"></trkpt>
      <trkpt lat="47.196520" lon="4.901150"></trkpt>
      <trkpt lat="47.196260" lon="4.900380"></trkpt>
      <trkpt lat="47.195970" lon="4.899780"></trkpt>
      <trkpt lat="47.195810" lon="4.899520"></trkpt>
      <trkpt lat="47.195190" lon="4.898650"></trkpt>
      <trkpt lat="47.194900" lon="4.898280"></trkpt>
      <trkpt lat="47.194750" lon="4.898130"></trkpt>
      <trkpt lat="47.194170" lon="4.897650"></trkpt>
      <trkpt lat="47.193580" lon="4.897100"></trkpt>
      <trkpt lat="47.193460" lon="4.897010"></trkpt>
      <trkpt lat="47.193120" lon="4.896840"></trkpt>
      <trkpt lat="47.192810" lon="4.896720"></trkpt>
      <trkpt lat="47.192470" lon="4.896620"></trkpt>
      <trkpt lat="47.191990" lon="4.896550"></trkpt>
      <trkpt lat="47.191680" lon="4.896440"></trkpt>
      <trkpt lat="47.191550" lon="4.896360"></trkpt>
      <trkpt lat="47.191440" lon="4.896270"></trkpt>
      <trkpt lat="47.190870" lon="4.895660"></trkpt>
      <trkpt lat="47.190480" lon="4.895280"></trkpt>
      <trkpt lat="47.190150" lon="4.894980"></trkpt>
      <trkpt lat="47.189880" lon="4.894790"></trkpt>
      <trkpt lat="47.189570" lon="4.894650"></trkpt>
      <trkpt lat="47.189150" lon="4.894520"></trkpt>
      <trkpt lat="47.188690" lon="4.894440"></trkpt>
      <trkpt lat="47.188450" lon="4.894440"></trkpt>
      <trkpt lat="47.188120" lon="4.894490"></trkpt>
      <trkpt lat="47.187800" lon="4.894580"></trkpt>
      <trkpt lat="47.187520" lon="4.894710"></trkpt>
      <trkpt lat="47.187240" lon="4.894960"></trkpt>
      <trkpt lat="47.186800" lon="4.894790"></trkpt>
      <trkpt lat="47.186360" lon="4.894510"></trkpt>
      <trkpt lat="47.186140" lon="4.894290"></trkpt>
      <trkpt lat="47.186330" lon="4.893680"></trkpt>
      <trkpt lat="47.186330" lon="4.893610"></trkpt>
      <trkpt lat="47.185530" lon="4.891870"></trkpt>
      <trkpt lat="47.185310" lon="4.891490"></trkpt>
      <trkpt lat="47.184900" lon="4.890870"></trkpt>
      <trkpt lat="47.184750" lon="4.890600"></trkpt>
      <trkpt lat="47.184650" lon="4.890370"></trkpt>
      <trkpt lat="47.184570" lon="4.890040"></trkpt>
      <trkpt lat="47.184370" lon="4.888930"></trkpt>
      <trkpt lat="47.184110" lon="4.888140"></trkpt>
      <trkpt lat="47.183870" lon="4.887710"></trkpt>
      <trkpt lat="47.183770" lon="4.887480"></trkpt>
      <trkpt lat="47.183680" lon="4.887150"></trkpt>
      <trkpt lat="47.183630" lon="4.886770"></trkpt>
      <trkpt lat="47.183500" lon="4.885270"></trkpt>
      <trkpt lat="47.183390" lon="4.884590"></trkpt>
      <trkpt lat="47.183380" lon="4.884330"></trkpt>
      <trkpt lat="47.183430" lon="4.883820"></trkpt>
      <trkpt lat="47.183370" lon="4.883560"></trkpt>
      <trkpt lat="47.183250" lon="4.883340"></trkpt>
      <trkpt lat="47.182990" lon="4.882950"></trkpt>
      <trkpt lat="47.182250" lon="4.881980"></trkpt>
      <trkpt lat="47.182090" lon="4.881800"></trkpt>
      <trkpt lat="47.181510" lon="4.881250"></trkpt>
      <trkpt lat="47.181020" lon="4.880680"></trkpt>
      <trkpt lat="47.180630" lon="4.880410"></trkpt>
      <trkpt lat="47.180290" lon="4.880250"></trkpt>
      <trkpt lat="47.180110" lon="4.880110"></trkpt>
      <trkpt lat="47.180020" lon="4.880010"></trkpt>
      <trkpt lat="47.179930" lon="4.879810"></trkpt>
      <trkpt lat="47.179920" lon="4.879710"></trkpt>
      <trkpt lat="47.179820" lon="4.879400"></trkpt>
      <trkpt lat="47.179770" lon="4.879340"></trkpt>
      <trkpt lat="47.179670" lon="4.879130"></trkpt>
      <trkpt lat="47.179540" lon="4.879140"></trkpt>
      <trkpt lat="47.179300" lon="4.879120"></trkpt>
      <trkpt lat="47.178910" lon="4.878990"></trkpt>
      <trkpt lat="47.178510" lon="4.878790"></trkpt>
      <trkpt lat="47.178060" lon="4.878390"></trkpt>
      <trkpt lat="47.177670" lon="4.878000"></trkpt>
      <trkpt lat="47.176990" lon="4.877190"></trkpt>
      <trkpt lat="47.176730" lon="4.876910"></trkpt>
      <trkpt lat="47.176230" lon="4.876500"></trkpt>
      <trkpt lat="47.176240" lon="4.876510"></trkpt>
      <trkpt lat="47.175550" lon="4.876140"></trkpt>
      <trkpt lat="47.175320" lon="4.876070"></trkpt>
      <trkpt lat="47.174780" lon="4.876060"></trkpt>
      <trkpt lat="47.173290" lon="4.876240"></trkpt>
      <trkpt lat="47.172650" lon="4.876240"></trkpt>
      <trkpt lat="47.172380" lon="4.876270"></trkpt>
      <trkpt lat="47.172010" lon="4.876360"></trkpt>
      <trkpt lat="47.171700" lon="4.876410"></trkpt>
      <trkpt lat="47.171510" lon="4.876410"></trkpt>
      <trkpt lat="47.171340" lon="4.876380"></trkpt>
      <trkpt lat="47.171190" lon="4.876330"></trkpt>
      <trkpt lat="47.169920" lon="4.875680"></trkpt>
      <trkpt lat="47.169080" lon="4.875300"></trkpt>
      <trkpt lat="47.168910" lon="4.875250"></trkpt>
      <trkpt lat="47.168750" lon="4.875230"></trkpt>
      <trkpt lat="47.168630" lon="4.875240"></trkpt>
      <trkpt lat="47.168240" lon="4.875330"></trkpt>
      <trkpt lat="47.167740" lon="4.875530"></trkpt>
      <trkpt lat="47.167400" lon="4.875730"></trkpt>
      <trkpt lat="47.166890" lon="4.876190"></trkpt>
      <trkpt lat="47.166330" lon="4.876620"></trkpt>
      <trkpt lat="47.166120" lon="4.876740"></trkpt>
      <trkpt lat="47.165840" lon="4.876840"></trkpt>
      <trkpt lat="47.165450" lon="4.876830"></trkpt>
      <trkpt lat="47.165230" lon="4.877030"></trkpt>
      <trkpt lat="47.164900" lon="4.877430"></trkpt>
      <trkpt lat="47.163980" lon="4.878400"></trkpt>
      <trkpt lat="47.163740" lon="4.878620"></trkpt>
      <trkpt lat="47.161580" lon="4.879810"></trkpt>
      <trkpt lat="47.161130" lon="4.880020"></trkpt>
      <trkpt lat="47.160540" lon="4.880220"></trkpt>
      <trkpt lat="47.160170" lon="4.880310"></trkpt>
      <trkpt lat="47.159770" lon="4.880440"></trkpt>
      <trkpt lat="47.159380" lon="4.880630"></trkpt>
      <trkpt lat="47.158580" lon="4.881150"></trkpt>
      <trkpt lat="47.157120" lon="4.881870"></trkpt>
      <trkpt lat="47.156930" lon="4.882030"></trkpt>
      <trkpt lat="47.156740" lon="4.882250"></trkpt>
      <trkpt lat="47.156470" lon="4.882660"></trkpt>
      <trkpt lat="47.156000" lon="4.883530"></trkpt>
      <trkpt lat="47.155870" lon="4.883920"></trkpt>
      <trkpt lat="47.155830" lon="4.884520"></trkpt>
      <trkpt lat="47.155800" lon="4.884700"></trkpt>
      <trkpt lat="47.155690" lon="4.885040"></trkpt>
      <trkpt lat="47.155550" lon="4.885310"></trkpt>
      <trkpt lat="47.155170" lon="4.885820"></trkpt>
      <trkpt lat="47.154920" lon="4.886100"></trkpt>
      <trkpt lat="47.154500" lon="4.886460"></trkpt>
      <trkpt lat="47.153530" lon="4.887140"></trkpt>
      <trkpt lat="47.153110" lon="4.887580"></trkpt>
      <trkpt lat="47.152900" lon="4.887760"></trkpt>
      <trkpt lat="47.150850" lon="4.889080"></trkpt>
      <trkpt lat="47.150290" lon="4.889550"></trkpt>
      <trkpt lat="47.148450" lon="4.891230"></trkpt>
      <trkpt lat="47.147890" lon="4.891540"></trkpt>
      <trkpt lat="47.147550" lon="4.891870"></trkpt>
      <trkpt lat="47.146760" lon="4.893090"></trkpt>
      <trkpt lat="47.146230" lon="4.893820"></trkpt>
      <trkpt lat="47.146120" lon="4.894020"></trkpt>
      <trkpt lat="47.145850" lon="4.894700"></trkpt>
      <trkpt lat="47.144950" lon="4.897380"></trkpt>
      <trkpt lat="47.144650" lon="4.898060"></trkpt>
      <trkpt lat="47.144520" lon="4.898440"></trkpt>
      <trkpt lat="47.144460" lon="4.898750"></trkpt>
      <trkpt lat="47.144230" lon="4.900560"></trkpt>
      <trkpt lat="47.144180" lon="4.901110"></trkpt>
      <trkpt lat="47.144120" lon="4.902590"></trkpt>
      <trkpt lat="47.144140" lon="4.903060"></trkpt>
      <trkpt lat="47.144220" lon="4.903700"></trkpt>
      <trkpt lat="47.144340" lon="4.905180"></trkpt>
      <trkpt lat="47.144430" lon="4.905670"></trkpt>
      <trkpt lat="47.144570" lon="4.906240"></trkpt>
      <trkpt lat="47.144920" lon="4.907390"></trkpt>
      <trkpt lat="47.144970" lon="4.907650"></trkpt>
      <trkpt lat="47.145000" lon="4.908080"></trkpt>
      <trkpt lat="47.144880" lon="4.909200"></trkpt>
      <trkpt lat="47.144910" lon="4.909940"></trkpt>
      <trkpt lat="47.144840" lon="4.910810"></trkpt>
      <trkpt lat="47.144810" lon="4.911460"></trkpt>
      <trkpt lat="47.144840" lon="4.912460"></trkpt>
      <trkpt lat="47.144880" lon="4.913170"></trkpt>
      <trkpt lat="47.144910" lon="4.913370"></trkpt>
      <trkpt lat="47.144910" lon="4.913630"></trkpt>
      <trkpt lat="47.144840" lon="4.913820"></trkpt>
      <trkpt lat="47.144030" lon="4.913370"></trkpt>
      <trkpt lat="47.144040" lon="4.913380"></trkpt>
      <trkpt lat="47.143770" lon="4.913110"></trkpt>
      <trkpt lat="47.143630" lon="4.912830"></trkpt>
      <trkpt lat="47.143580" lon="4.912660"></trkpt>
      <trkpt lat="47.143530" lon="4.912210"></trkpt>
      <trkpt lat="47.143530" lon="4.911820"></trkpt>
      <trkpt lat="47.143660" lon="4.910450"></trkpt>
      <trkpt lat="47.143630" lon="4.909440"></trkpt>
      <trkpt lat="47.143580" lon="4.908640"></trkpt>
      <trkpt lat="47.143480" lon="4.908200"></trkpt>
      <trkpt lat="47.143370" lon="4.907890"></trkpt>
      <trkpt lat="47.142990" lon="4.906960"></trkpt>
      <trkpt lat="47.142080" lon="4.904860"></trkpt>
      <trkpt lat="47.141910" lon="4.904360"></trkpt>
      <trkpt lat="47.141760" lon="4.903830"></trkpt>
      <trkpt lat="47.141500" lon="4.901760"></trkpt>
      <trkpt lat="47.141430" lon="4.900920"></trkpt>
      <trkpt lat="47.141450" lon="4.899550"></trkpt>
      <trkpt lat="47.141620" lon="4.898230"></trkpt>
      <trkpt lat="47.141660" lon="4.897450"></trkpt>
      <trkpt lat="47.141670" lon="4.896570"></trkpt>
      <trkpt lat="47.141630" lon="4.895590"></trkpt>
      <trkpt lat="47.141470" lon="4.893830"></trkpt>
      <trkpt lat="47.141460" lon="4.893320"></trkpt>
      <trkpt lat="47.141630" lon="4.891050"></trkpt>
      <trkpt lat="47.141630" lon="4.890740"></trkpt>
      <trkpt lat="47.141620" lon="4.890560"></trkpt>
      <trkpt lat="47.141530" lon="4.890050"></trkpt>
      <trkpt lat="47.141450" lon="4.889760"></trkpt>
      <trkpt lat="47.141260" lon="4.889310"></trkpt>
      <trkpt lat="47.140520" lon="4.888080"></trkpt>
      <trkpt lat="47.140350" lon="4.887740"></trkpt>
      <trkpt lat="47.140230" lon="4.887330"></trkpt>
      <trkpt lat="47.140190" lon="4.886990"></trkpt>
      <trkpt lat="47.140200" lon="4.886410"></trkpt>
      <trkpt lat="47.140480" lon="4.885020"></trkpt>
      <trkpt lat="47.140570" lon="4.884470"></trkpt>
      <trkpt lat="47.140560" lon="4.882860"></trkpt>
      <trkpt lat="47.139720" lon="4.882830"></trkpt>
      <trkpt lat="47.139060" lon="4.882780"></trkpt>
      <trkpt lat="47.138720" lon="4.882780"></trkpt>
      <trkpt lat="47.137270" lon="4.882860"></trkpt>
      <trkpt lat="47.136570" lon="4.882970"></trkpt>
      <trkpt lat="47.136000" lon="4.883100"></trkpt>
      <trkpt lat="47.135680" lon="4.883120"></trkpt>
      <trkpt lat="47.135170" lon="4.883070"></trkpt>
      <trkpt lat="47.133910" lon="4.882790"></trkpt>
      <trkpt lat="47.133600" lon="4.882750"></trkpt>
      <trkpt lat="47.133280" lon="4.882750"></trkpt>
      <trkpt lat="47.132910" lon="4.882790"></trkpt>
      <trkpt lat="47.132360" lon="4.882880"></trkpt>
      <trkpt lat="47.132060" lon="4.882980"></trkpt>
      <trkpt lat="47.131670" lon="4.883180"></trkpt>
      <trkpt lat="47.131450" lon="4.883230"></trkpt>
      <trkpt lat="47.129780" lon="4.882970"></trkpt>
      <trkpt lat="47.129360" lon="4.882830"></trkpt>
      <trkpt lat="47.129160" lon="4.882710"></trkpt>
      <trkpt lat="47.128530" lon="4.882210"></trkpt>
      <trkpt lat="47.128310" lon="4.882080"></trkpt>
      <trkpt lat="47.127930" lon="4.881910"></trkpt>
      <trkpt lat="47.126890" lon="4.881510"></trkpt>
      <trkpt lat="47.126680" lon="4.881400"></trkpt>
      <trkpt lat="47.126440" lon="4.881210"></trkpt>
      <trkpt lat="47.125940" lon="4.880700"></trkpt>
      <trkpt lat="47.125230" lon="4.879910"></trkpt>
      <trkpt lat="47.124990" lon="4.879590"></trkpt>
      <trkpt lat="47.124710" lon="4.879120"></trkpt>
      <trkpt lat="47.124520" lon="4.878730"></trkpt>
      <trkpt lat="47.124360" lon="4.878260"></trkpt>
      <trkpt lat="47.124300" lon="4.877930"></trkpt>
      <trkpt lat="47.124220" lon="4.877290"></trkpt>
      <trkpt lat="47.124140" lon="4.876980"></trkpt>
      <trkpt lat="47.123970" lon="4.876560"></trkpt>
      <trkpt lat="47.123310" lon="4.875560"></trkpt>
      <trkpt lat="47.122690" lon="4.874820"></trkpt>
      <trkpt lat="47.122430" lon="4.874620"></trkpt>
      <trkpt lat="47.122190" lon="4.874530"></trkpt>
      <trkpt lat="47.122070" lon="4.874530"></trkpt>
      <trkpt lat="47.121820" lon="4.874600"></trkpt>
      <trkpt lat="47.121530" lon="4.874740"></trkpt>
      <trkpt lat="47.121310" lon="4.874890"></trkpt>
      <trkpt lat="47.120980" lon="4.875210"></trkpt>
      <trkpt lat="47.120840" lon="4.875230"></trkpt>
      <trkpt lat="47.120750" lon="4.875140"></trkpt>
      <trkpt lat="47.120710" lon="4.875030"></trkpt>
      <trkpt lat="47.120660" lon="4.874560"></trkpt>
      <trkpt lat="47.120610" lon="4.874270"></trkpt>
      <trkpt lat="47.120520" lon="4.873970"></trkpt>
      <trkpt lat="47.120340" lon="4.873600"></trkpt>
      <trkpt lat="47.120090" lon="4.873240"></trkpt>
      <trkpt lat="47.119790" lon="4.872890"></trkpt>
      <trkpt lat="47.119300" lon="4.872390"></trkpt>
      <trkpt lat="47.118990" lon="4.871950"></trkpt>
      <trkpt lat="47.118840" lon="4.871790"></trkpt>
      <trkpt lat="47.118550" lon="4.871530"></trkpt>
      <trkpt lat="47.117780" lon="4.870970"></trkpt>
      <trkpt lat="47.117180" lon="4.870620"></trkpt>
      <trkpt lat="47.116830" lon="4.870460"></trkpt>
      <trkpt lat="47.116500" lon="4.870360"></trkpt>
      <trkpt lat="47.116060" lon="4.870160"></trkpt>
      <trkpt lat="47.116030" lon="4.870050"></trkpt>
      <trkpt lat="47.116030" lon="4.869700"></trkpt>
      <trkpt lat="47.116070" lon="4.869520"></trkpt>
      <trkpt lat="47.117020" lon="4.867700"></trkpt>
      <trkpt lat="47.117150" lon="4.867290"></trkpt>
      <trkpt lat="47.117200" lon="4.867030"></trkpt>
      <trkpt lat="47.117210" lon="4.866760"></trkpt>
      <trkpt lat="47.117190" lon="4.866530"></trkpt>
      <trkpt lat="47.117140" lon="4.866280"></trkpt>
      <trkpt lat="47.116950" lon="4.865680"></trkpt>
      <trkpt lat="47.116910" lon="4.865460"></trkpt>
      <trkpt lat="47.116910" lon="4.865060"></trkpt>
      <trkpt lat="47.116930" lon="4.864850"></trkpt>
      <trkpt lat="47.116990" lon="4.864600"></trkpt>
      <trkpt lat="47.117090" lon="4.864340"></trkpt>
      <trkpt lat="47.117230" lon="4.864110"></trkpt>
      <trkpt lat="47.117530" lon="4.863740"></trkpt>
      <trkpt lat="47.117680" lon="4.863490"></trkpt>
      <trkpt lat="47.117810" lon="4.863190"></trkpt>
      <trkpt lat="47.117920" lon="4.862850"></trkpt>
      <trkpt lat="47.118020" lon="4.862440"></trkpt>
      <trkpt lat="47.118210" lon="4.861300"></trkpt>
      <trkpt lat="47.118310" lon="4.860840"></trkpt>
      <trkpt lat="47.118620" lon="4.859880"></trkpt>
      <trkpt lat="47.118850" lon="4.859390"></trkpt>
      <trkpt lat="47.119010" lon="4.858950"></trkpt>
      <trkpt lat="47.119090" lon="4.858650"></trkpt>
      <trkpt lat="47.119190" lon="4.858380"></trkpt>
      <trkpt lat="47.119290" lon="4.858250"></trkpt>
      <trkpt lat="47.119730" lon="4.857910"></trkpt>
      <trkpt lat="47.119990" lon="4.857420"></trkpt>
      <trkpt lat="47.120170" lon="4.856940"></trkpt>
      <trkpt lat="47.120610" lon="4.855450"></trkpt>
      <trkpt lat="47.120710" lon="4.854990"></trkpt>
      <trkpt lat="47.120730" lon="4.854600"></trkpt>
      <trkpt lat="47.120670" lon="4.854220"></trkpt>
      <trkpt lat="47.120390" lon="4.853080"></trkpt>
      <trkpt lat="47.120360" lon="4.852710"></trkpt>
      <trkpt lat="47.120440" lon="4.852220"></trkpt>
      <trkpt lat="47.120580" lon="4.851760"></trkpt>
      <trkpt lat="47.121100" lon="4.850430"></trkpt>
      <trkpt lat="47.121190" lon="4.850120"></trkpt>
      <trkpt lat="47.123300" lon="4.840600"></trkpt>
      <trkpt lat="47.123350" lon="4.840270"></trkpt>
      <trkpt lat="47.123360" lon="4.839990"></trkpt>
      <trkpt lat="47.123330" lon="4.839670"></trkpt>
      <trkpt lat="47.123040" lon="4.837800"></trkpt>
      <trkpt lat="47.123010" lon="4.837510"></trkpt>
      <trkpt lat="47.122990" lon="4.837060"></trkpt>
      <trkpt lat="47.123000" lon="4.836540"></trkpt>
      <trkpt lat="47.123060" lon="4.835740"></trkpt>
      <trkpt lat="47.123030" lon="4.835580"></trkpt>
      <trkpt lat="47.122960" lon="4.835440"></trkpt>
      <trkpt lat="47.123150" lon="4.835240"></trkpt>
      <trkpt lat="47.123730" lon="4.834170"></trkpt>
      <trkpt lat="47.124520" lon="4.832640"></trkpt>
      <trkpt lat="47.124630" lon="4.832290"></trkpt>
      <trkpt lat="47.124730" lon="4.831830"></trkpt>
      <trkpt lat="47.124840" lon="4.830820"></trkpt>
      <trkpt lat="47.124820" lon="4.830270"></trkpt>
      <trkpt lat="47.124790" lon="4.829920"></trkpt>
      <trkpt lat="47.124480" lon="4.828060"></trkpt>
      <trkpt lat="47.124500" lon="4.827760"></trkpt>
      <trkpt lat="47.124560" lon="4.827620"></trkpt>
      <trkpt lat="47.124740" lon="4.827340"></trkpt>
      <trkpt lat="47.127680" lon="4.824130"></trkpt>
      <trkpt lat="47.127880" lon="4.823880"></trkpt>
      <trkpt lat="47.128220" lon="4.823310"></trkpt>
      <trkpt lat="47.128600" lon="4.822580"></trkpt>
      <trkpt lat="47.129250" lon="4.821260"></trkpt>
      <trkpt lat="47.130500" lon="4.818250"></trkpt>
      <trkpt lat="47.130660" lon="4.818000"></trkpt>
      <trkpt lat="47.130790" lon="4.817910"></trkpt>
      <trkpt lat="47.130910" lon="4.817870"></trkpt>
      <trkpt lat="47.131440" lon="4.817890"></trkpt>
      <trkpt lat="47.131630" lon="4.817870"></trkpt>
      <trkpt lat="47.131790" lon="4.817810"></trkpt>
      <trkpt lat="47.131930" lon="4.817720"></trkpt>
      <trkpt lat="47.132060" lon="4.817580"></trkpt>
      <trkpt lat="47.132260" lon="4.817310"></trkpt>
      <trkpt lat="47.132700" lon="4.816640"></trkpt>
      <trkpt lat="47.133220" lon="4.815780"></trkpt>
      <trkpt lat="47.133570" lon="4.815320"></trkpt>
      <trkpt lat="47.134810" lon="4.814140"></trkpt>
      <trkpt lat="47.135020" lon="4.813980"></trkpt>
      <trkpt lat="47.135210" lon="4.813900"></trkpt>
      <trkpt lat="47.135720" lon="4.813800"></trkpt>
      <trkpt lat="47.135860" lon="4.813750"></trkpt>
      <trkpt lat="47.135990" lon="4.813660"></trkpt>
      <trkpt lat="47.136210" lon="4.813430"></trkpt>
      <trkpt lat="47.136500" lon="4.812960"></trkpt>
      <trkpt lat="47.136650" lon="4.812670"></trkpt>
      <trkpt lat="47.137000" lon="4.811700"></trkpt>
      <trkpt lat="47.137130" lon="4.811190"></trkpt>
      <trkpt lat="47.137290" lon="4.810450"></trkpt>
      <trkpt lat="47.137540" lon="4.809090"></trkpt>
      <trkpt lat="47.137630" lon="4.808700"></trkpt>
      <trkpt lat="47.137760" lon="4.808480"></trkpt>
      <trkpt lat="47.137990" lon="4.808270"></trkpt>
      <trkpt lat="47.138120" lon="4.808100"></trkpt>
      <trkpt lat="47.138210" lon="4.807950"></trkpt>
      <trkpt lat="47.138320" lon="4.807590"></trkpt>
      <trkpt lat="47.138360" lon="4.807300"></trkpt>
      <trkpt lat="47.138370" lon="4.806790"></trkpt>
      <trkpt lat="47.138300" lon="4.805850"></trkpt>
      <trkpt lat="47.138220" lon="4.805460"></trkpt>
      <trkpt lat="47.137670" lon="4.803340"></trkpt>
      <trkpt lat="47.137480" lon="4.802470"></trkpt>
      <trkpt lat="47.137300" lon="4.801800"></trkpt>
      <trkpt lat="47.137220" lon="4.801370"></trkpt>
      <trkpt lat="47.137210" lon="4.800990"></trkpt>
      <trkpt lat="47.137290" lon="4.800580"></trkpt>
      <trkpt lat="47.137470" lon="4.800050"></trkpt>
      <trkpt lat="47.137910" lon="4.798580"></trkpt>
      <trkpt lat="47.138740" lon="4.795590"></trkpt>
      <trkpt lat="47.139590" lon="4.793680"></trkpt>
      <trkpt lat="47.139760" lon="4.793400"></trkpt>
      <trkpt lat="47.140100" lon="4.793000"></trkpt>
      <trkpt lat="47.141740" lon="4.791270"></trkpt>
      <trkpt lat="47.141980" lon="4.791040"></trkpt>
      <trkpt lat="47.142230" lon="4.790890"></trkpt>
      <trkpt lat="47.142670" lon="4.790670"></trkpt>
      <trkpt lat="47.142980" lon="4.790530"></trkpt>
      <trkpt lat="47.143160" lon="4.790480"></trkpt>
      <trkpt lat="47.143370" lon="4.790450"></trkpt>
      <trkpt lat="47.144080" lon="4.790470"></trkpt>
      <trkpt lat="47.144220" lon="4.790440"></trkpt>
      <trkpt lat="47.144540" lon="4.790280"></trkpt>
      <trkpt lat="47.145410" lon="4.789620"></trkpt>
      <trkpt lat="47.145560" lon="4.789480"></trkpt>
      <trkpt lat="47.145700" lon="4.789320"></trkpt>
      <trkpt lat="47.145910" lon="4.788950"></trkpt>
      <trkpt lat="47.146420" lon="4.787610"></trkpt>
      <trkpt lat="47.146780" lon="4.786790"></trkpt>
      <trkpt lat="47.146980" lon="4.786450"></trkpt>
      <trkpt lat="47.147230" lon="4.786110"></trkpt>
      <trkpt lat="47.147710" lon="4.785580"></trkpt>
      <trkpt lat="47.147720" lon="4.785750"></trkpt>
      <trkpt lat="47.148050" lon="4.787890"></trkpt>
      <trkpt lat="47.148190" lon="4.788360"></trkpt>
      <trkpt lat="47.148300" lon="4.788570"></trkpt>
      <trkpt lat="47.148410" lon="4.788700"></trkpt>
      <trkpt lat="47.148600" lon="4.788880"></trkpt>
      <trkpt lat="47.148840" lon="4.789010"></trkpt>
      <trkpt lat="47.149080" lon="4.789070"></trkpt>
      <trkpt lat="47.149310" lon="4.789090"></trkpt>
      <trkpt lat="47.149920" lon="4.789090"></trkpt>
      <trkpt lat="47.150250" lon="4.789160"></trkpt>
      <trkpt lat="47.150580" lon="4.789300"></trkpt>
      <trkpt lat="47.150770" lon="4.789480"></trkpt>
      <trkpt lat="47.150920" lon="4.789670"></trkpt>
      <trkpt lat="47.151030" lon="4.789900"></trkpt>
      <trkpt lat="47.152880" lon="4.795330"></trkpt>
      <trkpt lat="47.153040" lon="4.795710"></trkpt>
      <trkpt lat="47.153190" lon="4.795910"></trkpt>
      <trkpt lat="47.153480" lon="4.796180"></trkpt>
      <trkpt lat="47.153840" lon="4.796470"></trkpt>
      <trkpt lat="47.154040" lon="4.796670"></trkpt>
      <trkpt lat="47.154210" lon="4.796950"></trkpt>
      <trkpt lat="47.154480" lon="4.797530"></trkpt>
      <trkpt lat="47.154600" lon="4.797690"></trkpt>
      <trkpt lat="47.154680" lon="4.797740"></trkpt>
      <trkpt lat="47.154770" lon="4.797750"></trkpt>
      <trkpt lat="47.154880" lon="4.797730"></trkpt>
      <trkpt lat="47.155020" lon="4.797670"></trkpt>
      <trkpt lat="47.155470" lon="4.797420"></trkpt>
      <trkpt lat="47.155860" lon="4.797270"></trkpt>
      <trkpt lat="47.156020" lon="4.797240"></trkpt>
      <trkpt lat="47.156130" lon="4.797240"></trkpt>
      <trkpt lat="47.156230" lon="4.797280"></trkpt>
      <trkpt lat="47.156310" lon="4.797380"></trkpt>
      <trkpt lat="47.156370" lon="4.797520"></trkpt>
      <trkpt lat="47.156780" lon="4.797160"></trkpt>
      <trkpt lat="47.156880" lon="4.797090"></trkpt>
      <trkpt lat="47.157300" lon="4.797090"></trkpt>
      <trkpt lat="47.157750" lon="4.796980"></trkpt>
      <trkpt lat="47.158650" lon="4.796710"></trkpt>
      <trkpt lat="47.158870" lon="4.796630"></trkpt>
      <trkpt lat="47.161800" lon="4.796090"></trkpt>
      <trkpt lat="47.162040" lon="4.796090"></trkpt>
      <trkpt lat="47.162660" lon="4.796150"></trkpt>
      <trkpt lat="47.162870" lon="4.796010"></trkpt>
      <trkpt lat="47.163970" lon="4.794680"></trkpt>
      <trkpt lat="47.164280" lon="4.794170"></trkpt>
      <trkpt lat="47.164400" lon="4.794030"></trkpt>
      <trkpt lat="47.164520" lon="4.793930"></trkpt>
      <trkpt lat="47.164710" lon="4.793860"></trkpt>
      <trkpt lat="47.164950" lon="4.793910"></trkpt>
      <trkpt lat="47.165110" lon="4.794010"></trkpt>
      <trkpt lat="47.165710" lon="4.794500"></trkpt>
      <trkpt lat="47.165860" lon="4.794570"></trkpt>
      <trkpt lat="47.165950" lon="4.794580"></trkpt>
      <trkpt lat="47.166040" lon="4.794560"></trkpt>
      <trkpt lat="47.166170" lon="4.794460"></trkpt>
      <trkpt lat="47.167340" lon="4.793460"></trkpt>
      <trkpt lat="47.167480" lon="4.793360"></trkpt>
      <trkpt lat="47.167770" lon="4.793230"></trkpt>
      <trkpt lat="47.168810" lon="4.793180"></trkpt>
      <trkpt lat="47.169420" lon="4.793110"></trkpt>
      <trkpt lat="47.169500" lon="4.793090"></trkpt>
      <trkpt lat="47.169900" lon="4.792920"></trkpt>
      <trkpt lat="47.170220" lon="4.792700"></trkpt>
      <trkpt lat="47.170370" lon="4.792540"></trkpt>
      <trkpt lat="47.170740" lon="4.792030"></trkpt>
      <trkpt lat="47.170930" lon="4.791740"></trkpt>
      <trkpt lat="47.171270" lon="4.791100"></trkpt>
      <trkpt lat="47.171390" lon="4.790960"></trkpt>
      <trkpt lat="47.171510" lon="4.790860"></trkpt>
      <trkpt lat="47.171660" lon="4.790770"></trkpt>
      <trkpt lat="47.171890" lon="4.790710"></trkpt>
      <trkpt lat="47.172710" lon="4.790730"></trkpt>
      <trkpt lat="47.173170" lon="4.790770"></trkpt>
      <trkpt lat="47.173230" lon="4.790740"></trkpt>
      <trkpt lat="47.173260" lon="4.790660"></trkpt>
      <trkpt lat="47.173250" lon="4.790580"></trkpt>
      <trkpt lat="47.173150" lon="4.790390"></trkpt>
      <trkpt lat="47.172970" lon="4.790200"></trkpt>
      <trkpt lat="47.172550" lon="4.789880"></trkpt>
      <trkpt lat="47.172490" lon="4.789800"></trkpt>
      <trkpt lat="47.172480" lon="4.789640"></trkpt>
      <trkpt lat="47.172530" lon="4.789530"></trkpt>
      <trkpt lat="47.172620" lon="4.789440"></trkpt>
      <trkpt lat="47.174970" lon="4.787830"></trkpt>
      <trkpt lat="47.175310" lon="4.787670"></trkpt>
      <trkpt lat="47.175570" lon="4.787720"></trkpt>
      <trkpt lat="47.176210" lon="4.788030"></trkpt>
      <trkpt lat="47.176580" lon="4.788110"></trkpt>
      <trkpt lat="47.177180" lon="4.788080"></trkpt>
      <trkpt lat="47.177950" lon="4.787710"></trkpt>
      <trkpt lat="47.179510" lon="4.786670"></trkpt>
      <trkpt lat="47.179660" lon="4.786630"></trkpt>
      <trkpt lat="47.179970" lon="4.786620"></trkpt>
      <trkpt lat="47.180160" lon="4.786590"></trkpt>
      <trkpt lat="47.180450" lon="4.786470"></trkpt>
      <trkpt lat="47.182460" lon="4.784630"></trkpt>
      <trkpt lat="47.183040" lon="4.784220"></trkpt>
      <trkpt lat="47.183320" lon="4.784070"></trkpt>
      <trkpt lat="47.183660" lon="4.783990"></trkpt>
      <trkpt lat="47.183800" lon="4.783990"></trkpt>
      <trkpt lat="47.184320" lon="4.784130"></trkpt>
      <trkpt lat="47.184460" lon="4.784120"></trkpt>
      <trkpt lat="47.184530" lon="4.784090"></trkpt>
      <trkpt lat="47.184630" lon="4.783980"></trkpt>
      <trkpt lat="47.184760" lon="4.783760"></trkpt>
      <trkpt lat="47.185060" lon="4.782830"></trkpt>
      <trkpt lat="47.185250" lon="4.782540"></trkpt>
      <trkpt lat="47.185380" lon="4.782390"></trkpt>
      <trkpt lat="47.185600" lon="4.782190"></trkpt>
      <trkpt lat="47.185810" lon="4.782080"></trkpt>
      <trkpt lat="47.185990" lon="4.782060"></trkpt>
      <trkpt lat="47.186440" lon="4.782180"></trkpt>
      <trkpt lat="47.186690" lon="4.782060"></trkpt>
      <trkpt lat="47.186820" lon="4.781880"></trkpt>
      <trkpt lat="47.186990" lon="4.781470"></trkpt>
      <trkpt lat="47.187290" lon="4.780450"></trkpt>
      <trkpt lat="47.187540" lon="4.779370"></trkpt>
      <trkpt lat="47.187620" lon="4.779230"></trkpt>
      <trkpt lat="47.187700" lon="4.779170"></trkpt>
      <trkpt lat="47.187830" lon="4.779120"></trkpt>
      <trkpt lat="47.188130" lon="4.779200"></trkpt>
      <trkpt lat="47.188260" lon="4.779180"></trkpt>
      <trkpt lat="47.188430" lon="4.779050"></trkpt>
      <trkpt lat="47.189010" lon="4.778360"></trkpt>
      <trkpt lat="47.189150" lon="4.778020"></trkpt>
      <trkpt lat="47.189220" lon="4.777650"></trkpt>
      <trkpt lat="47.189290" lon="4.775860"></trkpt>
      <trkpt lat="47.189360" lon="4.775210"></trkpt>
      <trkpt lat="47.189790" lon="4.774050"></trkpt>
      <trkpt lat="47.190180" lon="4.773480"></trkpt>
      <trkpt lat="47.190300" lon="4.773150"></trkpt>
      <trkpt lat="47.190330" lon="4.772840"></trkpt>
      <trkpt lat="47.190300" lon="4.771900"></trkpt>
      <trkpt lat="47.190340" lon="4.771490"></trkpt>
      <trkpt lat="47.190470" lon="4.771060"></trkpt>
      <trkpt lat="47.190740" lon="4.770620"></trkpt>
      <trkpt lat="47.191190" lon="4.770340"></trkpt>
      <trkpt lat="47.191840" lon="4.770140"></trkpt>
      <trkpt lat="47.193390" lon="4.769370"></trkpt>
      <trkpt lat="47.193610" lon="4.769210"></trkpt>
      <trkpt lat="47.193670" lon="4.768990"></trkpt>
      <trkpt lat="47.193700" lon="4.768740"></trkpt>
      <trkpt lat="47.193600" lon="4.768360"></trkpt>
      <trkpt lat="47.193350" lon="4.767850"></trkpt>
      <trkpt lat="47.193220" lon="4.767320"></trkpt>
      <trkpt lat="47.193320" lon="4.766830"></trkpt>
      <trkpt lat="47.193450" lon="4.766470"></trkpt>
      <trkpt lat="47.194180" lon="4.765660"></trkpt>
      <trkpt lat="47.194650" lon="4.765250"></trkpt>
      <trkpt lat="47.195080" lon="4.765020"></trkpt>
      <trkpt lat="47.195870" lon="4.764710"></trkpt>
      <trkpt lat="47.196130" lon="4.764550"></trkpt>
      <trkpt lat="47.196390" lon="4.764320"></trkpt>
      <trkpt lat="47.197370" lon="4.763110"></trkpt>
      <trkpt lat="47.197760" lon="4.762720"></trkpt>
      <trkpt lat="47.199070" lon="4.761820"></trkpt>
      <trkpt lat="47.199290" lon="4.761490"></trkpt>
      <trkpt lat="47.199410" lon="4.760970"></trkpt>
      <trkpt lat="47.199450" lon="4.759590"></trkpt>
      <trkpt lat="47.199770" lon="4.758710"></trkpt>
      <trkpt lat="47.201020" lon="4.757350"></trkpt>
      <trkpt lat="47.201590" lon="4.757050"></trkpt>
      <trkpt lat="47.202700" lon="4.757050"></trkpt>
      <trkpt lat="47.203400" lon="4.757170"></trkpt>
      <trkpt lat="47.203990" lon="4.756960"></trkpt>
      <trkpt lat="47.206540" lon="4.753850"></trkpt>
      <trkpt lat="47.207040" lon="4.753620"></trkpt>
      <trkpt lat="47.207550" lon="4.753610"></trkpt>
      <trkpt lat="47.207810" lon="4.753480"></trkpt>
      <trkpt lat="47.207940" lon="4.753060"></trkpt>
      <trkpt lat="47.208040" lon="4.749740"></trkpt>
      <trkpt lat="47.208160" lon="4.749340"></trkpt>
      <trkpt lat="47.208370" lon="4.748950"></trkpt>
      <trkpt lat="47.208670" lon="4.748670"></trkpt>
      <trkpt lat="47.209510" lon="4.748120"></trkpt>
      <trkpt lat="47.209510" lon="4.748130"></trkpt>
      <trkpt lat="47.210510" lon="4.747770"></trkpt>
      <trkpt lat="47.211380" lon="4.747700"></trkpt>
      <trkpt lat="47.212300" lon="4.747720"></trkpt>
      <trkpt lat="47.212960" lon="4.747810"></trkpt>
      <trkpt lat="47.213400" lon="4.747810"></trkpt>
      <trkpt lat="47.214280" lon="4.747510"></trkpt>
      <trkpt lat="47.214570" lon="4.747320"></trkpt>
      <trkpt lat="47.217080" lon="4.745230"></trkpt>
      <trkpt lat="47.217710" lon="4.745820"></trkpt>
      <trkpt lat="47.218040" lon="4.745870"></trkpt>
      <trkpt lat="47.218310" lon="4.745860"></trkpt>
      <trkpt lat="47.219280" lon="4.745560"></trkpt>
      <trkpt lat="47.219840" lon="4.745520"></trkpt>
      <trkpt lat="47.220230" lon="4.745510"></trkpt>
      <trkpt lat="47.221490" lon="4.745710"></trkpt>
      <trkpt lat="47.222360" lon="4.746100"></trkpt>
      <trkpt lat="47.223210" lon="4.746560"></trkpt>
      <trkpt lat="47.225090" lon="4.746940"></trkpt>
      <trkpt lat="47.226080" lon="4.747430"></trkpt>
      <trkpt lat="47.226950" lon="4.747780"></trkpt>
      <trkpt lat="47.227650" lon="4.747860"></trkpt>
      <trkpt lat="47.228250" lon="4.747840"></trkpt>
      <trkpt lat="47.229560" lon="4.748120"></trkpt>
      <trkpt lat="47.230430" lon="4.748560"></trkpt>
      <trkpt lat="47.230930" lon="4.748870"></trkpt>
      <trkpt lat="47.231230" lon="4.749110"></trkpt>
      <trkpt lat="47.231600" lon="4.749600"></trkpt>
      <trkpt lat="47.231700" lon="4.749770"></trkpt>
      <trkpt lat="47.231810" lon="4.750120"></trkpt>
      <trkpt lat="47.231840" lon="4.750520"></trkpt>
      <trkpt lat="47.231700" lon="4.751430"></trkpt>
      <trkpt lat="47.231640" lon="4.751960"></trkpt>
      <trkpt lat="47.231650" lon="4.752990"></trkpt>
      <trkpt lat="47.231720" lon="4.753570"></trkpt>
      <trkpt lat="47.231690" lon="4.754000"></trkpt>
      <trkpt lat="47.231610" lon="4.754540"></trkpt>
      <trkpt lat="47.231400" lon="4.755380"></trkpt>
      <trkpt lat="47.231100" lon="4.756210"></trkpt>
      <trkpt lat="47.230980" lon="4.756720"></trkpt>
      <trkpt lat="47.230980" lon="4.756860"></trkpt>
      <trkpt lat="47.231030" lon="4.757050"></trkpt>
      <trkpt lat="47.231090" lon="4.757130"></trkpt>
      <trkpt lat="47.231160" lon="4.757180"></trkpt>
      <trkpt lat="47.231270" lon="4.757200"></trkpt>
      <trkpt lat="47.231350" lon="4.757170"></trkpt>
      <trkpt lat="47.231620" lon="4.757010"></trkpt>
      <trkpt lat="47.232280" lon="4.756540"></trkpt>
      <trkpt lat="47.232990" lon="4.756170"></trkpt>
      <trkpt lat="47.234010" lon="4.755960"></trkpt>
      <trkpt lat="47.234380" lon="4.756000"></trkpt>
      <trkpt lat="47.235090" lon="4.756370"></trkpt>
      <trkpt lat="47.235760" lon="4.756880"></trkpt>
      <trkpt lat="47.236390" lon="4.757480"></trkpt>
      <trkpt lat="47.236730" lon="4.757880"></trkpt>
      <trkpt lat="47.237140" lon="4.758170"></trkpt>
      <trkpt lat="47.237660" lon="4.758370"></trkpt>
      <trkpt lat="47.238430" lon="4.758560"></trkpt>
      <trkpt lat="47.239440" lon="4.758650"></trkpt>
      <trkpt lat="47.239890" lon="4.758560"></trkpt>
      <trkpt lat="47.240410" lon="4.758430"></trkpt>
      <trkpt lat="47.240990" lon="4.758520"></trkpt>
      <trkpt lat="47.241650" lon="4.758700"></trkpt>
      <trkpt lat="47.242400" lon="4.758850"></trkpt>
      <trkpt lat="47.243070" lon="4.759190"></trkpt>
      <trkpt lat="47.243860" lon="4.759500"></trkpt>
      <trkpt lat="47.244660" lon="4.759500"></trkpt>
      <trkpt lat="47.245390" lon="4.759620"></trkpt>
      <trkpt lat="47.246230" lon="4.759520"></trkpt>
      <trkpt lat="47.246730" lon="4.759230"></trkpt>
      <trkpt lat="47.247300" lon="4.758820"></trkpt>
      <trkpt lat="47.247580" lon="4.758570"></trkpt>
      <trkpt lat="47.247670" lon="4.758460"></trkpt>
      <trkpt lat="47.247950" lon="4.757890"></trkpt>
      <trkpt lat="47.248090" lon="4.757030"></trkpt>
      <trkpt lat="47.248720" lon="4.757230"></trkpt>
      <trkpt lat="47.248870" lon="4.757310"></trkpt>
      <trkpt lat="47.249190" lon="4.757510"></trkpt>
      <trkpt lat="47.249530" lon="4.757860"></trkpt>
      <trkpt lat="47.249770" lon="4.758250"></trkpt>
      <trkpt lat="47.249930" lon="4.758680"></trkpt>
      <trkpt lat="47.250410" lon="4.760210"></trkpt>
      <trkpt lat="47.250540" lon="4.760540"></trkpt>
      <trkpt lat="47.250660" lon="4.760770"></trkpt>
      <trkpt lat="47.250860" lon="4.761040"></trkpt>
      <trkpt lat="47.251250" lon="4.761470"></trkpt>
      <trkpt lat="47.251900" lon="4.762110"></trkpt>
      <trkpt lat="47.252180" lon="4.762270"></trkpt>
      <trkpt lat="47.252310" lon="4.762310"></trkpt>
      <trkpt lat="47.252580" lon="4.762340"></trkpt>
      <trkpt lat="47.254620" lon="4.762220"></trkpt>
      <trkpt lat="47.256950" lon="4.761830"></trkpt>
      <trkpt lat="47.257150" lon="4.761820"></trkpt>
      <trkpt lat="47.257480" lon="4.761850"></trkpt>
      <trkpt lat="47.257640" lon="4.761900"></trkpt>
      <trkpt lat="47.258310" lon="4.762190"></trkpt>
      <trkpt lat="47.258660" lon="4.762380"></trkpt>
      <trkpt lat="47.258650" lon="4.762370"></trkpt>
      <trkpt lat="47.259120" lon="4.762680"></trkpt>
      <trkpt lat="47.259460" lon="4.762980"></trkpt>
      <trkpt lat="47.259720" lon="4.763340"></trkpt>
      <trkpt lat="47.261510" lon="4.766570"></trkpt>
      <trkpt lat="47.261780" lon="4.767100"></trkpt>
      <trkpt lat="47.262430" lon="4.768830"></trkpt>
      <trkpt lat="47.262930" lon="4.770280"></trkpt>
      <trkpt lat="47.262990" lon="4.770650"></trkpt>
      <trkpt lat="47.263050" lon="4.771880"></trkpt>
      <trkpt lat="47.263110" lon="4.772350"></trkpt>
      <trkpt lat="47.263240" lon="4.772770"></trkpt>
      <trkpt lat="47.263340" lon="4.773030"></trkpt>
      <trkpt lat="47.263740" lon="4.773800"></trkpt>
      <trkpt lat="47.263850" lon="4.774050"></trkpt>
      <trkpt lat="47.263970" lon="4.774420"></trkpt>
      <trkpt lat="47.264050" lon="4.774770"></trkpt>
      <trkpt lat="47.264330" lon="4.776530"></trkpt>
      <trkpt lat="47.264450" lon="4.776990"></trkpt>
      <trkpt lat="47.264540" lon="4.777220"></trkpt>
      <trkpt lat="47.265310" lon="4.778640"></trkpt>
      <trkpt lat="47.265620" lon="4.779060"></trkpt>
      <trkpt lat="47.266020" lon="4.779470"></trkpt>
      <trkpt lat="47.266370" lon="4.779780"></trkpt>
      <trkpt lat="47.266700" lon="4.779990"></trkpt>
      <trkpt lat="47.267620" lon="4.780510"></trkpt>
      <trkpt lat="47.267820" lon="4.780590"></trkpt>
      <trkpt lat="47.268070" lon="4.780650"></trkpt>
      <trkpt lat="47.269600" lon="4.780910"></trkpt>
      <trkpt lat="47.269900" lon="4.780950"></trkpt>
      <trkpt lat="47.270060" lon="4.780950"></trkpt>
      <trkpt lat="47.270200" lon="4.780930"></trkpt>
      <trkpt lat="47.270480" lon="4.780830"></trkpt>
      <trkpt lat="47.270910" lon="4.780610"></trkpt>
      <trkpt lat="47.274540" lon="4.778620"></trkpt>
      <trkpt lat="47.274750" lon="4.778530"></trkpt>
      <trkpt lat="47.275020" lon="4.778460"></trkpt>
      <trkpt lat="47.275330" lon="4.778470"></trkpt>
      <trkpt lat="47.275570" lon="4.778530"></trkpt>
      <trkpt lat="47.275840" lon="4.778640"></trkpt>
      <trkpt lat="47.275970" lon="4.778710"></trkpt>
      <trkpt lat="47.276150" lon="4.778840"></trkpt>
      <trkpt lat="47.276310" lon="4.779000"></trkpt>
      <trkpt lat="47.276470" lon="4.779240"></trkpt>
      <trkpt lat="47.276590" lon="4.779510"></trkpt>
      <trkpt lat="47.276720" lon="4.779920"></trkpt>
      <trkpt lat="47.277360" lon="4.782320"></trkpt>
      <trkpt lat="47.277520" lon="4.782790"></trkpt>
      <trkpt lat="47.277810" lon="4.783480"></trkpt>
      <trkpt lat="47.279630" lon="4.787410"></trkpt>
      <trkpt lat="47.279850" lon="4.787850"></trkpt>
      <trkpt lat="47.280080" lon="4.788130"></trkpt>
      <trkpt lat="47.280220" lon="4.788230"></trkpt>
      <trkpt lat="47.280420" lon="4.788320"></trkpt>
      <trkpt lat="47.280620" lon="4.788330"></trkpt>
      <trkpt lat="47.280800" lon="4.788270"></trkpt>
      <trkpt lat="47.282370" lon="4.787470"></trkpt>
      <trkpt lat="47.282740" lon="4.787330"></trkpt>
      <trkpt lat="47.283920" lon="4.787180"></trkpt>
      <trkpt lat="47.284080" lon="4.787200"></trkpt>
      <trkpt lat="47.284230" lon="4.787240"></trkpt>
      <trkpt lat="47.284400" lon="4.787320"></trkpt>
      <trkpt lat="47.284520" lon="4.787410"></trkpt>
      <trkpt lat="47.285720" lon="4.788540"></trkpt>
      <trkpt lat="47.285820" lon="4.788660"></trkpt>
      <trkpt lat="47.285990" lon="4.788960"></trkpt>
      <trkpt lat="47.286100" lon="4.789210"></trkpt>
      <trkpt lat="47.286430" lon="4.790770"></trkpt>
      <trkpt lat="47.286510" lon="4.791220"></trkpt>
      <trkpt lat="47.286530" lon="4.791540"></trkpt>
      <trkpt lat="47.286480" lon="4.792050"></trkpt>
      <trkpt lat="47.286370" lon="4.792460"></trkpt>
      <trkpt lat="47.285880" lon="4.793910"></trkpt>
      <trkpt lat="47.285690" lon="4.794380"></trkpt>
      <trkpt lat="47.285640" lon="4.794590"></trkpt>
      <trkpt lat="47.285700" lon="4.794660"></trkpt>
      <trkpt lat="47.286330" lon="4.795160"></trkpt>
      <trkpt lat="47.286410" lon="4.795250"></trkpt>
      <trkpt lat="47.286390" lon="4.795290"></trkpt>
      <trkpt lat="47.286380" lon="4.795490"></trkpt>
      <trkpt lat="47.286450" lon="4.796140"></trkpt>
      <trkpt lat="47.286490" lon="4.796320"></trkpt>
      <trkpt lat="47.286460" lon="4.797000"></trkpt>
      <trkpt lat="47.286350" lon="4.798100"></trkpt>
      <trkpt lat="47.286410" lon="4.798370"></trkpt>
      <trkpt lat="47.286570" lon="4.798620"></trkpt>
      <trkpt lat="47.286950" lon="4.798810"></trkpt>
      <trkpt lat="47.287460" lon="4.799100"></trkpt>
      <trkpt lat="47.287760" lon="4.799370"></trkpt>
      <trkpt lat="47.288410" lon="4.799870"></trkpt>
      <trkpt lat="47.288810" lon="4.800120"></trkpt>
      <trkpt lat="47.289000" lon="4.800200"></trkpt>
      <trkpt lat="47.289980" lon="4.800450"></trkpt>
      <trkpt lat="47.290660" lon="4.800720"></trkpt>
      <trkpt lat="47.290960" lon="4.800870"></trkpt>
      <trkpt lat="47.291220" lon="4.801040"></trkpt>
      <trkpt lat="47.291470" lon="4.801230"></trkpt>
      <trkpt lat="47.292050" lon="4.801880"></trkpt>
      <trkpt lat="47.292370" lon="4.802360"></trkpt>
      <trkpt lat="47.292920" lon="4.803710"></trkpt>
      <trkpt lat="47.293090" lon="4.803980"></trkpt>
      <trkpt lat="47.293350" lon="4.804310"></trkpt>
      <trkpt lat="47.294190" lon="4.805290"></trkpt>
      <trkpt lat="47.294560" lon="4.805840"></trkpt>
      <trkpt lat="47.294860" lon="4.806320"></trkpt>
      <trkpt lat="47.295030" lon="4.806550"></trkpt>
      <trkpt lat="47.295180" lon="4.806690"></trkpt>
      <trkpt lat="47.295330" lon="4.806800"></trkpt>
      <trkpt lat="47.295850" lon="4.807110"></trkpt>
      <trkpt lat="47.296750" lon="4.807490"></trkpt>
      <trkpt lat="47.296930" lon="4.807590"></trkpt>
      <trkpt lat="47.297000" lon="4.807570"></trkpt>
      <trkpt lat="47.296960" lon="4.807930"></trkpt>
      <trkpt lat="47.296750" lon="4.809150"></trkpt>
      <trkpt lat="47.296690" lon="4.809750"></trkpt>
      <trkpt lat="47.296530" lon="4.810770"></trkpt>
      <trkpt lat="47.296500" lon="4.811300"></trkpt>
      <trkpt lat="47.296520" lon="4.811690"></trkpt>
      <trkpt lat="47.296560" lon="4.812030"></trkpt>
      <trkpt lat="47.296790" lon="4.813540"></trkpt>
      <trkpt lat="47.296920" lon="4.814600"></trkpt>
      <trkpt lat="47.297900" lon="4.814820"></trkpt>
      <trkpt lat="47.298130" lon="4.814930"></trkpt>
      <trkpt lat="47.298300" lon="4.815120"></trkpt>
      <trkpt lat="47.298430" lon="4.815400"></trkpt>
      <trkpt lat="47.298760" lon="4.816390"></trkpt>
      <trkpt lat="47.298850" lon="4.817060"></trkpt>
      <trkpt lat="47.300450" lon="4.823050"></trkpt>
      <trkpt lat="47.300560" lon="4.823330"></trkpt>
      <trkpt lat="47.301030" lon="4.824220"></trkpt>
      <trkpt lat="47.301120" lon="4.824420"></trkpt>
      <trkpt lat="47.301460" lon="4.825010"></trkpt>
      <trkpt lat="47.301600" lon="4.825120"></trkpt>
      <trkpt lat="47.301700" lon="4.825260"></trkpt>
      <trkpt lat="47.302440" lon="4.826460"></trkpt>
      <trkpt lat="47.302640" lon="4.826900"></trkpt>
      <trkpt lat="47.302760" lon="4.827350"></trkpt>
      <trkpt lat="47.302980" lon="4.828470"></trkpt>
      <trkpt lat="47.303230" lon="4.828800"></trkpt>
      <trkpt lat="47.303330" lon="4.829190"></trkpt>
      <trkpt lat="47.303430" lon="4.829730"></trkpt>
      <trkpt lat="47.303350" lon="4.830410"></trkpt>
      <trkpt lat="47.303490" lon="4.831090"></trkpt>
      <trkpt lat="47.304210" lon="4.833780"></trkpt>
      <trkpt lat="47.304790" lon="4.835840"></trkpt>
      <trkpt lat="47.304920" lon="4.836200"></trkpt>
      <trkpt lat="47.305410" lon="4.837290"></trkpt>
      <trkpt lat="47.305560" lon="4.837660"></trkpt>
      <trkpt lat="47.305640" lon="4.837810"></trkpt>
      <trkpt lat="47.305730" lon="4.837930"></trkpt>
      <trkpt lat="47.309760" lon="4.846520"></trkpt>
      <trkpt lat="47.309890" lon="4.846570"></trkpt>
      <trkpt lat="47.310000" lon="4.846660"></trkpt>
      <trkpt lat="47.310180" lon="4.846910"></trkpt>
      <trkpt lat="47.310340" lon="4.847220"></trkpt>
      <trkpt lat="47.310430" lon="4.847620"></trkpt>
      <trkpt lat="47.310520" lon="4.848160"></trkpt>
      <trkpt lat="47.312770" lon="4.852940"></trkpt>
      <trkpt lat="47.312890" lon="4.853230"></trkpt>
      <trkpt lat="47.313600" lon="4.857680"></trkpt>
      <trkpt lat="47.313860" lon="4.859630"></trkpt>
      <trkpt lat="47.314020" lon="4.861280"></trkpt>
      <trkpt lat="47.314020" lon="4.861800"></trkpt>
      <trkpt lat="47.313970" lon="4.862050"></trkpt>
      <trkpt lat="47.313860" lon="4.862370"></trkpt>
      <trkpt lat="47.312730" lon="4.865180"></trkpt>
      <trkpt lat="47.312460" lon="4.865780"></trkpt>
      <trkpt lat="47.312080" lon="4.866290"></trkpt>
      <trkpt lat="47.311830" lon="4.866580"></trkpt>
      <trkpt lat="47.311600" lon="4.866930"></trkpt>
      <trkpt lat="47.310620" lon="4.868300"></trkpt>
      <trkpt lat="47.310500" lon="4.868560"></trkpt>
      <trkpt lat="47.310460" lon="4.868690"></trkpt>
      <trkpt lat="47.310390" lon="4.869120"></trkpt>
      <trkpt lat="47.310360" lon="4.869670"></trkpt>
      <trkpt lat="47.310300" lon="4.874430"></trkpt>
      <trkpt lat="47.310280" lon="4.874720"></trkpt>
      <trkpt lat="47.310320" lon="4.875430"></trkpt>
      <trkpt lat="47.310390" lon="4.875930"></trkpt>
      <trkpt lat="47.311860" lon="4.883210"></trkpt>
      <trkpt lat="47.312120" lon="4.883940"></trkpt>
      <trkpt lat="47.312260" lon="4.884130"></trkpt>
      <trkpt lat="47.312440" lon="4.884300"></trkpt>
      <trkpt lat="47.312640" lon="4.884600"></trkpt>
      <trkpt lat="47.312780" lon="4.884980"></trkpt>
      <trkpt lat="47.312830" lon="4.885190"></trkpt>
      <trkpt lat="47.312850" lon="4.885400"></trkpt>
      <trkpt lat="47.314320" lon="4.888050"></trkpt>
      <trkpt lat="47.314450" lon="4.888300"></trkpt>
      <trkpt lat="47.314590" lon="4.888680"></trkpt>
      <trkpt lat="47.314660" lon="4.888920"></trkpt>
      <trkpt lat="47.315720" lon="4.894140"></trkpt>
      <trkpt lat="47.315830" lon="4.894820"></trkpt>
      <trkpt lat="47.315860" lon="4.895200"></trkpt>
      <trkpt lat="47.315840" lon="4.895630"></trkpt>
      <trkpt lat="47.315780" lon="4.896180"></trkpt>
      <trkpt lat="47.315800" lon="4.896330"></trkpt>
      <trkpt lat="47.315910" lon="4.896650"></trkpt>
      <trkpt lat="47.315920" lon="4.896760"></trkpt>
      <trkpt lat="47.315860" lon="4.897310"></trkpt>
      <trkpt lat="47.315690" lon="4.897680"></trkpt>
      <trkpt lat="47.315640" lon="4.897950"></trkpt>
      <trkpt lat="47.315570" lon="4.898990"></trkpt>
      <trkpt lat="47.315180" lon="4.902760"></trkpt>
      <trkpt lat="47.315160" lon="4.903090"></trkpt>
      <trkpt lat="47.315170" lon="4.903420"></trkpt>
      <trkpt lat="47.315230" lon="4.903900"></trkpt>
      <trkpt lat="47.315340" lon="4.904370"></trkpt>
      <trkpt lat="47.315490" lon="4.904890"></trkpt>
      <trkpt lat="47.316280" lon="4.907100"></trkpt>
      <trkpt lat="47.316580" lon="4.907830"></trkpt>
      <trkpt lat="47.317050" lon="4.908740"></trkpt>
      <trkpt lat="47.317380" lon="4.909330"></trkpt>
      <trkpt lat="47.317530" lon="4.909530"></trkpt>
      <trkpt lat="47.317900" lon="4.909920"></trkpt>
      <trkpt lat="47.318020" lon="4.910010"></trkpt>
      <trkpt lat="47.318200" lon="4.910080"></trkpt>
      <trkpt lat="47.318330" lon="4.910170"></trkpt>
      <trkpt lat="47.318450" lon="4.910290"></trkpt>
      <trkpt lat="47.318380" lon="4.910590"></trkpt>
      <trkpt lat="47.318180" lon="4.911070"></trkpt>
      <trkpt lat="47.318180" lon="4.911170"></trkpt>
      <trkpt lat="47.318210" lon="4.911340"></trkpt>
      <trkpt lat="47.318240" lon="4.911420"></trkpt>
      <trkpt lat="47.319510" lon="4.913780"></trkpt>
      <trkpt lat="47.319560" lon="4.913930"></trkpt>
      <trkpt lat="47.319590" lon="4.914110"></trkpt>
      <trkpt lat="47.319580" lon="4.914260"></trkpt>
      <trkpt lat="47.319540" lon="4.914400"></trkpt>
      <trkpt lat="47.319460" lon="4.914550"></trkpt>
      <trkpt lat="47.319340" lon="4.914650"></trkpt>
      <trkpt lat="47.317470" lon="4.915440"></trkpt>
      <trkpt lat="47.317360" lon="4.915510"></trkpt>
      <trkpt lat="47.317300" lon="4.915740"></trkpt>
      <trkpt lat="47.317300" lon="4.915880"></trkpt>
      <trkpt lat="47.317410" lon="4.916620"></trkpt>
      <trkpt lat="47.317380" lon="4.919370"></trkpt>
      <trkpt lat="47.317450" lon="4.923290"></trkpt>
      <trkpt lat="47.317450" lon="4.924120"></trkpt>
      <trkpt lat="47.317440" lon="4.924230"></trkpt>
      <trkpt lat="47.317390" lon="4.924340"></trkpt>
      <trkpt lat="47.317330" lon="4.924390"></trkpt>
      <trkpt lat="47.317290" lon="4.924390"></trkpt>
      <trkpt lat="47.317210" lon="4.924290"></trkpt>
      <trkpt lat="47.317180" lon="4.924220"></trkpt>
      <trkpt lat="47.317040" lon="4.923600"></trkpt>
      <trkpt lat="47.316970" lon="4.923410"></trkpt>
      <trkpt lat="47.316860" lon="4.923180"></trkpt>
      <trkpt lat="47.316160" lon="4.922010"></trkpt>
      <trkpt lat="47.315960" lon="4.921740"></trkpt>
      <trkpt lat="47.315780" lon="4.921610"></trkpt>
      <trkpt lat="47.315580" lon="4.921510"></trkpt>
      <trkpt lat="47.315250" lon="4.921410"></trkpt>
      <trkpt lat="47.315170" lon="4.921410"></trkpt>
      <trkpt lat="47.315010" lon="4.921480"></trkpt>
      <trkpt lat="47.314910" lon="4.921560"></trkpt>
      <trkpt lat="47.313910" lon="4.922600"></trkpt>
      <trkpt lat="47.312890" lon="4.923880"></trkpt>
      <trkpt lat="47.312720" lon="4.924160"></trkpt>
      <trkpt lat="47.311720" lon="4.926470"></trkpt>
      <trkpt lat="47.311550" lon="4.926810"></trkpt>
      <trkpt lat="47.311480" lon="4.926900"></trkpt>
      <trkpt lat="47.311300" lon="4.927060"></trkpt>
      <trkpt lat="47.310890" lon="4.927270"></trkpt>
      <trkpt lat="47.310770" lon="4.927420"></trkpt>
      <trkpt lat="47.310680" lon="4.927740"></trkpt>
      <trkpt lat="47.310680" lon="4.927980"></trkpt>
      <trkpt lat="47.310700" lon="4.928140"></trkpt>
      <trkpt lat="47.310760" lon="4.928420"></trkpt>
      <trkpt lat="47.311240" lon="4.930150"></trkpt>
      <trkpt lat="47.311270" lon="4.930360"></trkpt>
      <trkpt lat="47.311240" lon="4.930520"></trkpt>
      <trkpt lat="47.311150" lon="4.930570"></trkpt>
      <trkpt lat="47.311100" lon="4.930570"></trkpt>
      <trkpt lat="47.311050" lon="4.930540"></trkpt>
      <trkpt lat="47.310820" lon="4.930300"></trkpt>
      <trkpt lat="47.310690" lon="4.930240"></trkpt>
      <trkpt lat="47.310620" lon="4.930250"></trkpt>
      <trkpt lat="47.310480" lon="4.930360"></trkpt>
      <trkpt lat="47.310420" lon="4.930500"></trkpt>
      <trkpt lat="47.309970" lon="4.932080"></trkpt>
      <trkpt lat="47.309840" lon="4.932440"></trkpt>
      <trkpt lat="47.309690" lon="4.932750"></trkpt>
      <trkpt lat="47.309130" lon="4.933560"></trkpt>
      <trkpt lat="47.308130" lon="4.934840"></trkpt>
      <trkpt lat="47.308010" lon="4.934970"></trkpt>
      <trkpt lat="47.307840" lon="4.935120"></trkpt>
      <trkpt lat="47.307580" lon="4.935290"></trkpt>
      <trkpt lat="47.306320" lon="4.935890"></trkpt>
      <trkpt lat="47.305940" lon="4.936100"></trkpt>
      <trkpt lat="47.305600" lon="4.936330"></trkpt>
      <trkpt lat="47.304450" lon="4.937470"></trkpt>
      <trkpt lat="47.304200" lon="4.937690"></trkpt>
      <trkpt lat="47.303860" lon="4.937900"></trkpt>
      <trkpt lat="47.303640" lon="4.937980"></trkpt>
      <trkpt lat="47.303250" lon="4.938030"></trkpt>
      <trkpt lat="47.302760" lon="4.938070"></trkpt>
      <trkpt lat="47.302330" lon="4.938130"></trkpt>
      <trkpt lat="47.302010" lon="4.938230"></trkpt>
      <trkpt lat="47.301680" lon="4.938400"></trkpt>
      <trkpt lat="47.301160" lon="4.938780"></trkpt>
      <trkpt lat="47.300840" lon="4.939070"></trkpt>
      <trkpt lat="47.300240" lon="4.939660"></trkpt>
      <trkpt lat="47.300060" lon="4.939800"></trkpt>
      <trkpt lat="47.299800" lon="4.939960"></trkpt>
      <trkpt lat="47.299560" lon="4.940050"></trkpt>
      <trkpt lat="47.299230" lon="4.940120"></trkpt>
      <trkpt lat="47.298870" lon="4.940150"></trkpt>
      <trkpt lat="47.298190" lon="4.940160"></trkpt>
      <trkpt lat="47.298010" lon="4.940190"></trkpt>
      <trkpt lat="47.297800" lon="4.940280"></trkpt>
      <trkpt lat="47.297470" lon="4.940540"></trkpt>
      <trkpt lat="47.297260" lon="4.940850"></trkpt>
      <trkpt lat="47.297120" lon="4.941130"></trkpt>
      <trkpt lat="47.297010" lon="4.941480"></trkpt>
      <trkpt lat="47.296180" lon="4.945060"></trkpt>
      <trkpt lat="47.297010" lon="4.941480"></trkpt>
      <trkpt lat="47.297120" lon="4.941130"></trkpt>
      <trkpt lat="47.297260" lon="4.940850"></trkpt>
      <trkpt lat="47.297470" lon="4.940540"></trkpt>
      <trkpt lat="47.297800" lon="4.940280"></trkpt>
      <trkpt lat="47.298010" lon="4.940190"></trkpt>
      <trkpt lat="47.298190" lon="4.940160"></trkpt>
      <trkpt lat="47.298870" lon="4.940150"></trkpt>
      <trkpt lat="47.299230" lon="4.940120"></trkpt>
      <trkpt lat="47.299560" lon="4.940050"></trkpt>
      <trkpt lat="47.299800" lon="4.939960"></trkpt>
      <trkpt lat="47.300060" lon="4.939800"></trkpt>
      <trkpt lat="47.300240" lon="4.939660"></trkpt>
      <trkpt lat="47.300840" lon="4.939070"></trkpt>
      <trkpt lat="47.301160" lon="4.938780"></trkpt>
      <trkpt lat="47.301550" lon="4.939000"></trkpt>
      <trkpt lat="47.302120" lon="4.939420"></trkpt>
      <trkpt lat="47.302630" lon="4.939850"></trkpt>
      <trkpt lat="47.302850" lon="4.939990"></trkpt>
      <trkpt lat="47.303050" lon="4.940090"></trkpt>
      <trkpt lat="47.303580" lon="4.940280"></trkpt>
      <trkpt lat="47.304530" lon="4.940550"></trkpt>
      <trkpt lat="47.304760" lon="4.940600"></trkpt>
      <trkpt lat="47.305760" lon="4.940660"></trkpt>
      <trkpt lat="47.306070" lon="4.940640"></trkpt>
      <trkpt lat="47.306580" lon="4.940580"></trkpt>
      <trkpt lat="47.307500" lon="4.940410"></trkpt>
      <trkpt lat="47.308360" lon="4.940190"></trkpt>
      <trkpt lat="47.308200" lon="4.941440"></trkpt>
      <trkpt lat="47.308110" lon="4.941750"></trkpt>
      <trkpt lat="47.307970" lon="4.942120"></trkpt>
      <trkpt lat="47.307560" lon="4.942920"></trkpt>
      <trkpt lat="47.307180" lon="4.943790"></trkpt>
      <trkpt lat="47.307020" lon="4.944380"></trkpt>
      <trkpt lat="47.306860" lon="4.944720"></trkpt>
      <trkpt lat="47.306830" lon="4.945270"></trkpt>
      <trkpt lat="47.306770" lon="4.945550"></trkpt>
      <trkpt lat="47.306520" lon="4.946220"></trkpt>
      <trkpt lat="47.306580" lon="4.946440"></trkpt>
      <trkpt lat="47.306690" lon="4.946570"></trkpt>
      <trkpt lat="47.306720" lon="4.946720"></trkpt>
      <trkpt lat="47.306600" lon="4.947170"></trkpt>
      <trkpt lat="47.306680" lon="4.947640"></trkpt>
      <trkpt lat="47.306880" lon="4.948030"></trkpt>
      <trkpt lat="47.306910" lon="4.948250"></trkpt>
      <trkpt lat="47.306870" lon="4.948340"></trkpt>
      <trkpt lat="47.306950" lon="4.948410"></trkpt>
      <trkpt lat="47.307030" lon="4.948530"></trkpt>
      <trkpt lat="47.307060" lon="4.948700"></trkpt>
      <trkpt lat="47.307090" lon="4.948770"></trkpt>
      <trkpt lat="47.307260" lon="4.949010"></trkpt>
      <trkpt lat="47.307450" lon="4.948560"></trkpt>
      <trkpt lat="47.307370" lon="4.947900"></trkpt>
      <trkpt lat="47.307310" lon="4.947650"></trkpt>
      <trkpt lat="47.307400" lon="4.947600"></trkpt>
      <trkpt lat="47.307500" lon="4.947620"></trkpt>
      <trkpt lat="47.307610" lon="4.947610"></trkpt>
    </trkseg>
  </trk>
</gpx>
