<?xml version="1.0" encoding="UTF-8"?>
<gpx creator="Alps 2026 Race Center" version="1.1" xmlns="http://www.topografix.com/GPX/1/1" xmlns:xsi="http://www.w3.org/2001/XMLSchema-instance" xsi:schemaLocation="http://www.topografix.com/GPX/1/1 http://www.topografix.com/GPX/1/1/gpx.xsd">
  <metadata><name>Dag 3 — Croix de Fer + Glandon</name></metadata>
  <trk>
    <name>Dag 3 — Croix de Fer + Glandon</name>
    <trkseg>
      <trkpt lat="45.054920" lon="6.028450"></trkpt>
      <trkpt lat="45.055210" lon="6.028100"></trkpt>
      <trkpt lat="45.055680" lon="6.028960"></trkpt>
      <trkpt lat="45.055950" lon="6.029630"></trkpt>
      <trkpt lat="45.056280" lon="6.029580"></trkpt>
      <trkpt lat="45.056830" lon="6.029450"></trkpt>
      <trkpt lat="45.057230" lon="6.029260"></trkpt>
      <trkpt lat="45.057360" lon="6.029260"></trkpt>
      <trkpt lat="45.057520" lon="6.029190"></trkpt>
      <trkpt lat="45.059790" lon="6.027450"></trkpt>
      <trkpt lat="45.060180" lon="6.027190"></trkpt>
      <trkpt lat="45.060960" lon="6.026590"></trkpt>
      <trkpt lat="45.061110" lon="6.026450"></trkpt>
      <trkpt lat="45.061160" lon="6.026460"></trkpt>
      <trkpt lat="45.061230" lon="6.026540"></trkpt>
      <trkpt lat="45.061280" lon="6.026460"></trkpt>
      <trkpt lat="45.061650" lon="6.026190"></trkpt>
      <trkpt lat="45.061730" lon="6.026000"></trkpt>
      <trkpt lat="45.062200" lon="6.025660"></trkpt>
      <trkpt lat="45.062270" lon="6.025670"></trkpt>
      <trkpt lat="45.062320" lon="6.025850"></trkpt>
      <trkpt lat="45.062390" lon="6.025830"></trkpt>
      <trkpt lat="45.062360" lon="6.025620"></trkpt>
      <trkpt lat="45.062300" lon="6.025480"></trkpt>
      <trkpt lat="45.063070" lon="6.024900"></trkpt>
      <trkpt lat="45.063230" lon="6.024850"></trkpt>
      <trkpt lat="45.063440" lon="6.024810"></trkpt>
      <trkpt lat="45.063520" lon="6.024880"></trkpt>
      <trkpt lat="45.063600" lon="6.024900"></trkpt>
      <trkpt lat="45.063680" lon="6.024860"></trkpt>
      <trkpt lat="45.063740" lon="6.024790"></trkpt>
      <trkpt lat="45.063770" lon="6.024570"></trkpt>
      <trkpt lat="45.063960" lon="6.024230"></trkpt>
      <trkpt lat="45.065840" lon="6.022780"></trkpt>
      <trkpt lat="45.066970" lon="6.021940"></trkpt>
      <trkpt lat="45.068720" lon="6.020570"></trkpt>
      <trkpt lat="45.069920" lon="6.019670"></trkpt>
      <trkpt lat="45.071150" lon="6.018800"></trkpt>
      <trkpt lat="45.072260" lon="6.017920"></trkpt>
      <trkpt lat="45.073590" lon="6.016830"></trkpt>
      <trkpt lat="45.075590" lon="6.015280"></trkpt>
      <trkpt lat="45.076020" lon="6.014970"></trkpt>
      <trkpt lat="45.076370" lon="6.014770"></trkpt>
      <trkpt lat="45.076680" lon="6.014680"></trkpt>
      <trkpt lat="45.088960" lon="6.011770"></trkpt>
      <trkpt lat="45.089900" lon="6.011570"></trkpt>
      <trkpt lat="45.090250" lon="6.011560"></trkpt>
      <trkpt lat="45.090370" lon="6.011540"></trkpt>
      <trkpt lat="45.090780" lon="6.011340"></trkpt>
      <trkpt lat="45.092410" lon="6.010970"></trkpt>
      <trkpt lat="45.093470" lon="6.010700"></trkpt>
      <trkpt lat="45.097020" lon="6.009870"></trkpt>
      <trkpt lat="45.097230" lon="6.009790"></trkpt>
      <trkpt lat="45.097460" lon="6.009630"></trkpt>
      <trkpt lat="45.097630" lon="6.009560"></trkpt>
      <trkpt lat="45.097760" lon="6.009550"></trkpt>
      <trkpt lat="45.098130" lon="6.009580"></trkpt>
      <trkpt lat="45.098410" lon="6.009540"></trkpt>
      <trkpt lat="45.113660" lon="6.005940"></trkpt>
      <trkpt lat="45.113780" lon="6.005900"></trkpt>
      <trkpt lat="45.113940" lon="6.005810"></trkpt>
      <trkpt lat="45.114190" lon="6.005610"></trkpt>
      <trkpt lat="45.114320" lon="6.005880"></trkpt>
      <trkpt lat="45.114400" lon="6.006460"></trkpt>
      <trkpt lat="45.114940" lon="6.011860"></trkpt>
      <trkpt lat="45.115000" lon="6.012140"></trkpt>
      <trkpt lat="45.115110" lon="6.012490"></trkpt>
      <trkpt lat="45.115230" lon="6.012740"></trkpt>
      <trkpt lat="45.115360" lon="6.012940"></trkpt>
      <trkpt lat="45.116680" lon="6.014340"></trkpt>
      <trkpt lat="45.119030" lon="6.017190"></trkpt>
      <trkpt lat="45.119430" lon="6.017760"></trkpt>
      <trkpt lat="45.119800" lon="6.018460"></trkpt>
      <trkpt lat="45.119960" lon="6.018820"></trkpt>
      <trkpt lat="45.120850" lon="6.021010"></trkpt>
      <trkpt lat="45.121010" lon="6.021830"></trkpt>
      <trkpt lat="45.121150" lon="6.022200"></trkpt>
      <trkpt lat="45.121280" lon="6.022410"></trkpt>
      <trkpt lat="45.121380" lon="6.022520"></trkpt>
      <trkpt lat="45.121570" lon="6.022630"></trkpt>
      <trkpt lat="45.121930" lon="6.022770"></trkpt>
      <trkpt lat="45.122110" lon="6.022880"></trkpt>
      <trkpt lat="45.122180" lon="6.022970"></trkpt>
      <trkpt lat="45.122300" lon="6.023190"></trkpt>
      <trkpt lat="45.122520" lon="6.024030"></trkpt>
      <trkpt lat="45.123310" lon="6.026050"></trkpt>
      <trkpt lat="45.123310" lon="6.026130"></trkpt>
      <trkpt lat="45.123430" lon="6.026510"></trkpt>
      <trkpt lat="45.123760" lon="6.027180"></trkpt>
      <trkpt lat="45.124360" lon="6.028700"></trkpt>
      <trkpt lat="45.124750" lon="6.029620"></trkpt>
      <trkpt lat="45.125000" lon="6.030320"></trkpt>
      <trkpt lat="45.125050" lon="6.030590"></trkpt>
      <trkpt lat="45.125200" lon="6.030870"></trkpt>
      <trkpt lat="45.125290" lon="6.030980"></trkpt>
      <trkpt lat="45.125770" lon="6.032130"></trkpt>
      <trkpt lat="45.127880" lon="6.037340"></trkpt>
      <trkpt lat="45.127920" lon="6.037490"></trkpt>
      <trkpt lat="45.127850" lon="6.037920"></trkpt>
      <trkpt lat="45.127840" lon="6.038140"></trkpt>
      <trkpt lat="45.128050" lon="6.038660"></trkpt>
      <trkpt lat="45.128120" lon="6.038880"></trkpt>
      <trkpt lat="45.128340" lon="6.039380"></trkpt>
      <trkpt lat="45.128460" lon="6.039600"></trkpt>
      <trkpt lat="45.129160" lon="6.041180"></trkpt>
      <trkpt lat="45.129210" lon="6.041350"></trkpt>
      <trkpt lat="45.129220" lon="6.041650"></trkpt>
      <trkpt lat="45.129190" lon="6.041790"></trkpt>
      <trkpt lat="45.128340" lon="6.043540"></trkpt>
      <trkpt lat="45.128280" lon="6.043630"></trkpt>
      <trkpt lat="45.128050" lon="6.043760"></trkpt>
      <trkpt lat="45.128020" lon="6.043810"></trkpt>
      <trkpt lat="45.127970" lon="6.043950"></trkpt>
      <trkpt lat="45.127980" lon="6.044040"></trkpt>
      <trkpt lat="45.128010" lon="6.044110"></trkpt>
      <trkpt lat="45.128050" lon="6.044140"></trkpt>
      <trkpt lat="45.128120" lon="6.044160"></trkpt>
      <trkpt lat="45.128180" lon="6.044120"></trkpt>
      <trkpt lat="45.130270" lon="6.041460"></trkpt>
      <trkpt lat="45.130340" lon="6.041360"></trkpt>
      <trkpt lat="45.130500" lon="6.040840"></trkpt>
      <trkpt lat="45.130570" lon="6.040760"></trkpt>
      <trkpt lat="45.130610" lon="6.040790"></trkpt>
      <trkpt lat="45.130650" lon="6.040760"></trkpt>
      <trkpt lat="45.130730" lon="6.040840"></trkpt>
      <trkpt lat="45.130750" lon="6.040890"></trkpt>
      <trkpt lat="45.130760" lon="6.041000"></trkpt>
      <trkpt lat="45.130670" lon="6.041170"></trkpt>
      <trkpt lat="45.128130" lon="6.045290"></trkpt>
      <trkpt lat="45.128080" lon="6.045430"></trkpt>
      <trkpt lat="45.128070" lon="6.045560"></trkpt>
      <trkpt lat="45.128280" lon="6.045940"></trkpt>
      <trkpt lat="45.129290" lon="6.047520"></trkpt>
      <trkpt lat="45.129490" lon="6.047740"></trkpt>
      <trkpt lat="45.129650" lon="6.047830"></trkpt>
      <trkpt lat="45.130090" lon="6.047930"></trkpt>
      <trkpt lat="45.130510" lon="6.048090"></trkpt>
      <trkpt lat="45.131660" lon="6.048460"></trkpt>
      <trkpt lat="45.132740" lon="6.048780"></trkpt>
      <trkpt lat="45.133820" lon="6.049060"></trkpt>
      <trkpt lat="45.134900" lon="6.049310"></trkpt>
      <trkpt lat="45.135980" lon="6.049530"></trkpt>
      <trkpt lat="45.136190" lon="6.049520"></trkpt>
      <trkpt lat="45.136360" lon="6.049460"></trkpt>
      <trkpt lat="45.136500" lon="6.049370"></trkpt>
      <trkpt lat="45.137370" lon="6.048670"></trkpt>
      <trkpt lat="45.137690" lon="6.048490"></trkpt>
      <trkpt lat="45.137880" lon="6.048430"></trkpt>
      <trkpt lat="45.138160" lon="6.048420"></trkpt>
      <trkpt lat="45.138390" lon="6.048470"></trkpt>
      <trkpt lat="45.138590" lon="6.048560"></trkpt>
      <trkpt lat="45.139070" lon="6.048840"></trkpt>
      <trkpt lat="45.139290" lon="6.048920"></trkpt>
      <trkpt lat="45.139610" lon="6.048960"></trkpt>
      <trkpt lat="45.140110" lon="6.048910"></trkpt>
      <trkpt lat="45.140480" lon="6.048960"></trkpt>
      <trkpt lat="45.140910" lon="6.049050"></trkpt>
      <trkpt lat="45.141340" lon="6.049240"></trkpt>
      <trkpt lat="45.142080" lon="6.049640"></trkpt>
      <trkpt lat="45.143110" lon="6.050340"></trkpt>
      <trkpt lat="45.143410" lon="6.050590"></trkpt>
      <trkpt lat="45.143640" lon="6.050860"></trkpt>
      <trkpt lat="45.143930" lon="6.051140"></trkpt>
      <trkpt lat="45.144380" lon="6.051410"></trkpt>
      <trkpt lat="45.144560" lon="6.051610"></trkpt>
      <trkpt lat="45.144600" lon="6.051740"></trkpt>
      <trkpt lat="45.144620" lon="6.051890"></trkpt>
      <trkpt lat="45.144610" lon="6.052010"></trkpt>
      <trkpt lat="45.144440" lon="6.052560"></trkpt>
      <trkpt lat="45.144390" lon="6.052830"></trkpt>
      <trkpt lat="45.144470" lon="6.053670"></trkpt>
      <trkpt lat="45.144600" lon="6.054110"></trkpt>
      <trkpt lat="45.144700" lon="6.054280"></trkpt>
      <trkpt lat="45.144770" lon="6.054350"></trkpt>
      <trkpt lat="45.144860" lon="6.054410"></trkpt>
      <trkpt lat="45.145000" lon="6.054470"></trkpt>
      <trkpt lat="45.145190" lon="6.054480"></trkpt>
      <trkpt lat="45.145280" lon="6.054440"></trkpt>
      <trkpt lat="45.145500" lon="6.054250"></trkpt>
      <trkpt lat="45.145620" lon="6.054010"></trkpt>
      <trkpt lat="45.145760" lon="6.053640"></trkpt>
      <trkpt lat="45.145980" lon="6.051970"></trkpt>
      <trkpt lat="45.146020" lon="6.051790"></trkpt>
      <trkpt lat="45.146130" lon="6.051600"></trkpt>
      <trkpt lat="45.146270" lon="6.051430"></trkpt>
      <trkpt lat="45.146380" lon="6.051370"></trkpt>
      <trkpt lat="45.146450" lon="6.051350"></trkpt>
      <trkpt lat="45.146450" lon="6.051240"></trkpt>
      <trkpt lat="45.146490" lon="6.051150"></trkpt>
      <trkpt lat="45.146570" lon="6.051050"></trkpt>
      <trkpt lat="45.146770" lon="6.050860"></trkpt>
      <trkpt lat="45.146880" lon="6.050810"></trkpt>
      <trkpt lat="45.147100" lon="6.050790"></trkpt>
      <trkpt lat="45.147220" lon="6.050740"></trkpt>
      <trkpt lat="45.147360" lon="6.050640"></trkpt>
      <trkpt lat="45.147540" lon="6.050420"></trkpt>
      <trkpt lat="45.147960" lon="6.049810"></trkpt>
      <trkpt lat="45.148020" lon="6.049650"></trkpt>
      <trkpt lat="45.148150" lon="6.049050"></trkpt>
      <trkpt lat="45.148260" lon="6.048780"></trkpt>
      <trkpt lat="45.148350" lon="6.048690"></trkpt>
      <trkpt lat="45.148640" lon="6.048500"></trkpt>
      <trkpt lat="45.149010" lon="6.048370"></trkpt>
      <trkpt lat="45.149730" lon="6.048280"></trkpt>
      <trkpt lat="45.149830" lon="6.048240"></trkpt>
      <trkpt lat="45.151580" lon="6.047120"></trkpt>
      <trkpt lat="45.151760" lon="6.046950"></trkpt>
      <trkpt lat="45.152120" lon="6.046510"></trkpt>
      <trkpt lat="45.152280" lon="6.046420"></trkpt>
      <trkpt lat="45.152660" lon="6.046280"></trkpt>
      <trkpt lat="45.152790" lon="6.046190"></trkpt>
      <trkpt lat="45.153200" lon="6.045770"></trkpt>
      <trkpt lat="45.153400" lon="6.045600"></trkpt>
      <trkpt lat="45.153600" lon="6.045520"></trkpt>
      <trkpt lat="45.154530" lon="6.045410"></trkpt>
      <trkpt lat="45.154630" lon="6.045380"></trkpt>
      <trkpt lat="45.154930" lon="6.045240"></trkpt>
      <trkpt lat="45.155210" lon="6.045180"></trkpt>
      <trkpt lat="45.155370" lon="6.045090"></trkpt>
      <trkpt lat="45.155500" lon="6.044970"></trkpt>
      <trkpt lat="45.155640" lon="6.044740"></trkpt>
      <trkpt lat="45.155750" lon="6.044620"></trkpt>
      <trkpt lat="45.156080" lon="6.044380"></trkpt>
      <trkpt lat="45.156460" lon="6.044170"></trkpt>
      <trkpt lat="45.157280" lon="6.043510"></trkpt>
      <trkpt lat="45.157430" lon="6.043440"></trkpt>
      <trkpt lat="45.157930" lon="6.043320"></trkpt>
      <trkpt lat="45.158120" lon="6.043260"></trkpt>
      <trkpt lat="45.158280" lon="6.043170"></trkpt>
      <trkpt lat="45.158580" lon="6.042960"></trkpt>
      <trkpt lat="45.159090" lon="6.042910"></trkpt>
      <trkpt lat="45.159420" lon="6.042760"></trkpt>
      <trkpt lat="45.159840" lon="6.042540"></trkpt>
      <trkpt lat="45.160120" lon="6.042340"></trkpt>
      <trkpt lat="45.160670" lon="6.042090"></trkpt>
      <trkpt lat="45.160930" lon="6.042030"></trkpt>
      <trkpt lat="45.161250" lon="6.042010"></trkpt>
      <trkpt lat="45.162340" lon="6.042230"></trkpt>
      <trkpt lat="45.162700" lon="6.042240"></trkpt>
      <trkpt lat="45.163440" lon="6.042160"></trkpt>
      <trkpt lat="45.164330" lon="6.042120"></trkpt>
      <trkpt lat="45.165000" lon="6.041980"></trkpt>
      <trkpt lat="45.165270" lon="6.042000"></trkpt>
      <trkpt lat="45.165630" lon="6.041990"></trkpt>
      <trkpt lat="45.165920" lon="6.041800"></trkpt>
      <trkpt lat="45.166170" lon="6.041770"></trkpt>
      <trkpt lat="45.166520" lon="6.041790"></trkpt>
      <trkpt lat="45.166900" lon="6.041720"></trkpt>
      <trkpt lat="45.167250" lon="6.041560"></trkpt>
      <trkpt lat="45.167500" lon="6.041480"></trkpt>
      <trkpt lat="45.168050" lon="6.041220"></trkpt>
      <trkpt lat="45.168390" lon="6.040940"></trkpt>
      <trkpt lat="45.168540" lon="6.040740"></trkpt>
      <trkpt lat="45.168680" lon="6.040420"></trkpt>
      <trkpt lat="45.168830" lon="6.040140"></trkpt>
      <trkpt lat="45.169110" lon="6.039890"></trkpt>
      <trkpt lat="45.169300" lon="6.039780"></trkpt>
      <trkpt lat="45.169480" lon="6.039730"></trkpt>
      <trkpt lat="45.169660" lon="6.039730"></trkpt>
      <trkpt lat="45.169830" lon="6.039660"></trkpt>
      <trkpt lat="45.170090" lon="6.039490"></trkpt>
      <trkpt lat="45.170560" lon="6.039070"></trkpt>
      <trkpt lat="45.171260" lon="6.038670"></trkpt>
      <trkpt lat="45.172000" lon="6.038180"></trkpt>
      <trkpt lat="45.172190" lon="6.038070"></trkpt>
      <trkpt lat="45.172370" lon="6.038030"></trkpt>
      <trkpt lat="45.172850" lon="6.037860"></trkpt>
      <trkpt lat="45.173100" lon="6.037820"></trkpt>
      <trkpt lat="45.173730" lon="6.037780"></trkpt>
      <trkpt lat="45.173930" lon="6.037690"></trkpt>
      <trkpt lat="45.174160" lon="6.037550"></trkpt>
      <trkpt lat="45.174490" lon="6.037230"></trkpt>
      <trkpt lat="45.174680" lon="6.037130"></trkpt>
      <trkpt lat="45.174970" lon="6.037050"></trkpt>
      <trkpt lat="45.175340" lon="6.037060"></trkpt>
      <trkpt lat="45.175590" lon="6.036960"></trkpt>
      <trkpt lat="45.175750" lon="6.036870"></trkpt>
      <trkpt lat="45.175880" lon="6.036860"></trkpt>
      <trkpt lat="45.176180" lon="6.036920"></trkpt>
      <trkpt lat="45.176350" lon="6.036910"></trkpt>
      <trkpt lat="45.176490" lon="6.036820"></trkpt>
      <trkpt lat="45.176640" lon="6.036690"></trkpt>
      <trkpt lat="45.176910" lon="6.036350"></trkpt>
      <trkpt lat="45.177020" lon="6.036280"></trkpt>
      <trkpt lat="45.177200" lon="6.036290"></trkpt>
      <trkpt lat="45.177750" lon="6.036740"></trkpt>
      <trkpt lat="45.177860" lon="6.036760"></trkpt>
      <trkpt lat="45.178090" lon="6.036630"></trkpt>
      <trkpt lat="45.178200" lon="6.036550"></trkpt>
      <trkpt lat="45.178500" lon="6.036550"></trkpt>
      <trkpt lat="45.178710" lon="6.036610"></trkpt>
      <trkpt lat="45.178930" lon="6.036600"></trkpt>
      <trkpt lat="45.179100" lon="6.036510"></trkpt>
      <trkpt lat="45.179330" lon="6.036350"></trkpt>
      <trkpt lat="45.179840" lon="6.035930"></trkpt>
      <trkpt lat="45.180090" lon="6.035800"></trkpt>
      <trkpt lat="45.181630" lon="6.035130"></trkpt>
      <trkpt lat="45.181930" lon="6.035030"></trkpt>
      <trkpt lat="45.182310" lon="6.034930"></trkpt>
      <trkpt lat="45.182970" lon="6.034920"></trkpt>
      <trkpt lat="45.183250" lon="6.034880"></trkpt>
      <trkpt lat="45.184450" lon="6.034630"></trkpt>
      <trkpt lat="45.185510" lon="6.034460"></trkpt>
      <trkpt lat="45.185760" lon="6.034390"></trkpt>
      <trkpt lat="45.185970" lon="6.034290"></trkpt>
      <trkpt lat="45.186350" lon="6.034060"></trkpt>
      <trkpt lat="45.186970" lon="6.033810"></trkpt>
      <trkpt lat="45.187140" lon="6.033820"></trkpt>
      <trkpt lat="45.187370" lon="6.033940"></trkpt>
      <trkpt lat="45.187670" lon="6.034190"></trkpt>
      <trkpt lat="45.188490" lon="6.034800"></trkpt>
      <trkpt lat="45.189060" lon="6.035180"></trkpt>
      <trkpt lat="45.189550" lon="6.035330"></trkpt>
      <trkpt lat="45.190080" lon="6.035660"></trkpt>
      <trkpt lat="45.190470" lon="6.035830"></trkpt>
      <trkpt lat="45.191540" lon="6.036130"></trkpt>
      <trkpt lat="45.191800" lon="6.036220"></trkpt>
      <trkpt lat="45.191990" lon="6.036330"></trkpt>
      <trkpt lat="45.192080" lon="6.036430"></trkpt>
      <trkpt lat="45.192240" lon="6.036490"></trkpt>
      <trkpt lat="45.192810" lon="6.036570"></trkpt>
      <trkpt lat="45.193060" lon="6.036740"></trkpt>
      <trkpt lat="45.193540" lon="6.037340"></trkpt>
      <trkpt lat="45.193950" lon="6.037620"></trkpt>
      <trkpt lat="45.194370" lon="6.037850"></trkpt>
      <trkpt lat="45.194550" lon="6.037930"></trkpt>
      <trkpt lat="45.195020" lon="6.037960"></trkpt>
      <trkpt lat="45.195170" lon="6.038000"></trkpt>
      <trkpt lat="45.196020" lon="6.038700"></trkpt>
      <trkpt lat="45.196260" lon="6.038770"></trkpt>
      <trkpt lat="45.196520" lon="6.038790"></trkpt>
      <trkpt lat="45.197640" lon="6.038990"></trkpt>
      <trkpt lat="45.198410" lon="6.039230"></trkpt>
      <trkpt lat="45.198600" lon="6.039320"></trkpt>
      <trkpt lat="45.198770" lon="6.039350"></trkpt>
      <trkpt lat="45.199130" lon="6.039250"></trkpt>
      <trkpt lat="45.199370" lon="6.039230"></trkpt>
      <trkpt lat="45.199540" lon="6.039120"></trkpt>
      <trkpt lat="45.199740" lon="6.039090"></trkpt>
      <trkpt lat="45.199870" lon="6.039100"></trkpt>
      <trkpt lat="45.200280" lon="6.039200"></trkpt>
      <trkpt lat="45.200880" lon="6.039470"></trkpt>
      <trkpt lat="45.201090" lon="6.039500"></trkpt>
      <trkpt lat="45.201370" lon="6.039500"></trkpt>
      <trkpt lat="45.201570" lon="6.039540"></trkpt>
      <trkpt lat="45.201660" lon="6.039580"></trkpt>
      <trkpt lat="45.202060" lon="6.040080"></trkpt>
      <trkpt lat="45.202310" lon="6.040280"></trkpt>
      <trkpt lat="45.202400" lon="6.040320"></trkpt>
      <trkpt lat="45.202490" lon="6.040330"></trkpt>
      <trkpt lat="45.202610" lon="6.040310"></trkpt>
      <trkpt lat="45.202830" lon="6.040220"></trkpt>
      <trkpt lat="45.203000" lon="6.040210"></trkpt>
      <trkpt lat="45.203100" lon="6.040260"></trkpt>
      <trkpt lat="45.203170" lon="6.040310"></trkpt>
      <trkpt lat="45.203300" lon="6.040460"></trkpt>
      <trkpt lat="45.203440" lon="6.040670"></trkpt>
      <trkpt lat="45.204370" lon="6.041620"></trkpt>
      <trkpt lat="45.204520" lon="6.041840"></trkpt>
      <trkpt lat="45.204980" lon="6.043040"></trkpt>
      <trkpt lat="45.205070" lon="6.043220"></trkpt>
      <trkpt lat="45.205200" lon="6.043360"></trkpt>
      <trkpt lat="45.205450" lon="6.043530"></trkpt>
      <trkpt lat="45.206030" lon="6.043750"></trkpt>
      <trkpt lat="45.206290" lon="6.043900"></trkpt>
      <trkpt lat="45.206600" lon="6.044270"></trkpt>
      <trkpt lat="45.206850" lon="6.044500"></trkpt>
      <trkpt lat="45.207030" lon="6.044610"></trkpt>
      <trkpt lat="45.207180" lon="6.044680"></trkpt>
      <trkpt lat="45.207470" lon="6.044780"></trkpt>
      <trkpt lat="45.207980" lon="6.044810"></trkpt>
      <trkpt lat="45.208120" lon="6.044850"></trkpt>
      <trkpt lat="45.208220" lon="6.044960"></trkpt>
      <trkpt lat="45.208430" lon="6.045370"></trkpt>
      <trkpt lat="45.208560" lon="6.045480"></trkpt>
      <trkpt lat="45.208670" lon="6.045510"></trkpt>
      <trkpt lat="45.208780" lon="6.045480"></trkpt>
      <trkpt lat="45.209200" lon="6.045220"></trkpt>
      <trkpt lat="45.209290" lon="6.045220"></trkpt>
      <trkpt lat="45.209360" lon="6.045250"></trkpt>
      <trkpt lat="45.209420" lon="6.045320"></trkpt>
      <trkpt lat="45.209470" lon="6.045470"></trkpt>
      <trkpt lat="45.209420" lon="6.046220"></trkpt>
      <trkpt lat="45.209440" lon="6.046340"></trkpt>
      <trkpt lat="45.209510" lon="6.046450"></trkpt>
      <trkpt lat="45.209580" lon="6.046530"></trkpt>
      <trkpt lat="45.209860" lon="6.046570"></trkpt>
      <trkpt lat="45.209970" lon="6.046610"></trkpt>
      <trkpt lat="45.210300" lon="6.046980"></trkpt>
      <trkpt lat="45.210670" lon="6.047130"></trkpt>
      <trkpt lat="45.211200" lon="6.047500"></trkpt>
      <trkpt lat="45.211260" lon="6.047620"></trkpt>
      <trkpt lat="45.211250" lon="6.047830"></trkpt>
      <trkpt lat="45.211220" lon="6.047930"></trkpt>
      <trkpt lat="45.211150" lon="6.048040"></trkpt>
      <trkpt lat="45.210940" lon="6.048250"></trkpt>
      <trkpt lat="45.210880" lon="6.048340"></trkpt>
      <trkpt lat="45.210850" lon="6.048440"></trkpt>
      <trkpt lat="45.210740" lon="6.049390"></trkpt>
      <trkpt lat="45.210780" lon="6.049620"></trkpt>
      <trkpt lat="45.210830" lon="6.049760"></trkpt>
      <trkpt lat="45.211070" lon="6.050050"></trkpt>
      <trkpt lat="45.211140" lon="6.050180"></trkpt>
      <trkpt lat="45.211170" lon="6.050390"></trkpt>
      <trkpt lat="45.211140" lon="6.050600"></trkpt>
      <trkpt lat="45.211080" lon="6.050740"></trkpt>
      <trkpt lat="45.210850" lon="6.050990"></trkpt>
      <trkpt lat="45.210790" lon="6.051120"></trkpt>
      <trkpt lat="45.210760" lon="6.051320"></trkpt>
      <trkpt lat="45.210780" lon="6.051580"></trkpt>
      <trkpt lat="45.210920" lon="6.052610"></trkpt>
      <trkpt lat="45.210910" lon="6.053220"></trkpt>
      <trkpt lat="45.210800" lon="6.054980"></trkpt>
      <trkpt lat="45.210820" lon="6.055170"></trkpt>
      <trkpt lat="45.210880" lon="6.055410"></trkpt>
      <trkpt lat="45.210890" lon="6.055590"></trkpt>
      <trkpt lat="45.210830" lon="6.056370"></trkpt>
      <trkpt lat="45.210840" lon="6.056760"></trkpt>
      <trkpt lat="45.210830" lon="6.056880"></trkpt>
      <trkpt lat="45.210780" lon="6.056930"></trkpt>
      <trkpt lat="45.210740" lon="6.056910"></trkpt>
      <trkpt lat="45.210710" lon="6.056850"></trkpt>
      <trkpt lat="45.210600" lon="6.056250"></trkpt>
      <trkpt lat="45.210530" lon="6.055540"></trkpt>
      <trkpt lat="45.210510" lon="6.055490"></trkpt>
      <trkpt lat="45.210470" lon="6.055470"></trkpt>
      <trkpt lat="45.210410" lon="6.055540"></trkpt>
      <trkpt lat="45.210360" lon="6.055860"></trkpt>
      <trkpt lat="45.210200" lon="6.056560"></trkpt>
      <trkpt lat="45.210160" lon="6.056910"></trkpt>
      <trkpt lat="45.210150" lon="6.057280"></trkpt>
      <trkpt lat="45.210100" lon="6.057310"></trkpt>
      <trkpt lat="45.210000" lon="6.057170"></trkpt>
      <trkpt lat="45.209800" lon="6.056210"></trkpt>
      <trkpt lat="45.209740" lon="6.055690"></trkpt>
      <trkpt lat="45.209800" lon="6.055240"></trkpt>
      <trkpt lat="45.209790" lon="6.055130"></trkpt>
      <trkpt lat="45.209750" lon="6.055080"></trkpt>
      <trkpt lat="45.209680" lon="6.055110"></trkpt>
      <trkpt lat="45.209510" lon="6.055530"></trkpt>
      <trkpt lat="45.209410" lon="6.056110"></trkpt>
      <trkpt lat="45.209250" lon="6.057230"></trkpt>
      <trkpt lat="45.209190" lon="6.057420"></trkpt>
      <trkpt lat="45.209090" lon="6.057550"></trkpt>
      <trkpt lat="45.208860" lon="6.057680"></trkpt>
      <trkpt lat="45.208680" lon="6.058080"></trkpt>
      <trkpt lat="45.207900" lon="6.062860"></trkpt>
      <trkpt lat="45.207840" lon="6.063900"></trkpt>
      <trkpt lat="45.207750" lon="6.064260"></trkpt>
      <trkpt lat="45.207590" lon="6.064710"></trkpt>
      <trkpt lat="45.207370" lon="6.065080"></trkpt>
      <trkpt lat="45.207160" lon="6.065650"></trkpt>
      <trkpt lat="45.207050" lon="6.065880"></trkpt>
      <trkpt lat="45.206790" lon="6.066270"></trkpt>
      <trkpt lat="45.205860" lon="6.068110"></trkpt>
      <trkpt lat="45.205790" lon="6.068290"></trkpt>
      <trkpt lat="45.205750" lon="6.068670"></trkpt>
      <trkpt lat="45.205660" lon="6.068970"></trkpt>
      <trkpt lat="45.204750" lon="6.071430"></trkpt>
      <trkpt lat="45.204680" lon="6.071890"></trkpt>
      <trkpt lat="45.204590" lon="6.072170"></trkpt>
      <trkpt lat="45.204490" lon="6.072380"></trkpt>
      <trkpt lat="45.204310" lon="6.072650"></trkpt>
      <trkpt lat="45.204280" lon="6.072830"></trkpt>
      <trkpt lat="45.204280" lon="6.072960"></trkpt>
      <trkpt lat="45.204370" lon="6.073410"></trkpt>
      <trkpt lat="45.204370" lon="6.073550"></trkpt>
      <trkpt lat="45.204330" lon="6.073670"></trkpt>
      <trkpt lat="45.203890" lon="6.074360"></trkpt>
      <trkpt lat="45.203810" lon="6.074550"></trkpt>
      <trkpt lat="45.203730" lon="6.074990"></trkpt>
      <trkpt lat="45.203640" lon="6.075180"></trkpt>
      <trkpt lat="45.203340" lon="6.075510"></trkpt>
      <trkpt lat="45.202860" lon="6.075950"></trkpt>
      <trkpt lat="45.202720" lon="6.076120"></trkpt>
      <trkpt lat="45.202570" lon="6.076410"></trkpt>
      <trkpt lat="45.202410" lon="6.076620"></trkpt>
      <trkpt lat="45.202280" lon="6.076720"></trkpt>
      <trkpt lat="45.202180" lon="6.076720"></trkpt>
      <trkpt lat="45.201910" lon="6.076650"></trkpt>
      <trkpt lat="45.201840" lon="6.076700"></trkpt>
      <trkpt lat="45.201850" lon="6.076800"></trkpt>
      <trkpt lat="45.202180" lon="6.077060"></trkpt>
      <trkpt lat="45.202300" lon="6.077110"></trkpt>
      <trkpt lat="45.202490" lon="6.077050"></trkpt>
      <trkpt lat="45.203420" lon="6.076490"></trkpt>
      <trkpt lat="45.203640" lon="6.076300"></trkpt>
      <trkpt lat="45.203710" lon="6.076300"></trkpt>
      <trkpt lat="45.203740" lon="6.076370"></trkpt>
      <trkpt lat="45.203720" lon="6.076460"></trkpt>
      <trkpt lat="45.202610" lon="6.077680"></trkpt>
      <trkpt lat="45.201860" lon="6.078460"></trkpt>
      <trkpt lat="45.201570" lon="6.078730"></trkpt>
      <trkpt lat="45.201480" lon="6.078910"></trkpt>
      <trkpt lat="45.201440" lon="6.079140"></trkpt>
      <trkpt lat="45.201390" lon="6.079890"></trkpt>
      <trkpt lat="45.201350" lon="6.080160"></trkpt>
      <trkpt lat="45.201210" lon="6.080790"></trkpt>
      <trkpt lat="45.201170" lon="6.081100"></trkpt>
      <trkpt lat="45.201140" lon="6.081520"></trkpt>
      <trkpt lat="45.201290" lon="6.082610"></trkpt>
      <trkpt lat="45.201280" lon="6.083200"></trkpt>
      <trkpt lat="45.201080" lon="6.083720"></trkpt>
      <trkpt lat="45.201010" lon="6.084170"></trkpt>
      <trkpt lat="45.200990" lon="6.084440"></trkpt>
      <trkpt lat="45.201250" lon="6.085280"></trkpt>
      <trkpt lat="45.201330" lon="6.085470"></trkpt>
      <trkpt lat="45.201770" lon="6.086240"></trkpt>
      <trkpt lat="45.202110" lon="6.086670"></trkpt>
      <trkpt lat="45.203210" lon="6.087880"></trkpt>
      <trkpt lat="45.203370" lon="6.088130"></trkpt>
      <trkpt lat="45.203590" lon="6.088660"></trkpt>
      <trkpt lat="45.203840" lon="6.089610"></trkpt>
      <trkpt lat="45.203840" lon="6.089780"></trkpt>
      <trkpt lat="45.203720" lon="6.090340"></trkpt>
      <trkpt lat="45.203740" lon="6.090650"></trkpt>
      <trkpt lat="45.203790" lon="6.090840"></trkpt>
      <trkpt lat="45.203990" lon="6.091240"></trkpt>
      <trkpt lat="45.204040" lon="6.091460"></trkpt>
      <trkpt lat="45.204130" lon="6.092100"></trkpt>
      <trkpt lat="45.204320" lon="6.092840"></trkpt>
      <trkpt lat="45.204580" lon="6.093600"></trkpt>
      <trkpt lat="45.204710" lon="6.094600"></trkpt>
      <trkpt lat="45.204530" lon="6.096610"></trkpt>
      <trkpt lat="45.204590" lon="6.097240"></trkpt>
      <trkpt lat="45.204560" lon="6.097500"></trkpt>
      <trkpt lat="45.204360" lon="6.098500"></trkpt>
      <trkpt lat="45.204340" lon="6.098940"></trkpt>
      <trkpt lat="45.204350" lon="6.099400"></trkpt>
      <trkpt lat="45.204440" lon="6.100360"></trkpt>
      <trkpt lat="45.204530" lon="6.101760"></trkpt>
      <trkpt lat="45.204600" lon="6.102030"></trkpt>
      <trkpt lat="45.204980" lon="6.102840"></trkpt>
      <trkpt lat="45.205330" lon="6.103930"></trkpt>
      <trkpt lat="45.205570" lon="6.105000"></trkpt>
      <trkpt lat="45.205980" lon="6.106070"></trkpt>
      <trkpt lat="45.206430" lon="6.107100"></trkpt>
      <trkpt lat="45.206720" lon="6.108140"></trkpt>
      <trkpt lat="45.206740" lon="6.108440"></trkpt>
      <trkpt lat="45.206730" lon="6.108670"></trkpt>
      <trkpt lat="45.206750" lon="6.108800"></trkpt>
      <trkpt lat="45.206810" lon="6.108910"></trkpt>
      <trkpt lat="45.206890" lon="6.108930"></trkpt>
      <trkpt lat="45.206930" lon="6.108890"></trkpt>
      <trkpt lat="45.206950" lon="6.108820"></trkpt>
      <trkpt lat="45.206940" lon="6.108700"></trkpt>
      <trkpt lat="45.206860" lon="6.108470"></trkpt>
      <trkpt lat="45.206780" lon="6.108030"></trkpt>
      <trkpt lat="45.206730" lon="6.107400"></trkpt>
      <trkpt lat="45.206510" lon="6.106070"></trkpt>
      <trkpt lat="45.206490" lon="6.105650"></trkpt>
      <trkpt lat="45.206450" lon="6.105500"></trkpt>
      <trkpt lat="45.206220" lon="6.104990"></trkpt>
      <trkpt lat="45.206040" lon="6.104080"></trkpt>
      <trkpt lat="45.205910" lon="6.103780"></trkpt>
      <trkpt lat="45.205710" lon="6.103480"></trkpt>
      <trkpt lat="45.205650" lon="6.103240"></trkpt>
      <trkpt lat="45.205710" lon="6.103140"></trkpt>
      <trkpt lat="45.205780" lon="6.103140"></trkpt>
      <trkpt lat="45.205840" lon="6.103210"></trkpt>
      <trkpt lat="45.205880" lon="6.103540"></trkpt>
      <trkpt lat="45.206200" lon="6.104260"></trkpt>
      <trkpt lat="45.206320" lon="6.104610"></trkpt>
      <trkpt lat="45.206490" lon="6.104950"></trkpt>
      <trkpt lat="45.206800" lon="6.105440"></trkpt>
      <trkpt lat="45.206900" lon="6.105700"></trkpt>
      <trkpt lat="45.207130" lon="6.106560"></trkpt>
      <trkpt lat="45.207410" lon="6.107220"></trkpt>
      <trkpt lat="45.207470" lon="6.107500"></trkpt>
      <trkpt lat="45.207510" lon="6.108000"></trkpt>
      <trkpt lat="45.207550" lon="6.108180"></trkpt>
      <trkpt lat="45.207800" lon="6.108970"></trkpt>
      <trkpt lat="45.207890" lon="6.109420"></trkpt>
      <trkpt lat="45.207880" lon="6.109660"></trkpt>
      <trkpt lat="45.207830" lon="6.109980"></trkpt>
      <trkpt lat="45.207830" lon="6.110650"></trkpt>
      <trkpt lat="45.207810" lon="6.110930"></trkpt>
      <trkpt lat="45.207730" lon="6.111530"></trkpt>
      <trkpt lat="45.207720" lon="6.111760"></trkpt>
      <trkpt lat="45.207740" lon="6.112000"></trkpt>
      <trkpt lat="45.207930" lon="6.112910"></trkpt>
      <trkpt lat="45.207920" lon="6.113060"></trkpt>
      <trkpt lat="45.207860" lon="6.113350"></trkpt>
      <trkpt lat="45.207850" lon="6.113510"></trkpt>
      <trkpt lat="45.207880" lon="6.113730"></trkpt>
      <trkpt lat="45.208000" lon="6.114130"></trkpt>
      <trkpt lat="45.208060" lon="6.114610"></trkpt>
      <trkpt lat="45.208240" lon="6.115070"></trkpt>
      <trkpt lat="45.208350" lon="6.115500"></trkpt>
      <trkpt lat="45.208440" lon="6.116180"></trkpt>
      <trkpt lat="45.208500" lon="6.117070"></trkpt>
      <trkpt lat="45.208500" lon="6.117320"></trkpt>
      <trkpt lat="45.208420" lon="6.118250"></trkpt>
      <trkpt lat="45.208440" lon="6.118420"></trkpt>
      <trkpt lat="45.208600" lon="6.118880"></trkpt>
      <trkpt lat="45.208620" lon="6.119120"></trkpt>
      <trkpt lat="45.208570" lon="6.119850"></trkpt>
      <trkpt lat="45.208580" lon="6.120140"></trkpt>
      <trkpt lat="45.208690" lon="6.120810"></trkpt>
      <trkpt lat="45.208930" lon="6.121730"></trkpt>
      <trkpt lat="45.209010" lon="6.121980"></trkpt>
      <trkpt lat="45.209590" lon="6.123340"></trkpt>
      <trkpt lat="45.209850" lon="6.124030"></trkpt>
      <trkpt lat="45.210070" lon="6.124780"></trkpt>
      <trkpt lat="45.210210" lon="6.125450"></trkpt>
      <trkpt lat="45.210400" lon="6.126030"></trkpt>
      <trkpt lat="45.210990" lon="6.127220"></trkpt>
      <trkpt lat="45.211120" lon="6.127410"></trkpt>
      <trkpt lat="45.211270" lon="6.127550"></trkpt>
      <trkpt lat="45.211480" lon="6.127650"></trkpt>
      <trkpt lat="45.211660" lon="6.127710"></trkpt>
      <trkpt lat="45.211800" lon="6.127850"></trkpt>
      <trkpt lat="45.211940" lon="6.128100"></trkpt>
      <trkpt lat="45.212160" lon="6.128600"></trkpt>
      <trkpt lat="45.212260" lon="6.128740"></trkpt>
      <trkpt lat="45.213360" lon="6.129970"></trkpt>
      <trkpt lat="45.214120" lon="6.130710"></trkpt>
      <trkpt lat="45.214430" lon="6.131100"></trkpt>
      <trkpt lat="45.214640" lon="6.131240"></trkpt>
      <trkpt lat="45.215040" lon="6.131430"></trkpt>
      <trkpt lat="45.215500" lon="6.131700"></trkpt>
      <trkpt lat="45.216060" lon="6.132100"></trkpt>
      <trkpt lat="45.216650" lon="6.132580"></trkpt>
      <trkpt lat="45.217470" lon="6.133350"></trkpt>
      <trkpt lat="45.218780" lon="6.134310"></trkpt>
      <trkpt lat="45.220000" lon="6.135490"></trkpt>
      <trkpt lat="45.220210" lon="6.135630"></trkpt>
      <trkpt lat="45.220680" lon="6.135880"></trkpt>
      <trkpt lat="45.220960" lon="6.136050"></trkpt>
      <trkpt lat="45.221370" lon="6.136400"></trkpt>
      <trkpt lat="45.221990" lon="6.136760"></trkpt>
      <trkpt lat="45.222160" lon="6.136940"></trkpt>
      <trkpt lat="45.222290" lon="6.137110"></trkpt>
      <trkpt lat="45.222720" lon="6.138180"></trkpt>
      <trkpt lat="45.222870" lon="6.138510"></trkpt>
      <trkpt lat="45.222990" lon="6.138670"></trkpt>
      <trkpt lat="45.223180" lon="6.138800"></trkpt>
      <trkpt lat="45.223350" lon="6.138830"></trkpt>
      <trkpt lat="45.223520" lon="6.138800"></trkpt>
      <trkpt lat="45.223860" lon="6.138590"></trkpt>
      <trkpt lat="45.223950" lon="6.138560"></trkpt>
      <trkpt lat="45.224030" lon="6.138560"></trkpt>
      <trkpt lat="45.224100" lon="6.138580"></trkpt>
      <trkpt lat="45.224150" lon="6.138620"></trkpt>
      <trkpt lat="45.224310" lon="6.138860"></trkpt>
      <trkpt lat="45.224740" lon="6.139780"></trkpt>
      <trkpt lat="45.224860" lon="6.140100"></trkpt>
      <trkpt lat="45.224940" lon="6.140380"></trkpt>
      <trkpt lat="45.225230" lon="6.141780"></trkpt>
      <trkpt lat="45.225390" lon="6.142220"></trkpt>
      <trkpt lat="45.225940" lon="6.143580"></trkpt>
      <trkpt lat="45.226120" lon="6.144230"></trkpt>
      <trkpt lat="45.226370" lon="6.144870"></trkpt>
      <trkpt lat="45.226460" lon="6.145180"></trkpt>
      <trkpt lat="45.226520" lon="6.145510"></trkpt>
      <trkpt lat="45.226700" lon="6.147780"></trkpt>
      <trkpt lat="45.226700" lon="6.148100"></trkpt>
      <trkpt lat="45.226650" lon="6.148770"></trkpt>
      <trkpt lat="45.226670" lon="6.148970"></trkpt>
      <trkpt lat="45.226720" lon="6.149150"></trkpt>
      <trkpt lat="45.226800" lon="6.149320"></trkpt>
      <trkpt lat="45.226950" lon="6.149530"></trkpt>
      <trkpt lat="45.227240" lon="6.149870"></trkpt>
      <trkpt lat="45.227340" lon="6.150110"></trkpt>
      <trkpt lat="45.227380" lon="6.150320"></trkpt>
      <trkpt lat="45.227440" lon="6.151030"></trkpt>
      <trkpt lat="45.227510" lon="6.151230"></trkpt>
      <trkpt lat="45.227620" lon="6.151390"></trkpt>
      <trkpt lat="45.227770" lon="6.151530"></trkpt>
      <trkpt lat="45.227880" lon="6.151690"></trkpt>
      <trkpt lat="45.227930" lon="6.151860"></trkpt>
      <trkpt lat="45.227990" lon="6.152330"></trkpt>
      <trkpt lat="45.228050" lon="6.152580"></trkpt>
      <trkpt lat="45.228320" lon="6.153220"></trkpt>
      <trkpt lat="45.228540" lon="6.154110"></trkpt>
      <trkpt lat="45.228560" lon="6.154260"></trkpt>
      <trkpt lat="45.228460" lon="6.154690"></trkpt>
      <trkpt lat="45.228410" lon="6.155070"></trkpt>
      <trkpt lat="45.228440" lon="6.155290"></trkpt>
      <trkpt lat="45.228660" lon="6.155740"></trkpt>
      <trkpt lat="45.228800" lon="6.156070"></trkpt>
      <trkpt lat="45.229010" lon="6.156440"></trkpt>
      <trkpt lat="45.229560" lon="6.157290"></trkpt>
      <trkpt lat="45.229650" lon="6.157510"></trkpt>
      <trkpt lat="45.229700" lon="6.157680"></trkpt>
      <trkpt lat="45.229760" lon="6.158130"></trkpt>
      <trkpt lat="45.230110" lon="6.159160"></trkpt>
      <trkpt lat="45.230210" lon="6.159280"></trkpt>
      <trkpt lat="45.230430" lon="6.159440"></trkpt>
      <trkpt lat="45.230540" lon="6.159540"></trkpt>
      <trkpt lat="45.230640" lon="6.159720"></trkpt>
      <trkpt lat="45.230700" lon="6.159910"></trkpt>
      <trkpt lat="45.230780" lon="6.160080"></trkpt>
      <trkpt lat="45.230890" lon="6.160270"></trkpt>
      <trkpt lat="45.231090" lon="6.160540"></trkpt>
      <trkpt lat="45.231170" lon="6.160700"></trkpt>
      <trkpt lat="45.231220" lon="6.160880"></trkpt>
      <trkpt lat="45.231320" lon="6.161130"></trkpt>
      <trkpt lat="45.231580" lon="6.161350"></trkpt>
      <trkpt lat="45.231660" lon="6.161480"></trkpt>
      <trkpt lat="45.231910" lon="6.162160"></trkpt>
      <trkpt lat="45.232180" lon="6.163790"></trkpt>
      <trkpt lat="45.232560" lon="6.165000"></trkpt>
      <trkpt lat="45.232750" lon="6.165840"></trkpt>
      <trkpt lat="45.233000" lon="6.166480"></trkpt>
      <trkpt lat="45.233030" lon="6.166660"></trkpt>
      <trkpt lat="45.233040" lon="6.166860"></trkpt>
      <trkpt lat="45.233150" lon="6.167350"></trkpt>
      <trkpt lat="45.233230" lon="6.167620"></trkpt>
      <trkpt lat="45.233390" lon="6.167970"></trkpt>
      <trkpt lat="45.233480" lon="6.168230"></trkpt>
      <trkpt lat="45.233550" lon="6.168710"></trkpt>
      <trkpt lat="45.233800" lon="6.169360"></trkpt>
      <trkpt lat="45.234100" lon="6.169900"></trkpt>
      <trkpt lat="45.234320" lon="6.170780"></trkpt>
      <trkpt lat="45.234420" lon="6.171100"></trkpt>
      <trkpt lat="45.234700" lon="6.171730"></trkpt>
      <trkpt lat="45.234860" lon="6.172050"></trkpt>
      <trkpt lat="45.234940" lon="6.172120"></trkpt>
      <trkpt lat="45.235470" lon="6.172430"></trkpt>
      <trkpt lat="45.235570" lon="6.172520"></trkpt>
      <trkpt lat="45.235680" lon="6.172680"></trkpt>
      <trkpt lat="45.235970" lon="6.173310"></trkpt>
      <trkpt lat="45.236050" lon="6.173400"></trkpt>
      <trkpt lat="45.236330" lon="6.173590"></trkpt>
      <trkpt lat="45.236390" lon="6.173670"></trkpt>
      <trkpt lat="45.236430" lon="6.173750"></trkpt>
      <trkpt lat="45.236540" lon="6.174200"></trkpt>
      <trkpt lat="45.236610" lon="6.174390"></trkpt>
      <trkpt lat="45.236680" lon="6.174510"></trkpt>
      <trkpt lat="45.236790" lon="6.174650"></trkpt>
      <trkpt lat="45.236880" lon="6.174730"></trkpt>
      <trkpt lat="45.237150" lon="6.174840"></trkpt>
      <trkpt lat="45.237480" lon="6.175110"></trkpt>
      <trkpt lat="45.237840" lon="6.175240"></trkpt>
      <trkpt lat="45.238060" lon="6.175360"></trkpt>
      <trkpt lat="45.238350" lon="6.175600"></trkpt>
      <trkpt lat="45.238440" lon="6.175720"></trkpt>
      <trkpt lat="45.238490" lon="6.175910"></trkpt>
      <trkpt lat="45.238480" lon="6.176260"></trkpt>
      <trkpt lat="45.238500" lon="6.176420"></trkpt>
      <trkpt lat="45.238710" lon="6.177170"></trkpt>
      <trkpt lat="45.238710" lon="6.177380"></trkpt>
      <trkpt lat="45.238680" lon="6.177690"></trkpt>
      <trkpt lat="45.238710" lon="6.177850"></trkpt>
      <trkpt lat="45.238740" lon="6.177890"></trkpt>
      <trkpt lat="45.238830" lon="6.178530"></trkpt>
      <trkpt lat="45.238920" lon="6.178920"></trkpt>
      <trkpt lat="45.238950" lon="6.179120"></trkpt>
      <trkpt lat="45.238980" lon="6.179510"></trkpt>
      <trkpt lat="45.239000" lon="6.180240"></trkpt>
      <trkpt lat="45.239090" lon="6.180720"></trkpt>
      <trkpt lat="45.239080" lon="6.181540"></trkpt>
      <trkpt lat="45.238950" lon="6.182070"></trkpt>
      <trkpt lat="45.238910" lon="6.182370"></trkpt>
      <trkpt lat="45.238940" lon="6.183610"></trkpt>
      <trkpt lat="45.238850" lon="6.184280"></trkpt>
      <trkpt lat="45.238860" lon="6.184420"></trkpt>
      <trkpt lat="45.238920" lon="6.184630"></trkpt>
      <trkpt lat="45.239180" lon="6.185050"></trkpt>
      <trkpt lat="45.239230" lon="6.185190"></trkpt>
      <trkpt lat="45.239230" lon="6.185340"></trkpt>
      <trkpt lat="45.239190" lon="6.185540"></trkpt>
      <trkpt lat="45.239130" lon="6.185630"></trkpt>
      <trkpt lat="45.239030" lon="6.185680"></trkpt>
      <trkpt lat="45.238850" lon="6.185720"></trkpt>
      <trkpt lat="45.238730" lon="6.185790"></trkpt>
      <trkpt lat="45.238610" lon="6.185900"></trkpt>
      <trkpt lat="45.238480" lon="6.186060"></trkpt>
      <trkpt lat="45.238400" lon="6.186210"></trkpt>
      <trkpt lat="45.237860" lon="6.187560"></trkpt>
      <trkpt lat="45.237690" lon="6.187870"></trkpt>
      <trkpt lat="45.237580" lon="6.188150"></trkpt>
      <trkpt lat="45.237520" lon="6.188570"></trkpt>
      <trkpt lat="45.237200" lon="6.189580"></trkpt>
      <trkpt lat="45.236900" lon="6.190770"></trkpt>
      <trkpt lat="45.236430" lon="6.191530"></trkpt>
      <trkpt lat="45.236220" lon="6.191780"></trkpt>
      <trkpt lat="45.235670" lon="6.192620"></trkpt>
      <trkpt lat="45.235540" lon="6.192770"></trkpt>
      <trkpt lat="45.235390" lon="6.192870"></trkpt>
      <trkpt lat="45.235150" lon="6.192950"></trkpt>
      <trkpt lat="45.234790" lon="6.193170"></trkpt>
      <trkpt lat="45.234220" lon="6.193260"></trkpt>
      <trkpt lat="45.234120" lon="6.193370"></trkpt>
      <trkpt lat="45.233690" lon="6.194570"></trkpt>
      <trkpt lat="45.233440" lon="6.195010"></trkpt>
      <trkpt lat="45.233380" lon="6.195190"></trkpt>
      <trkpt lat="45.233280" lon="6.195660"></trkpt>
      <trkpt lat="45.233250" lon="6.196050"></trkpt>
      <trkpt lat="45.233220" lon="6.196220"></trkpt>
      <trkpt lat="45.233120" lon="6.196480"></trkpt>
      <trkpt lat="45.232660" lon="6.197340"></trkpt>
      <trkpt lat="45.232440" lon="6.197520"></trkpt>
      <trkpt lat="45.232310" lon="6.197650"></trkpt>
      <trkpt lat="45.232050" lon="6.198010"></trkpt>
      <trkpt lat="45.231740" lon="6.198400"></trkpt>
      <trkpt lat="45.231590" lon="6.198710"></trkpt>
      <trkpt lat="45.231150" lon="6.199740"></trkpt>
      <trkpt lat="45.230910" lon="6.200180"></trkpt>
      <trkpt lat="45.230480" lon="6.200910"></trkpt>
      <trkpt lat="45.229690" lon="6.202020"></trkpt>
      <trkpt lat="45.229510" lon="6.202180"></trkpt>
      <trkpt lat="45.229410" lon="6.202210"></trkpt>
      <trkpt lat="45.228950" lon="6.202270"></trkpt>
      <trkpt lat="45.228270" lon="6.202480"></trkpt>
      <trkpt lat="45.227770" lon="6.202700"></trkpt>
      <trkpt lat="45.227700" lon="6.202760"></trkpt>
      <trkpt lat="45.227570" lon="6.202970"></trkpt>
      <trkpt lat="45.227500" lon="6.203160"></trkpt>
      <trkpt lat="45.227480" lon="6.203380"></trkpt>
      <trkpt lat="45.227490" lon="6.203940"></trkpt>
      <trkpt lat="45.227540" lon="6.204260"></trkpt>
      <trkpt lat="45.227650" lon="6.204430"></trkpt>
      <trkpt lat="45.227760" lon="6.204520"></trkpt>
      <trkpt lat="45.227880" lon="6.204570"></trkpt>
      <trkpt lat="45.227930" lon="6.204570"></trkpt>
      <trkpt lat="45.227880" lon="6.204570"></trkpt>
      <trkpt lat="45.227760" lon="6.204520"></trkpt>
      <trkpt lat="45.227650" lon="6.204430"></trkpt>
      <trkpt lat="45.227540" lon="6.204260"></trkpt>
      <trkpt lat="45.227490" lon="6.203940"></trkpt>
      <trkpt lat="45.227480" lon="6.203380"></trkpt>
      <trkpt lat="45.227500" lon="6.203160"></trkpt>
      <trkpt lat="45.227570" lon="6.202970"></trkpt>
      <trkpt lat="45.227700" lon="6.202760"></trkpt>
      <trkpt lat="45.227770" lon="6.202700"></trkpt>
      <trkpt lat="45.228270" lon="6.202480"></trkpt>
      <trkpt lat="45.228950" lon="6.202270"></trkpt>
      <trkpt lat="45.229410" lon="6.202210"></trkpt>
      <trkpt lat="45.229510" lon="6.202180"></trkpt>
      <trkpt lat="45.229690" lon="6.202020"></trkpt>
      <trkpt lat="45.230480" lon="6.200910"></trkpt>
      <trkpt lat="45.230910" lon="6.200180"></trkpt>
      <trkpt lat="45.231150" lon="6.199740"></trkpt>
      <trkpt lat="45.231590" lon="6.198710"></trkpt>
      <trkpt lat="45.231740" lon="6.198400"></trkpt>
      <trkpt lat="45.232050" lon="6.198010"></trkpt>
      <trkpt lat="45.232310" lon="6.197650"></trkpt>
      <trkpt lat="45.232440" lon="6.197520"></trkpt>
      <trkpt lat="45.232660" lon="6.197340"></trkpt>
      <trkpt lat="45.233120" lon="6.196480"></trkpt>
      <trkpt lat="45.233220" lon="6.196220"></trkpt>
      <trkpt lat="45.233250" lon="6.196050"></trkpt>
      <trkpt lat="45.233280" lon="6.195660"></trkpt>
      <trkpt lat="45.233380" lon="6.195190"></trkpt>
      <trkpt lat="45.233440" lon="6.195010"></trkpt>
      <trkpt lat="45.233690" lon="6.194570"></trkpt>
      <trkpt lat="45.234120" lon="6.193370"></trkpt>
      <trkpt lat="45.234220" lon="6.193260"></trkpt>
      <trkpt lat="45.234790" lon="6.193170"></trkpt>
      <trkpt lat="45.235150" lon="6.192950"></trkpt>
      <trkpt lat="45.235390" lon="6.192870"></trkpt>
      <trkpt lat="45.235540" lon="6.192770"></trkpt>
      <trkpt lat="45.235670" lon="6.192620"></trkpt>
      <trkpt lat="45.236220" lon="6.191780"></trkpt>
      <trkpt lat="45.236430" lon="6.191530"></trkpt>
      <trkpt lat="45.236900" lon="6.190770"></trkpt>
      <trkpt lat="45.237200" lon="6.189580"></trkpt>
      <trkpt lat="45.237520" lon="6.188570"></trkpt>
      <trkpt lat="45.237580" lon="6.188150"></trkpt>
      <trkpt lat="45.237690" lon="6.187870"></trkpt>
      <trkpt lat="45.237860" lon="6.187560"></trkpt>
      <trkpt lat="45.238400" lon="6.186210"></trkpt>
      <trkpt lat="45.238480" lon="6.186060"></trkpt>
      <trkpt lat="45.238610" lon="6.185900"></trkpt>
      <trkpt lat="45.238730" lon="6.185790"></trkpt>
      <trkpt lat="45.238850" lon="6.185720"></trkpt>
      <trkpt lat="45.239030" lon="6.185680"></trkpt>
      <trkpt lat="45.239130" lon="6.185630"></trkpt>
      <trkpt lat="45.239190" lon="6.185540"></trkpt>
      <trkpt lat="45.239230" lon="6.185340"></trkpt>
      <trkpt lat="45.239230" lon="6.185190"></trkpt>
      <trkpt lat="45.239180" lon="6.185050"></trkpt>
      <trkpt lat="45.238920" lon="6.184630"></trkpt>
      <trkpt lat="45.238860" lon="6.184420"></trkpt>
      <trkpt lat="45.238850" lon="6.184280"></trkpt>
      <trkpt lat="45.238940" lon="6.183610"></trkpt>
      <trkpt lat="45.238910" lon="6.182370"></trkpt>
      <trkpt lat="45.238950" lon="6.182070"></trkpt>
      <trkpt lat="45.239080" lon="6.181540"></trkpt>
      <trkpt lat="45.239090" lon="6.180720"></trkpt>
      <trkpt lat="45.239000" lon="6.180240"></trkpt>
      <trkpt lat="45.238980" lon="6.179510"></trkpt>
      <trkpt lat="45.238950" lon="6.179120"></trkpt>
      <trkpt lat="45.238920" lon="6.178920"></trkpt>
      <trkpt lat="45.238830" lon="6.178530"></trkpt>
      <trkpt lat="45.238740" lon="6.177890"></trkpt>
      <trkpt lat="45.238710" lon="6.177850"></trkpt>
      <trkpt lat="45.238680" lon="6.177690"></trkpt>
      <trkpt lat="45.238710" lon="6.177380"></trkpt>
      <trkpt lat="45.238710" lon="6.177170"></trkpt>
      <trkpt lat="45.238500" lon="6.176420"></trkpt>
      <trkpt lat="45.238480" lon="6.176260"></trkpt>
      <trkpt lat="45.238490" lon="6.175910"></trkpt>
      <trkpt lat="45.238440" lon="6.175720"></trkpt>
      <trkpt lat="45.238350" lon="6.175600"></trkpt>
      <trkpt lat="45.238060" lon="6.175360"></trkpt>
      <trkpt lat="45.237840" lon="6.175240"></trkpt>
      <trkpt lat="45.237480" lon="6.175110"></trkpt>
      <trkpt lat="45.237150" lon="6.174840"></trkpt>
      <trkpt lat="45.236880" lon="6.174730"></trkpt>
      <trkpt lat="45.236790" lon="6.174650"></trkpt>
      <trkpt lat="45.236680" lon="6.174510"></trkpt>
      <trkpt lat="45.236610" lon="6.174390"></trkpt>
      <trkpt lat="45.236540" lon="6.174200"></trkpt>
      <trkpt lat="45.236430" lon="6.173750"></trkpt>
      <trkpt lat="45.236390" lon="6.173670"></trkpt>
      <trkpt lat="45.236330" lon="6.173590"></trkpt>
      <trkpt lat="45.236050" lon="6.173400"></trkpt>
      <trkpt lat="45.235970" lon="6.173310"></trkpt>
      <trkpt lat="45.235680" lon="6.172680"></trkpt>
      <trkpt lat="45.235570" lon="6.172520"></trkpt>
      <trkpt lat="45.235470" lon="6.172430"></trkpt>
      <trkpt lat="45.234940" lon="6.172120"></trkpt>
      <trkpt lat="45.234860" lon="6.172050"></trkpt>
      <trkpt lat="45.234700" lon="6.171730"></trkpt>
      <trkpt lat="45.234420" lon="6.171100"></trkpt>
      <trkpt lat="45.234320" lon="6.170780"></trkpt>
      <trkpt lat="45.234100" lon="6.169900"></trkpt>
      <trkpt lat="45.233800" lon="6.169360"></trkpt>
      <trkpt lat="45.233550" lon="6.168710"></trkpt>
      <trkpt lat="45.233480" lon="6.168230"></trkpt>
      <trkpt lat="45.233390" lon="6.167970"></trkpt>
      <trkpt lat="45.233230" lon="6.167620"></trkpt>
      <trkpt lat="45.233150" lon="6.167350"></trkpt>
      <trkpt lat="45.233040" lon="6.166860"></trkpt>
      <trkpt lat="45.233030" lon="6.166660"></trkpt>
      <trkpt lat="45.233000" lon="6.166480"></trkpt>
      <trkpt lat="45.232750" lon="6.165840"></trkpt>
      <trkpt lat="45.232560" lon="6.165000"></trkpt>
      <trkpt lat="45.232180" lon="6.163790"></trkpt>
      <trkpt lat="45.231910" lon="6.162160"></trkpt>
      <trkpt lat="45.231660" lon="6.161480"></trkpt>
      <trkpt lat="45.231580" lon="6.161350"></trkpt>
      <trkpt lat="45.231320" lon="6.161130"></trkpt>
      <trkpt lat="45.231220" lon="6.160880"></trkpt>
      <trkpt lat="45.231170" lon="6.160700"></trkpt>
      <trkpt lat="45.231090" lon="6.160540"></trkpt>
      <trkpt lat="45.230890" lon="6.160270"></trkpt>
      <trkpt lat="45.230780" lon="6.160080"></trkpt>
      <trkpt lat="45.230700" lon="6.159910"></trkpt>
      <trkpt lat="45.230640" lon="6.159720"></trkpt>
      <trkpt lat="45.230540" lon="6.159540"></trkpt>
      <trkpt lat="45.230430" lon="6.159440"></trkpt>
      <trkpt lat="45.230210" lon="6.159280"></trkpt>
      <trkpt lat="45.230110" lon="6.159160"></trkpt>
      <trkpt lat="45.229760" lon="6.158130"></trkpt>
      <trkpt lat="45.229700" lon="6.157680"></trkpt>
      <trkpt lat="45.229650" lon="6.157510"></trkpt>
      <trkpt lat="45.229560" lon="6.157290"></trkpt>
      <trkpt lat="45.229010" lon="6.156440"></trkpt>
      <trkpt lat="45.228800" lon="6.156070"></trkpt>
      <trkpt lat="45.228660" lon="6.155740"></trkpt>
      <trkpt lat="45.228440" lon="6.155290"></trkpt>
      <trkpt lat="45.228410" lon="6.155070"></trkpt>
      <trkpt lat="45.228460" lon="6.154690"></trkpt>
      <trkpt lat="45.228560" lon="6.154260"></trkpt>
      <trkpt lat="45.228540" lon="6.154110"></trkpt>
      <trkpt lat="45.228320" lon="6.153220"></trkpt>
      <trkpt lat="45.228050" lon="6.152580"></trkpt>
      <trkpt lat="45.227990" lon="6.152330"></trkpt>
      <trkpt lat="45.227930" lon="6.151860"></trkpt>
      <trkpt lat="45.227880" lon="6.151690"></trkpt>
      <trkpt lat="45.227770" lon="6.151530"></trkpt>
      <trkpt lat="45.227620" lon="6.151390"></trkpt>
      <trkpt lat="45.227510" lon="6.151230"></trkpt>
      <trkpt lat="45.227440" lon="6.151030"></trkpt>
      <trkpt lat="45.227380" lon="6.150320"></trkpt>
      <trkpt lat="45.227340" lon="6.150110"></trkpt>
      <trkpt lat="45.227240" lon="6.149870"></trkpt>
      <trkpt lat="45.226950" lon="6.149530"></trkpt>
      <trkpt lat="45.226800" lon="6.149320"></trkpt>
      <trkpt lat="45.226720" lon="6.149150"></trkpt>
      <trkpt lat="45.226670" lon="6.148970"></trkpt>
      <trkpt lat="45.226650" lon="6.148770"></trkpt>
      <trkpt lat="45.226700" lon="6.148100"></trkpt>
      <trkpt lat="45.226700" lon="6.147780"></trkpt>
      <trkpt lat="45.226520" lon="6.145510"></trkpt>
      <trkpt lat="45.226460" lon="6.145180"></trkpt>
      <trkpt lat="45.226370" lon="6.144870"></trkpt>
      <trkpt lat="45.226120" lon="6.144230"></trkpt>
      <trkpt lat="45.225940" lon="6.143580"></trkpt>
      <trkpt lat="45.225390" lon="6.142220"></trkpt>
      <trkpt lat="45.225230" lon="6.141780"></trkpt>
      <trkpt lat="45.224940" lon="6.140380"></trkpt>
      <trkpt lat="45.224860" lon="6.140100"></trkpt>
      <trkpt lat="45.224740" lon="6.139780"></trkpt>
      <trkpt lat="45.224310" lon="6.138860"></trkpt>
      <trkpt lat="45.224150" lon="6.138620"></trkpt>
      <trkpt lat="45.224100" lon="6.138580"></trkpt>
      <trkpt lat="45.224030" lon="6.138560"></trkpt>
      <trkpt lat="45.223950" lon="6.138560"></trkpt>
      <trkpt lat="45.223860" lon="6.138590"></trkpt>
      <trkpt lat="45.223520" lon="6.138800"></trkpt>
      <trkpt lat="45.223350" lon="6.138830"></trkpt>
      <trkpt lat="45.223180" lon="6.138800"></trkpt>
      <trkpt lat="45.222990" lon="6.138670"></trkpt>
      <trkpt lat="45.222870" lon="6.138510"></trkpt>
      <trkpt lat="45.222720" lon="6.138180"></trkpt>
      <trkpt lat="45.222290" lon="6.137110"></trkpt>
      <trkpt lat="45.222160" lon="6.136940"></trkpt>
      <trkpt lat="45.221990" lon="6.136760"></trkpt>
      <trkpt lat="45.221370" lon="6.136400"></trkpt>
      <trkpt lat="45.220960" lon="6.136050"></trkpt>
      <trkpt lat="45.220680" lon="6.135880"></trkpt>
      <trkpt lat="45.220210" lon="6.135630"></trkpt>
      <trkpt lat="45.220000" lon="6.135490"></trkpt>
      <trkpt lat="45.218780" lon="6.134310"></trkpt>
      <trkpt lat="45.217470" lon="6.133350"></trkpt>
      <trkpt lat="45.216650" lon="6.132580"></trkpt>
      <trkpt lat="45.216060" lon="6.132100"></trkpt>
      <trkpt lat="45.215500" lon="6.131700"></trkpt>
      <trkpt lat="45.215040" lon="6.131430"></trkpt>
      <trkpt lat="45.214640" lon="6.131240"></trkpt>
      <trkpt lat="45.214430" lon="6.131100"></trkpt>
      <trkpt lat="45.214120" lon="6.130710"></trkpt>
      <trkpt lat="45.213360" lon="6.129970"></trkpt>
      <trkpt lat="45.212260" lon="6.128740"></trkpt>
      <trkpt lat="45.212160" lon="6.128600"></trkpt>
      <trkpt lat="45.211940" lon="6.128100"></trkpt>
      <trkpt lat="45.211800" lon="6.127850"></trkpt>
      <trkpt lat="45.211660" lon="6.127710"></trkpt>
      <trkpt lat="45.211480" lon="6.127650"></trkpt>
      <trkpt lat="45.211270" lon="6.127550"></trkpt>
      <trkpt lat="45.211120" lon="6.127410"></trkpt>
      <trkpt lat="45.210990" lon="6.127220"></trkpt>
      <trkpt lat="45.210400" lon="6.126030"></trkpt>
      <trkpt lat="45.210210" lon="6.125450"></trkpt>
      <trkpt lat="45.210070" lon="6.124780"></trkpt>
      <trkpt lat="45.209850" lon="6.124030"></trkpt>
      <trkpt lat="45.209590" lon="6.123340"></trkpt>
      <trkpt lat="45.209010" lon="6.121980"></trkpt>
      <trkpt lat="45.208930" lon="6.121730"></trkpt>
      <trkpt lat="45.208690" lon="6.120810"></trkpt>
      <trkpt lat="45.208580" lon="6.120140"></trkpt>
      <trkpt lat="45.208570" lon="6.119850"></trkpt>
      <trkpt lat="45.208620" lon="6.119120"></trkpt>
      <trkpt lat="45.208600" lon="6.118880"></trkpt>
      <trkpt lat="45.208440" lon="6.118420"></trkpt>
      <trkpt lat="45.208420" lon="6.118250"></trkpt>
      <trkpt lat="45.208500" lon="6.117320"></trkpt>
      <trkpt lat="45.208500" lon="6.117070"></trkpt>
      <trkpt lat="45.208440" lon="6.116180"></trkpt>
      <trkpt lat="45.208350" lon="6.115500"></trkpt>
      <trkpt lat="45.208240" lon="6.115070"></trkpt>
      <trkpt lat="45.208060" lon="6.114610"></trkpt>
      <trkpt lat="45.208000" lon="6.114130"></trkpt>
      <trkpt lat="45.207880" lon="6.113730"></trkpt>
      <trkpt lat="45.207850" lon="6.113510"></trkpt>
      <trkpt lat="45.207860" lon="6.113350"></trkpt>
      <trkpt lat="45.207920" lon="6.113060"></trkpt>
      <trkpt lat="45.207930" lon="6.112910"></trkpt>
      <trkpt lat="45.207740" lon="6.112000"></trkpt>
      <trkpt lat="45.207720" lon="6.111760"></trkpt>
      <trkpt lat="45.207730" lon="6.111530"></trkpt>
      <trkpt lat="45.207810" lon="6.110930"></trkpt>
      <trkpt lat="45.207830" lon="6.110650"></trkpt>
      <trkpt lat="45.207830" lon="6.109980"></trkpt>
      <trkpt lat="45.207880" lon="6.109660"></trkpt>
      <trkpt lat="45.207890" lon="6.109420"></trkpt>
      <trkpt lat="45.207800" lon="6.108970"></trkpt>
      <trkpt lat="45.207550" lon="6.108180"></trkpt>
      <trkpt lat="45.207510" lon="6.108000"></trkpt>
      <trkpt lat="45.207470" lon="6.107500"></trkpt>
      <trkpt lat="45.207410" lon="6.107220"></trkpt>
      <trkpt lat="45.207130" lon="6.106560"></trkpt>
      <trkpt lat="45.206900" lon="6.105700"></trkpt>
      <trkpt lat="45.206800" lon="6.105440"></trkpt>
      <trkpt lat="45.206490" lon="6.104950"></trkpt>
      <trkpt lat="45.206320" lon="6.104610"></trkpt>
      <trkpt lat="45.206200" lon="6.104260"></trkpt>
      <trkpt lat="45.205880" lon="6.103540"></trkpt>
      <trkpt lat="45.205840" lon="6.103210"></trkpt>
      <trkpt lat="45.205780" lon="6.103140"></trkpt>
      <trkpt lat="45.205710" lon="6.103140"></trkpt>
      <trkpt lat="45.205650" lon="6.103240"></trkpt>
      <trkpt lat="45.205710" lon="6.103480"></trkpt>
      <trkpt lat="45.205910" lon="6.103780"></trkpt>
      <trkpt lat="45.206040" lon="6.104080"></trkpt>
      <trkpt lat="45.206220" lon="6.104990"></trkpt>
      <trkpt lat="45.206450" lon="6.105500"></trkpt>
      <trkpt lat="45.206490" lon="6.105650"></trkpt>
      <trkpt lat="45.206510" lon="6.106070"></trkpt>
      <trkpt lat="45.206730" lon="6.107400"></trkpt>
      <trkpt lat="45.206780" lon="6.108030"></trkpt>
      <trkpt lat="45.206860" lon="6.108470"></trkpt>
      <trkpt lat="45.206940" lon="6.108700"></trkpt>
      <trkpt lat="45.206950" lon="6.108820"></trkpt>
      <trkpt lat="45.206930" lon="6.108890"></trkpt>
      <trkpt lat="45.206890" lon="6.108930"></trkpt>
      <trkpt lat="45.206810" lon="6.108910"></trkpt>
      <trkpt lat="45.206750" lon="6.108800"></trkpt>
      <trkpt lat="45.206730" lon="6.108670"></trkpt>
      <trkpt lat="45.206740" lon="6.108440"></trkpt>
      <trkpt lat="45.206720" lon="6.108140"></trkpt>
      <trkpt lat="45.206430" lon="6.107100"></trkpt>
      <trkpt lat="45.205980" lon="6.106070"></trkpt>
      <trkpt lat="45.205570" lon="6.105000"></trkpt>
      <trkpt lat="45.205330" lon="6.103930"></trkpt>
      <trkpt lat="45.204980" lon="6.102840"></trkpt>
      <trkpt lat="45.204600" lon="6.102030"></trkpt>
      <trkpt lat="45.204530" lon="6.101760"></trkpt>
      <trkpt lat="45.204440" lon="6.100360"></trkpt>
      <trkpt lat="45.204350" lon="6.099400"></trkpt>
      <trkpt lat="45.204340" lon="6.098940"></trkpt>
      <trkpt lat="45.204360" lon="6.098500"></trkpt>
      <trkpt lat="45.204560" lon="6.097500"></trkpt>
      <trkpt lat="45.204590" lon="6.097240"></trkpt>
      <trkpt lat="45.204530" lon="6.096610"></trkpt>
      <trkpt lat="45.204710" lon="6.094600"></trkpt>
      <trkpt lat="45.204580" lon="6.093600"></trkpt>
      <trkpt lat="45.204320" lon="6.092840"></trkpt>
      <trkpt lat="45.204130" lon="6.092100"></trkpt>
      <trkpt lat="45.204040" lon="6.091460"></trkpt>
      <trkpt lat="45.203990" lon="6.091240"></trkpt>
      <trkpt lat="45.203790" lon="6.090840"></trkpt>
      <trkpt lat="45.203740" lon="6.090650"></trkpt>
      <trkpt lat="45.203720" lon="6.090340"></trkpt>
      <trkpt lat="45.203840" lon="6.089780"></trkpt>
      <trkpt lat="45.203840" lon="6.089610"></trkpt>
      <trkpt lat="45.203590" lon="6.088660"></trkpt>
      <trkpt lat="45.203370" lon="6.088130"></trkpt>
      <trkpt lat="45.203210" lon="6.087880"></trkpt>
      <trkpt lat="45.202110" lon="6.086670"></trkpt>
      <trkpt lat="45.201770" lon="6.086240"></trkpt>
      <trkpt lat="45.201330" lon="6.085470"></trkpt>
      <trkpt lat="45.201250" lon="6.085280"></trkpt>
      <trkpt lat="45.200990" lon="6.084440"></trkpt>
      <trkpt lat="45.201010" lon="6.084170"></trkpt>
      <trkpt lat="45.201080" lon="6.083720"></trkpt>
      <trkpt lat="45.201280" lon="6.083200"></trkpt>
      <trkpt lat="45.201290" lon="6.082610"></trkpt>
      <trkpt lat="45.201140" lon="6.081520"></trkpt>
      <trkpt lat="45.201170" lon="6.081100"></trkpt>
      <trkpt lat="45.201210" lon="6.080790"></trkpt>
      <trkpt lat="45.201350" lon="6.080160"></trkpt>
      <trkpt lat="45.201390" lon="6.079890"></trkpt>
      <trkpt lat="45.201440" lon="6.079140"></trkpt>
      <trkpt lat="45.201480" lon="6.078910"></trkpt>
      <trkpt lat="45.201570" lon="6.078730"></trkpt>
      <trkpt lat="45.201860" lon="6.078460"></trkpt>
      <trkpt lat="45.202610" lon="6.077680"></trkpt>
      <trkpt lat="45.203720" lon="6.076460"></trkpt>
      <trkpt lat="45.203740" lon="6.076370"></trkpt>
      <trkpt lat="45.203710" lon="6.076300"></trkpt>
      <trkpt lat="45.203640" lon="6.076300"></trkpt>
      <trkpt lat="45.203420" lon="6.076490"></trkpt>
      <trkpt lat="45.202490" lon="6.077050"></trkpt>
      <trkpt lat="45.202300" lon="6.077110"></trkpt>
      <trkpt lat="45.202180" lon="6.077060"></trkpt>
      <trkpt lat="45.201850" lon="6.076800"></trkpt>
      <trkpt lat="45.201840" lon="6.076700"></trkpt>
      <trkpt lat="45.201910" lon="6.076650"></trkpt>
      <trkpt lat="45.202180" lon="6.076720"></trkpt>
      <trkpt lat="45.202280" lon="6.076720"></trkpt>
      <trkpt lat="45.202410" lon="6.076620"></trkpt>
      <trkpt lat="45.202570" lon="6.076410"></trkpt>
      <trkpt lat="45.202720" lon="6.076120"></trkpt>
      <trkpt lat="45.202860" lon="6.075950"></trkpt>
      <trkpt lat="45.203340" lon="6.075510"></trkpt>
      <trkpt lat="45.203640" lon="6.075180"></trkpt>
      <trkpt lat="45.203730" lon="6.074990"></trkpt>
      <trkpt lat="45.203810" lon="6.074550"></trkpt>
      <trkpt lat="45.203890" lon="6.074360"></trkpt>
      <trkpt lat="45.204330" lon="6.073670"></trkpt>
      <trkpt lat="45.204370" lon="6.073550"></trkpt>
      <trkpt lat="45.204370" lon="6.073410"></trkpt>
      <trkpt lat="45.204280" lon="6.072960"></trkpt>
      <trkpt lat="45.204280" lon="6.072830"></trkpt>
      <trkpt lat="45.204310" lon="6.072650"></trkpt>
      <trkpt lat="45.204490" lon="6.072380"></trkpt>
      <trkpt lat="45.204590" lon="6.072170"></trkpt>
      <trkpt lat="45.204680" lon="6.071890"></trkpt>
      <trkpt lat="45.204750" lon="6.071430"></trkpt>
      <trkpt lat="45.205660" lon="6.068970"></trkpt>
      <trkpt lat="45.205750" lon="6.068670"></trkpt>
      <trkpt lat="45.205790" lon="6.068290"></trkpt>
      <trkpt lat="45.205860" lon="6.068110"></trkpt>
      <trkpt lat="45.206790" lon="6.066270"></trkpt>
      <trkpt lat="45.207050" lon="6.065880"></trkpt>
      <trkpt lat="45.207160" lon="6.065650"></trkpt>
      <trkpt lat="45.207370" lon="6.065080"></trkpt>
      <trkpt lat="45.207590" lon="6.064710"></trkpt>
      <trkpt lat="45.207750" lon="6.064260"></trkpt>
      <trkpt lat="45.207840" lon="6.063900"></trkpt>
      <trkpt lat="45.207900" lon="6.062860"></trkpt>
      <trkpt lat="45.208680" lon="6.058080"></trkpt>
      <trkpt lat="45.208860" lon="6.057680"></trkpt>
      <trkpt lat="45.209090" lon="6.057550"></trkpt>
      <trkpt lat="45.209190" lon="6.057420"></trkpt>
      <trkpt lat="45.209250" lon="6.057230"></trkpt>
      <trkpt lat="45.209410" lon="6.056110"></trkpt>
      <trkpt lat="45.209510" lon="6.055530"></trkpt>
      <trkpt lat="45.209680" lon="6.055110"></trkpt>
      <trkpt lat="45.209750" lon="6.055080"></trkpt>
      <trkpt lat="45.209790" lon="6.055130"></trkpt>
      <trkpt lat="45.209800" lon="6.055240"></trkpt>
      <trkpt lat="45.209740" lon="6.055690"></trkpt>
      <trkpt lat="45.209800" lon="6.056210"></trkpt>
      <trkpt lat="45.210000" lon="6.057170"></trkpt>
      <trkpt lat="45.210100" lon="6.057310"></trkpt>
      <trkpt lat="45.210150" lon="6.057280"></trkpt>
      <trkpt lat="45.210160" lon="6.056910"></trkpt>
      <trkpt lat="45.210200" lon="6.056560"></trkpt>
      <trkpt lat="45.210360" lon="6.055860"></trkpt>
      <trkpt lat="45.210410" lon="6.055540"></trkpt>
      <trkpt lat="45.210470" lon="6.055470"></trkpt>
      <trkpt lat="45.210510" lon="6.055490"></trkpt>
      <trkpt lat="45.210530" lon="6.055540"></trkpt>
      <trkpt lat="45.210600" lon="6.056250"></trkpt>
      <trkpt lat="45.210710" lon="6.056850"></trkpt>
      <trkpt lat="45.210740" lon="6.056910"></trkpt>
      <trkpt lat="45.210780" lon="6.056930"></trkpt>
      <trkpt lat="45.210830" lon="6.056880"></trkpt>
      <trkpt lat="45.210840" lon="6.056760"></trkpt>
      <trkpt lat="45.210830" lon="6.056370"></trkpt>
      <trkpt lat="45.210890" lon="6.055590"></trkpt>
      <trkpt lat="45.210880" lon="6.055410"></trkpt>
      <trkpt lat="45.210820" lon="6.055170"></trkpt>
      <trkpt lat="45.210800" lon="6.054980"></trkpt>
      <trkpt lat="45.210910" lon="6.053220"></trkpt>
      <trkpt lat="45.210920" lon="6.052610"></trkpt>
      <trkpt lat="45.210780" lon="6.051580"></trkpt>
      <trkpt lat="45.210760" lon="6.051320"></trkpt>
      <trkpt lat="45.210790" lon="6.051120"></trkpt>
      <trkpt lat="45.210850" lon="6.050990"></trkpt>
      <trkpt lat="45.211080" lon="6.050740"></trkpt>
      <trkpt lat="45.211140" lon="6.050600"></trkpt>
      <trkpt lat="45.211170" lon="6.050390"></trkpt>
      <trkpt lat="45.211140" lon="6.050180"></trkpt>
      <trkpt lat="45.211070" lon="6.050050"></trkpt>
      <trkpt lat="45.210830" lon="6.049760"></trkpt>
      <trkpt lat="45.210780" lon="6.049620"></trkpt>
      <trkpt lat="45.210740" lon="6.049390"></trkpt>
      <trkpt lat="45.210850" lon="6.048440"></trkpt>
      <trkpt lat="45.210880" lon="6.048340"></trkpt>
      <trkpt lat="45.210940" lon="6.048250"></trkpt>
      <trkpt lat="45.211150" lon="6.048040"></trkpt>
      <trkpt lat="45.211220" lon="6.047930"></trkpt>
      <trkpt lat="45.211250" lon="6.047830"></trkpt>
      <trkpt lat="45.211260" lon="6.047620"></trkpt>
      <trkpt lat="45.211200" lon="6.047500"></trkpt>
      <trkpt lat="45.210670" lon="6.047130"></trkpt>
      <trkpt lat="45.210300" lon="6.046980"></trkpt>
      <trkpt lat="45.209970" lon="6.046610"></trkpt>
      <trkpt lat="45.209860" lon="6.046570"></trkpt>
      <trkpt lat="45.209580" lon="6.046530"></trkpt>
      <trkpt lat="45.209510" lon="6.046450"></trkpt>
      <trkpt lat="45.209440" lon="6.046340"></trkpt>
      <trkpt lat="45.209420" lon="6.046220"></trkpt>
      <trkpt lat="45.209470" lon="6.045470"></trkpt>
      <trkpt lat="45.209420" lon="6.045320"></trkpt>
      <trkpt lat="45.209360" lon="6.045250"></trkpt>
      <trkpt lat="45.209290" lon="6.045220"></trkpt>
      <trkpt lat="45.209200" lon="6.045220"></trkpt>
      <trkpt lat="45.208780" lon="6.045480"></trkpt>
      <trkpt lat="45.208670" lon="6.045510"></trkpt>
      <trkpt lat="45.208560" lon="6.045480"></trkpt>
      <trkpt lat="45.208430" lon="6.045370"></trkpt>
      <trkpt lat="45.208220" lon="6.044960"></trkpt>
      <trkpt lat="45.208120" lon="6.044850"></trkpt>
      <trkpt lat="45.207980" lon="6.044810"></trkpt>
      <trkpt lat="45.207470" lon="6.044780"></trkpt>
      <trkpt lat="45.207180" lon="6.044680"></trkpt>
      <trkpt lat="45.207030" lon="6.044610"></trkpt>
      <trkpt lat="45.206850" lon="6.044500"></trkpt>
      <trkpt lat="45.206600" lon="6.044270"></trkpt>
      <trkpt lat="45.206290" lon="6.043900"></trkpt>
      <trkpt lat="45.206030" lon="6.043750"></trkpt>
      <trkpt lat="45.205450" lon="6.043530"></trkpt>
      <trkpt lat="45.205200" lon="6.043360"></trkpt>
      <trkpt lat="45.205070" lon="6.043220"></trkpt>
      <trkpt lat="45.204980" lon="6.043040"></trkpt>
      <trkpt lat="45.204520" lon="6.041840"></trkpt>
      <trkpt lat="45.204370" lon="6.041620"></trkpt>
      <trkpt lat="45.203440" lon="6.040670"></trkpt>
      <trkpt lat="45.203300" lon="6.040460"></trkpt>
      <trkpt lat="45.203170" lon="6.040310"></trkpt>
      <trkpt lat="45.203100" lon="6.040260"></trkpt>
      <trkpt lat="45.203000" lon="6.040210"></trkpt>
      <trkpt lat="45.202830" lon="6.040220"></trkpt>
      <trkpt lat="45.202610" lon="6.040310"></trkpt>
      <trkpt lat="45.202490" lon="6.040330"></trkpt>
      <trkpt lat="45.202400" lon="6.040320"></trkpt>
      <trkpt lat="45.202310" lon="6.040280"></trkpt>
      <trkpt lat="45.202060" lon="6.040080"></trkpt>
      <trkpt lat="45.201660" lon="6.039580"></trkpt>
      <trkpt lat="45.201570" lon="6.039540"></trkpt>
      <trkpt lat="45.201370" lon="6.039500"></trkpt>
      <trkpt lat="45.201090" lon="6.039500"></trkpt>
      <trkpt lat="45.200880" lon="6.039470"></trkpt>
      <trkpt lat="45.200280" lon="6.039200"></trkpt>
      <trkpt lat="45.199870" lon="6.039100"></trkpt>
      <trkpt lat="45.199740" lon="6.039090"></trkpt>
      <trkpt lat="45.199540" lon="6.039120"></trkpt>
      <trkpt lat="45.199370" lon="6.039230"></trkpt>
      <trkpt lat="45.199130" lon="6.039250"></trkpt>
      <trkpt lat="45.198770" lon="6.039350"></trkpt>
      <trkpt lat="45.198600" lon="6.039320"></trkpt>
      <trkpt lat="45.198410" lon="6.039230"></trkpt>
      <trkpt lat="45.197640" lon="6.038990"></trkpt>
      <trkpt lat="45.196520" lon="6.038790"></trkpt>
      <trkpt lat="45.196260" lon="6.038770"></trkpt>
      <trkpt lat="45.196020" lon="6.038700"></trkpt>
      <trkpt lat="45.195170" lon="6.038000"></trkpt>
      <trkpt lat="45.195020" lon="6.037960"></trkpt>
      <trkpt lat="45.194550" lon="6.037930"></trkpt>
      <trkpt lat="45.194370" lon="6.037850"></trkpt>
      <trkpt lat="45.193950" lon="6.037620"></trkpt>
      <trkpt lat="45.193540" lon="6.037340"></trkpt>
      <trkpt lat="45.193060" lon="6.036740"></trkpt>
      <trkpt lat="45.192810" lon="6.036570"></trkpt>
      <trkpt lat="45.192240" lon="6.036490"></trkpt>
      <trkpt lat="45.192080" lon="6.036430"></trkpt>
      <trkpt lat="45.191990" lon="6.036330"></trkpt>
      <trkpt lat="45.191800" lon="6.036220"></trkpt>
      <trkpt lat="45.191540" lon="6.036130"></trkpt>
      <trkpt lat="45.190470" lon="6.035830"></trkpt>
      <trkpt lat="45.190080" lon="6.035660"></trkpt>
      <trkpt lat="45.189550" lon="6.035330"></trkpt>
      <trkpt lat="45.189060" lon="6.035180"></trkpt>
      <trkpt lat="45.188490" lon="6.034800"></trkpt>
      <trkpt lat="45.187670" lon="6.034190"></trkpt>
      <trkpt lat="45.187370" lon="6.033940"></trkpt>
      <trkpt lat="45.187140" lon="6.033820"></trkpt>
      <trkpt lat="45.186970" lon="6.033810"></trkpt>
      <trkpt lat="45.186350" lon="6.034060"></trkpt>
      <trkpt lat="45.185970" lon="6.034290"></trkpt>
      <trkpt lat="45.185760" lon="6.034390"></trkpt>
      <trkpt lat="45.185510" lon="6.034460"></trkpt>
      <trkpt lat="45.184450" lon="6.034630"></trkpt>
      <trkpt lat="45.183250" lon="6.034880"></trkpt>
      <trkpt lat="45.182970" lon="6.034920"></trkpt>
      <trkpt lat="45.182310" lon="6.034930"></trkpt>
      <trkpt lat="45.181930" lon="6.035030"></trkpt>
      <trkpt lat="45.181630" lon="6.035130"></trkpt>
      <trkpt lat="45.180090" lon="6.035800"></trkpt>
      <trkpt lat="45.179840" lon="6.035930"></trkpt>
      <trkpt lat="45.179330" lon="6.036350"></trkpt>
      <trkpt lat="45.179100" lon="6.036510"></trkpt>
      <trkpt lat="45.178930" lon="6.036600"></trkpt>
      <trkpt lat="45.178710" lon="6.036610"></trkpt>
      <trkpt lat="45.178500" lon="6.036550"></trkpt>
      <trkpt lat="45.178200" lon="6.036550"></trkpt>
      <trkpt lat="45.178090" lon="6.036630"></trkpt>
      <trkpt lat="45.177860" lon="6.036760"></trkpt>
      <trkpt lat="45.177750" lon="6.036740"></trkpt>
      <trkpt lat="45.177200" lon="6.036290"></trkpt>
      <trkpt lat="45.177020" lon="6.036280"></trkpt>
      <trkpt lat="45.176910" lon="6.036350"></trkpt>
      <trkpt lat="45.176640" lon="6.036690"></trkpt>
      <trkpt lat="45.176490" lon="6.036820"></trkpt>
      <trkpt lat="45.176350" lon="6.036910"></trkpt>
      <trkpt lat="45.176180" lon="6.036920"></trkpt>
      <trkpt lat="45.175880" lon="6.036860"></trkpt>
      <trkpt lat="45.175750" lon="6.036870"></trkpt>
      <trkpt lat="45.175590" lon="6.036960"></trkpt>
      <trkpt lat="45.175340" lon="6.037060"></trkpt>
      <trkpt lat="45.174970" lon="6.037050"></trkpt>
      <trkpt lat="45.174680" lon="6.037130"></trkpt>
      <trkpt lat="45.174490" lon="6.037230"></trkpt>
      <trkpt lat="45.174160" lon="6.037550"></trkpt>
      <trkpt lat="45.173930" lon="6.037690"></trkpt>
      <trkpt lat="45.173730" lon="6.037780"></trkpt>
      <trkpt lat="45.173100" lon="6.037820"></trkpt>
      <trkpt lat="45.172850" lon="6.037860"></trkpt>
      <trkpt lat="45.172370" lon="6.038030"></trkpt>
      <trkpt lat="45.172190" lon="6.038070"></trkpt>
      <trkpt lat="45.172000" lon="6.038180"></trkpt>
      <trkpt lat="45.171260" lon="6.038670"></trkpt>
      <trkpt lat="45.170560" lon="6.039070"></trkpt>
      <trkpt lat="45.170090" lon="6.039490"></trkpt>
      <trkpt lat="45.169830" lon="6.039660"></trkpt>
      <trkpt lat="45.169660" lon="6.039730"></trkpt>
      <trkpt lat="45.169480" lon="6.039730"></trkpt>
      <trkpt lat="45.169300" lon="6.039780"></trkpt>
      <trkpt lat="45.169110" lon="6.039890"></trkpt>
      <trkpt lat="45.168830" lon="6.040140"></trkpt>
      <trkpt lat="45.168680" lon="6.040420"></trkpt>
      <trkpt lat="45.168540" lon="6.040740"></trkpt>
      <trkpt lat="45.168390" lon="6.040940"></trkpt>
      <trkpt lat="45.168050" lon="6.041220"></trkpt>
      <trkpt lat="45.167500" lon="6.041480"></trkpt>
      <trkpt lat="45.167250" lon="6.041560"></trkpt>
      <trkpt lat="45.166900" lon="6.041720"></trkpt>
      <trkpt lat="45.166520" lon="6.041790"></trkpt>
      <trkpt lat="45.166170" lon="6.041770"></trkpt>
      <trkpt lat="45.165920" lon="6.041800"></trkpt>
      <trkpt lat="45.165630" lon="6.041990"></trkpt>
      <trkpt lat="45.165270" lon="6.042000"></trkpt>
      <trkpt lat="45.165000" lon="6.041980"></trkpt>
      <trkpt lat="45.164330" lon="6.042120"></trkpt>
      <trkpt lat="45.163440" lon="6.042160"></trkpt>
      <trkpt lat="45.162720" lon="6.042250"></trkpt>
      <trkpt lat="45.162340" lon="6.042230"></trkpt>
      <trkpt lat="45.161250" lon="6.042010"></trkpt>
      <trkpt lat="45.160930" lon="6.042030"></trkpt>
      <trkpt lat="45.160670" lon="6.042090"></trkpt>
      <trkpt lat="45.160120" lon="6.042340"></trkpt>
      <trkpt lat="45.159840" lon="6.042540"></trkpt>
      <trkpt lat="45.159420" lon="6.042760"></trkpt>
      <trkpt lat="45.159090" lon="6.042910"></trkpt>
      <trkpt lat="45.158580" lon="6.042960"></trkpt>
      <trkpt lat="45.158280" lon="6.043170"></trkpt>
      <trkpt lat="45.158120" lon="6.043260"></trkpt>
      <trkpt lat="45.157930" lon="6.043320"></trkpt>
      <trkpt lat="45.157430" lon="6.043440"></trkpt>
      <trkpt lat="45.157280" lon="6.043510"></trkpt>
      <trkpt lat="45.156460" lon="6.044170"></trkpt>
      <trkpt lat="45.156080" lon="6.044380"></trkpt>
      <trkpt lat="45.155750" lon="6.044620"></trkpt>
      <trkpt lat="45.155640" lon="6.044740"></trkpt>
      <trkpt lat="45.155500" lon="6.044970"></trkpt>
      <trkpt lat="45.155370" lon="6.045090"></trkpt>
      <trkpt lat="45.155210" lon="6.045180"></trkpt>
      <trkpt lat="45.154930" lon="6.045240"></trkpt>
      <trkpt lat="45.154630" lon="6.045380"></trkpt>
      <trkpt lat="45.154530" lon="6.045410"></trkpt>
      <trkpt lat="45.153600" lon="6.045520"></trkpt>
      <trkpt lat="45.153400" lon="6.045600"></trkpt>
      <trkpt lat="45.153200" lon="6.045770"></trkpt>
      <trkpt lat="45.152790" lon="6.046190"></trkpt>
      <trkpt lat="45.152660" lon="6.046280"></trkpt>
      <trkpt lat="45.152280" lon="6.046420"></trkpt>
      <trkpt lat="45.152120" lon="6.046510"></trkpt>
      <trkpt lat="45.151760" lon="6.046950"></trkpt>
      <trkpt lat="45.151580" lon="6.047120"></trkpt>
      <trkpt lat="45.149830" lon="6.048240"></trkpt>
      <trkpt lat="45.149730" lon="6.048280"></trkpt>
      <trkpt lat="45.149010" lon="6.048370"></trkpt>
      <trkpt lat="45.148640" lon="6.048500"></trkpt>
      <trkpt lat="45.148350" lon="6.048690"></trkpt>
      <trkpt lat="45.148260" lon="6.048780"></trkpt>
      <trkpt lat="45.148150" lon="6.049050"></trkpt>
      <trkpt lat="45.148020" lon="6.049650"></trkpt>
      <trkpt lat="45.147960" lon="6.049810"></trkpt>
      <trkpt lat="45.147540" lon="6.050420"></trkpt>
      <trkpt lat="45.147360" lon="6.050640"></trkpt>
      <trkpt lat="45.147220" lon="6.050740"></trkpt>
      <trkpt lat="45.147100" lon="6.050790"></trkpt>
      <trkpt lat="45.146880" lon="6.050810"></trkpt>
      <trkpt lat="45.146770" lon="6.050860"></trkpt>
      <trkpt lat="45.146570" lon="6.051050"></trkpt>
      <trkpt lat="45.146490" lon="6.051150"></trkpt>
      <trkpt lat="45.146450" lon="6.051240"></trkpt>
      <trkpt lat="45.146450" lon="6.051350"></trkpt>
      <trkpt lat="45.146380" lon="6.051370"></trkpt>
      <trkpt lat="45.146270" lon="6.051430"></trkpt>
      <trkpt lat="45.146130" lon="6.051600"></trkpt>
      <trkpt lat="45.146020" lon="6.051790"></trkpt>
      <trkpt lat="45.145980" lon="6.051970"></trkpt>
      <trkpt lat="45.145760" lon="6.053640"></trkpt>
      <trkpt lat="45.145620" lon="6.054010"></trkpt>
      <trkpt lat="45.145500" lon="6.054250"></trkpt>
      <trkpt lat="45.145280" lon="6.054440"></trkpt>
      <trkpt lat="45.145190" lon="6.054480"></trkpt>
      <trkpt lat="45.145000" lon="6.054470"></trkpt>
      <trkpt lat="45.144860" lon="6.054410"></trkpt>
      <trkpt lat="45.144770" lon="6.054350"></trkpt>
      <trkpt lat="45.144700" lon="6.054280"></trkpt>
      <trkpt lat="45.144600" lon="6.054110"></trkpt>
      <trkpt lat="45.144470" lon="6.053670"></trkpt>
      <trkpt lat="45.144390" lon="6.052830"></trkpt>
      <trkpt lat="45.144440" lon="6.052560"></trkpt>
      <trkpt lat="45.144610" lon="6.052010"></trkpt>
      <trkpt lat="45.144620" lon="6.051890"></trkpt>
      <trkpt lat="45.144600" lon="6.051740"></trkpt>
      <trkpt lat="45.144560" lon="6.051610"></trkpt>
      <trkpt lat="45.144380" lon="6.051410"></trkpt>
      <trkpt lat="45.143930" lon="6.051140"></trkpt>
      <trkpt lat="45.143640" lon="6.050860"></trkpt>
      <trkpt lat="45.143410" lon="6.050590"></trkpt>
      <trkpt lat="45.143110" lon="6.050340"></trkpt>
      <trkpt lat="45.142080" lon="6.049640"></trkpt>
      <trkpt lat="45.141340" lon="6.049240"></trkpt>
      <trkpt lat="45.140910" lon="6.049050"></trkpt>
      <trkpt lat="45.140480" lon="6.048960"></trkpt>
      <trkpt lat="45.140110" lon="6.048910"></trkpt>
      <trkpt lat="45.139610" lon="6.048960"></trkpt>
      <trkpt lat="45.139290" lon="6.048920"></trkpt>
      <trkpt lat="45.139070" lon="6.048840"></trkpt>
      <trkpt lat="45.138590" lon="6.048560"></trkpt>
      <trkpt lat="45.138390" lon="6.048470"></trkpt>
      <trkpt lat="45.138160" lon="6.048420"></trkpt>
      <trkpt lat="45.137880" lon="6.048430"></trkpt>
      <trkpt lat="45.137690" lon="6.048490"></trkpt>
      <trkpt lat="45.137370" lon="6.048670"></trkpt>
      <trkpt lat="45.136500" lon="6.049370"></trkpt>
      <trkpt lat="45.136360" lon="6.049460"></trkpt>
      <trkpt lat="45.136190" lon="6.049520"></trkpt>
      <trkpt lat="45.135980" lon="6.049530"></trkpt>
      <trkpt lat="45.134900" lon="6.049310"></trkpt>
      <trkpt lat="45.133820" lon="6.049060"></trkpt>
      <trkpt lat="45.132740" lon="6.048780"></trkpt>
      <trkpt lat="45.131660" lon="6.048460"></trkpt>
      <trkpt lat="45.130510" lon="6.048090"></trkpt>
      <trkpt lat="45.130090" lon="6.047930"></trkpt>
      <trkpt lat="45.129650" lon="6.047830"></trkpt>
      <trkpt lat="45.129490" lon="6.047740"></trkpt>
      <trkpt lat="45.129290" lon="6.047520"></trkpt>
      <trkpt lat="45.128280" lon="6.045940"></trkpt>
      <trkpt lat="45.128070" lon="6.045560"></trkpt>
      <trkpt lat="45.128080" lon="6.045430"></trkpt>
      <trkpt lat="45.128130" lon="6.045290"></trkpt>
      <trkpt lat="45.130670" lon="6.041170"></trkpt>
      <trkpt lat="45.130760" lon="6.041000"></trkpt>
      <trkpt lat="45.130750" lon="6.040890"></trkpt>
      <trkpt lat="45.130730" lon="6.040840"></trkpt>
      <trkpt lat="45.130650" lon="6.040760"></trkpt>
      <trkpt lat="45.130610" lon="6.040790"></trkpt>
      <trkpt lat="45.130570" lon="6.040760"></trkpt>
      <trkpt lat="45.130500" lon="6.040840"></trkpt>
      <trkpt lat="45.130340" lon="6.041360"></trkpt>
      <trkpt lat="45.130270" lon="6.041460"></trkpt>
      <trkpt lat="45.128180" lon="6.044120"></trkpt>
      <trkpt lat="45.128120" lon="6.044160"></trkpt>
      <trkpt lat="45.128050" lon="6.044140"></trkpt>
      <trkpt lat="45.128010" lon="6.044110"></trkpt>
      <trkpt lat="45.127980" lon="6.044040"></trkpt>
      <trkpt lat="45.127970" lon="6.043950"></trkpt>
      <trkpt lat="45.128020" lon="6.043810"></trkpt>
      <trkpt lat="45.128050" lon="6.043760"></trkpt>
      <trkpt lat="45.128280" lon="6.043630"></trkpt>
      <trkpt lat="45.128340" lon="6.043540"></trkpt>
      <trkpt lat="45.129190" lon="6.041790"></trkpt>
      <trkpt lat="45.129220" lon="6.041650"></trkpt>
      <trkpt lat="45.129210" lon="6.041350"></trkpt>
      <trkpt lat="45.129160" lon="6.041180"></trkpt>
      <trkpt lat="45.128460" lon="6.039600"></trkpt>
      <trkpt lat="45.128340" lon="6.039380"></trkpt>
      <trkpt lat="45.128120" lon="6.038880"></trkpt>
      <trkpt lat="45.128050" lon="6.038660"></trkpt>
      <trkpt lat="45.127840" lon="6.038140"></trkpt>
      <trkpt lat="45.127850" lon="6.037920"></trkpt>
      <trkpt lat="45.127920" lon="6.037490"></trkpt>
      <trkpt lat="45.127880" lon="6.037340"></trkpt>
      <trkpt lat="45.125770" lon="6.032130"></trkpt>
      <trkpt lat="45.125290" lon="6.030980"></trkpt>
      <trkpt lat="45.125200" lon="6.030870"></trkpt>
      <trkpt lat="45.125050" lon="6.030590"></trkpt>
      <trkpt lat="45.125000" lon="6.030320"></trkpt>
      <trkpt lat="45.124750" lon="6.029620"></trkpt>
      <trkpt lat="45.124360" lon="6.028700"></trkpt>
      <trkpt lat="45.123900" lon="6.027510"></trkpt>
      <trkpt lat="45.123650" lon="6.026940"></trkpt>
      <trkpt lat="45.123340" lon="6.026110"></trkpt>
      <trkpt lat="45.122520" lon="6.024030"></trkpt>
      <trkpt lat="45.122300" lon="6.023190"></trkpt>
      <trkpt lat="45.122180" lon="6.022970"></trkpt>
      <trkpt lat="45.122110" lon="6.022880"></trkpt>
      <trkpt lat="45.121930" lon="6.022770"></trkpt>
      <trkpt lat="45.121570" lon="6.022630"></trkpt>
      <trkpt lat="45.121380" lon="6.022520"></trkpt>
      <trkpt lat="45.121280" lon="6.022410"></trkpt>
      <trkpt lat="45.121150" lon="6.022200"></trkpt>
      <trkpt lat="45.121010" lon="6.021830"></trkpt>
      <trkpt lat="45.120850" lon="6.021010"></trkpt>
      <trkpt lat="45.119960" lon="6.018820"></trkpt>
      <trkpt lat="45.119800" lon="6.018460"></trkpt>
      <trkpt lat="45.119430" lon="6.017760"></trkpt>
      <trkpt lat="45.119030" lon="6.017190"></trkpt>
      <trkpt lat="45.116680" lon="6.014340"></trkpt>
      <trkpt lat="45.115500" lon="6.013090"></trkpt>
      <trkpt lat="45.114100" lon="6.015730"></trkpt>
      <trkpt lat="45.113630" lon="6.016570"></trkpt>
      <trkpt lat="45.113270" lon="6.017150"></trkpt>
      <trkpt lat="45.112200" lon="6.018330"></trkpt>
      <trkpt lat="45.111990" lon="6.018500"></trkpt>
      <trkpt lat="45.109800" lon="6.019780"></trkpt>
      <trkpt lat="45.108900" lon="6.020250"></trkpt>
      <trkpt lat="45.107990" lon="6.020610"></trkpt>
      <trkpt lat="45.107490" lon="6.020770"></trkpt>
      <trkpt lat="45.106670" lon="6.020930"></trkpt>
      <trkpt lat="45.106170" lon="6.021000"></trkpt>
      <trkpt lat="45.105380" lon="6.021020"></trkpt>
      <trkpt lat="45.102710" lon="6.021000"></trkpt>
      <trkpt lat="45.102560" lon="6.020980"></trkpt>
      <trkpt lat="45.099140" lon="6.019990"></trkpt>
      <trkpt lat="45.097890" lon="6.019600"></trkpt>
      <trkpt lat="45.095840" lon="6.019020"></trkpt>
      <trkpt lat="45.093920" lon="6.018450"></trkpt>
      <trkpt lat="45.093610" lon="6.018390"></trkpt>
      <trkpt lat="45.093170" lon="6.018330"></trkpt>
      <trkpt lat="45.088740" lon="6.018060"></trkpt>
      <trkpt lat="45.085700" lon="6.017850"></trkpt>
      <trkpt lat="45.082420" lon="6.017890"></trkpt>
      <trkpt lat="45.076520" lon="6.018010"></trkpt>
      <trkpt lat="45.076120" lon="6.017970"></trkpt>
      <trkpt lat="45.075830" lon="6.017920"></trkpt>
      <trkpt lat="45.075510" lon="6.017830"></trkpt>
      <trkpt lat="45.074900" lon="6.017520"></trkpt>
      <trkpt lat="45.074660" lon="6.017290"></trkpt>
      <trkpt lat="45.074420" lon="6.016960"></trkpt>
      <trkpt lat="45.074320" lon="6.016770"></trkpt>
      <trkpt lat="45.074200" lon="6.016360"></trkpt>
      <trkpt lat="45.073590" lon="6.016830"></trkpt>
      <trkpt lat="45.072260" lon="6.017920"></trkpt>
      <trkpt lat="45.071150" lon="6.018800"></trkpt>
      <trkpt lat="45.069920" lon="6.019670"></trkpt>
      <trkpt lat="45.068720" lon="6.020570"></trkpt>
      <trkpt lat="45.066970" lon="6.021940"></trkpt>
      <trkpt lat="45.065840" lon="6.022780"></trkpt>
      <trkpt lat="45.063960" lon="6.024230"></trkpt>
      <trkpt lat="45.063670" lon="6.024370"></trkpt>
      <trkpt lat="45.063610" lon="6.024350"></trkpt>
      <trkpt lat="45.063500" lon="6.024380"></trkpt>
      <trkpt lat="45.063430" lon="6.024470"></trkpt>
      <trkpt lat="45.063390" lon="6.024630"></trkpt>
      <trkpt lat="45.063070" lon="6.024900"></trkpt>
      <trkpt lat="45.061750" lon="6.025900"></trkpt>
      <trkpt lat="45.061370" lon="6.026130"></trkpt>
      <trkpt lat="45.060870" lon="6.026570"></trkpt>
      <trkpt lat="45.057650" lon="6.029000"></trkpt>
      <trkpt lat="45.057370" lon="6.029190"></trkpt>
      <trkpt lat="45.056830" lon="6.029450"></trkpt>
      <trkpt lat="45.056280" lon="6.029580"></trkpt>
      <trkpt lat="45.055950" lon="6.029630"></trkpt>
      <trkpt lat="45.055170" lon="6.029790"></trkpt>
      <trkpt lat="45.055000" lon="6.029890"></trkpt>
      <trkpt lat="45.054970" lon="6.029850"></trkpt>
      <trkpt lat="45.054680" lon="6.029880"></trkpt>
      <trkpt lat="45.054210" lon="6.030040"></trkpt>
      <trkpt lat="45.054090" lon="6.029480"></trkpt>
      <trkpt lat="45.054010" lon="6.029020"></trkpt>
      <trkpt lat="45.054530" lon="6.028790"></trkpt>
      <trkpt lat="45.054700" lon="6.028680"></trkpt>
      <trkpt lat="45.054920" lon="6.028450"></trkpt>
    </trkseg>
  </trk>
</gpx>
